website,dealerName,address3,lng,address2,cityCode,address1,phone2,phone1,cityName,stateName,sortId,dealerType,stateCode,id,email,lat
https://mg-brothers-nh44-bangalore-hwy-kia.com,"MG Brothers, NH44, Bangalore Hwy",Anantapur 515002,77.58245," Kakkalapalli Vill,",S99,"1-374, NH44, Bangalore Hwy,",999999999,8333099186,Anantpur,Andhra Pradesh,1,Sales,AP,AP301,gmsalesatp@mgbrotherskia.in,14.64879
https://mg-brothers-nh44-bangalore-hwy-kia.com,"MG Brothers, NH44, Bangalore Hwy",Anantapur,77.58245,"1-374, NH44, Bangalore Hwy, Kakkalapalli Vill,",S99,,999999999,9494436198,Anantpur,Andhra Pradesh,3,Service,AP,AP301,serviceatp@mgbrotherskia.in,14.64879
https://simha-kia-undi-highway.com,"Simha Kia, Undi Highway",Bhimavaram – 534202,81.496515,"Near Agriculture Check post, ",S61,"SY No:140/2B, Pedamiram Undi Road, ",999999999,7331122044,Bhimavaram,Andhra Pradesh,1,Sales,AP,AP306,salesmanager.bvrm@simha-kia.in,16.562355
https://simha-kia-undi-highway.com,"Simha Kia, Undi Highway",Bhimavaram – 534202,81.496515,"Near Agriculture Check post, ",S61,"SY No:140/2B, Pedamiram Undi Road, ",999999999,9573441726,Bhimavaram,Andhra Pradesh,3,Service,AP,AP306,Servicemanager.bvrm@simha-kia.in; ,16.562355
https://simha-kia-indira-autonagar.com,"Simha Kia, Indira Autonagar",,80.4755,"Plot No. 2, Block No. 4, Phase IV, Autonagar, Guntur",S57,,999999999,7331122066,Guntur,Andhra Pradesh,1,Sales,AP,AP402,salesmanager.gnt@simha-kia.in,16.32077
https://simha-kia-indira-autonagar.com,"Simha Kia, Indira Autonagar",,80.48051,"Plot No.5, Block No. 38, Autonagar Guntur",S57,,999999999,8106681188,Guntur,Andhra Pradesh,3,Service,AP,AP402,Servicemanager.gnt@simha-kia.in;,16.31865
https://hoshi-auto-kadapa-kia.com,"Hoshi Auto, Kadapa",,78.86189,"Cuddapah, Ysr District",SEL,"No.38/173-10-5-1,Chinna Chowk,",9849492619,9100773485,Kadappa,Andhra Pradesh,1,Sales,AP,AP502,mgrsaltpt@hoshikia.com,14.46656
https://hoshi-auto-kadapa-kia.com,"Hoshi Auto, Kadapa",,78.86189,"Cuddapah, Ysr District",SEL,"No.38/173-10-5-1,Chinna Chowk,",9491938036,6301015262,Kadappa,Andhra Pradesh,3,Service,AP,AP502,i2skdp@hoshikia.com,14.46656
https://kantipudi-kia-kakinada.com,"Kantipudi Kia, Kakinada","Kakinada, A.P., 533001",82.247467,"Ramanayyapeta, Near Post Office,",S34,"#10/07/36,Shed No G2A,Industrial Area,",7799977468,7799977468,Kakinada,Andhra Pradesh,1,Sales,AP,AP504,info@kantipudikia.co.in,16.989065
https://kantipudi-kia-kakinada.com,"Kantipudi Kia, Kakinada","Kakinada, A.P., 533001",82.247467,"Ramanayyapeta, Near Post Office,",S34,"#10/07/36,Shed No G2A,Industrial Area,",7799977468,7799977468,Kakinada,Andhra Pradesh,3,Service,AP,AP504,i2s.kkd@kantipudikia.co.in,16.989065
https://mg-brothers-kurnool-kia.com,"MG Brothers, Kurnool",Kurnool Dist 518218,78.0006683,"Peddatekuru Vill, Kallur Mandal, ",S56,"Sy No. 187/1, NH44, Hyderabad Hwy, ",999999999,9492581344,Kurnool,Andhra Pradesh,1,Sales,AP,AP302,gmknl@mgbrotherskia.in,15.7216137
https://mg-brothers-kurnool-kia.com,"MG Brothers, Kurnool",Kurnool Dist 518218,78.0006683,"Peddatekuru Vill, Kallur Mandal, ",S56,"Sy No. 187/1, NH44, Hyderabad Hwy, ",999999999,8500296423,Kurnool,Andhra Pradesh,3,Service,AP,AP302,serviceknl@mgbrotherskia.in,15.7216137
https://hoshi-auto-kakuturu-v-kia.com,"Hoshi Auto, Kakuturu(V)",,79.932673,"Kakuturu(V),Venkatachalam(M) P S R Nellore (Dist),524320",S54,"48-A1,Kolkata to Chennai High way, ",999999999,8688829729,Nellore,Andhra Pradesh,1,Sales,AP,AP303,mgrsalnlr@hoshikia.com,14.370655
https://hoshi-auto-kakuturu-v-kia.com,"Hoshi Auto, Kakuturu(V)",Nellore,79.932913,"Kakatur Gramam, Venkataachalam Mandal, Nellore, AP",S54,,8688829738,8688829738,Nellore,Andhra Pradesh,3,Service,AP,AP303,mgrsernlr@hoshikia.com,14.370664
,"Sankar Kia, Ongole"," Prakasam, Andhra Pradesh-523001",80.051261,"Revenue Ward No 45, Ongole,",S64,"45-127-85, NH 16, Throvagunta,",8886624966,8886624966,Ongole,Andhra Pradesh,1,Sales,AP,AP307,Vgmsales@sankarraoautomotives.com,15.538083
,"Sankar Kia, Ongole","Prakasam, Andhra Pradesh-523001",80.051261,"Revenue Ward No 45, Ongole,",S64,"45-127-85, NH 16, Throvagunta,",8886624950,8886624950,Ongole,Andhra Pradesh,3,Service,AP,AP307,servicemanager@sankarraoautomotives.com,15.538083
https://kantipudi-kia-lalacheruvu.com,"Kantipudi Kia, Lalacheruvu",,81.80148401,"haskar Nagar, Lalacheruvu, Rajahmundry",S53,"Plot No:4, Block NO:4, Gandhipuram -4, B",999999999,9015112345,Rajahmundry,Andhra Pradesh,1,Sales,AP,AP401,info@kantipudikia.co.in,17.02453147
https://kantipudi-kia-lalacheruvu.com,Kantipudi Kia,Velugubanda Rajahmundry Rural,,"RS No-502/1,",S53,"Near Nannayya University ,NH-5",,9849595456,Rajahmundry,Andhra Pradesh,3,Service,AP,AP201,bsm@kantipudikia.co.in,
https://kantipudi-kia-lalacheruvu.com,"Kantipudi Kia, Lalacheruvu",Pin:533103,81.801198,"Rajahmundry,EGDist,AP,",S53,"Dno:85-10-8,Srinagar,",999999999,7799977533,Rajahmundry,Andhra Pradesh,3,Service,AP,AP401,wm@kiakantipudikia.in,16.998267
https://hoshi-auto-bangalore-byepass-kia.com,"Hoshi Auto, Bangalore byepass",,79.4760023,". Chennai, Bangalore Bypass, Chittur Tirupathi",S63,"Hitec Nissan, 714/ 2B, Tukivakam, 200 ft",999999999,8688829739,Tirupati,Andhra Pradesh,1,Sales,AP,AP304,mgrsaltpt@hoshikia.com,13.6149688
https://hoshi-auto-bangalore-byepass-kia.com,"Hoshi Auto, Bangalore byepass","Bangalore Bypass, Chittur Tirupathi",79.4760023,"Hitec Nissan, 714/ 2B, Tukivakam, 200 ft. Chennai,",S63,,999999999,8688829737,Tirupati,Andhra Pradesh,3,Service,AP,AP304,Mgrsertpt@hoshikia.com,13.6149688
,"CASA Kia, Nidamanuru, Vijayawada","Nidamanuru, NTR Dist, AP -521104",80.735492,"101/1J,101/1K, 101/1H, Opp Model Dairy, Done Atkur",S51,"Rs No 10.1/2B,101/2C,101/3B,",9246833314,8345959595,Vijayawada,Andhra Pradesh,1,Sales,AP,AP308,salesmanager@casacars.in.,16.510361
https://simha-kia-ramachandra-nagar.com,"Simha Kia, Ramachandra Nagar",Vijaywada,80.67337," University Ramachandra Nagar,",S51,"D. No. 48-10-12A, Opp NTR Health ,",999999999,7331122055,Vijayawada,Andhra Pradesh,1,Sales,AP,AP403,salesmanager.vja@simha-kia.in,16.51731
https://simha-kia-ramachandra-nagar.com,"Simha Kia, Ramachandra Nagar",,80.68012,"D.No. 48-16-30-7-1, Kamineni Nagar MahanadhuRoad, Vijaywada",S51,,999999999,9000634200,Vijayawada,Andhra Pradesh,3,Service,AP,AP403,Servicemanager.vja@simha-kia.in,16.50806
https://lakshmi-kia-birla-junction.com,"Lakshmi Kia, Birla junction",,83.25952,"#38-39-66, Birla Junction, N.H-5 Road, Visakhapatnam-530007",P33,,999999999,7997815777,Vishakhapatnam,Andhra Pradesh,1,Sales,AP,AP305,agmsales@lakshmikia.com,17.74239
https://lakshmi-kia-birla-junction.com,"Lakshmi Kia, Birla junction",,83.25952,"#38-39-66, Birla Junction, N.H-5 Road, Visakhapatnam-530007",P33,,999999999,8096666489,Vishakhapatnam,Andhra Pradesh,3,Service,AP,AP305,servicemanager@lakshmikia.com,17.74239
https://nigla-kia-nirjuli.com,"Nigla Kia, Nirjuli","Itanagar, Arunachal Pradesh",93.725417,"Naharlagun, District - Papumpare",E45,Nh-415 Lekhi,6033858060,6033858060,Itanagar,Arunachal Pradesh,1,Sales,AR,AR301,agm@niglakia.co.in,27.125011
https://nigla-kia-nirjuli.com,"Nigla Kia, Nirjuli","Itanagar, Arunachal Pradesh",93.725417,"Naharlagun, District - Papumpare",E45,Nh-415 Lekhi,6033858090,6033858090,Itanagar,Arunachal Pradesh,3,Service,AR,AR301,servicemanager@niglakia.co.in,27.125011
https://borah-kia-dibrugarh.com,"Borah Kia, Dibrugarh",New Tekela Gaon- 786008,94.883466,Kumarinichiga Tiniali,E41,Nh-37,3732370069,0373-2370069,Dibrugarh,Assam,1,Sales,AS,AS301,borahkia.sales@gmail.com,27.455805
https://borah-kia-dibrugarh.com,"Borah Kia, Dibrugarh",New Tekela Gaon- 786008,94.883466,Kumarinichiga Tiniali,E41,Nh-37,3732370069,8876449484,Dibrugarh,Assam,3,Service,AS,AS301,borahkiaservice@gmail.com,27.455805
https://meridian-motors-nalapara-kia.com,"Meridian Motors, Nalapara",Assam,91.76071,Guwahat,E40,"NH 37, Near Akash Hyundai",6292134455,6292134455,Guwahati,Assam,1,Sales,AS,AS401,crm.kia.meridian@gmail.com,26.11177
https://meridian-motors-nalapara-kia.com,Mridian Motors CPO,,91.79775,"Beltola Tiniali,",E40,Basistha Road,,6292134455,Guwahati,Assam,2,Pre-owned Cars,AS,AS401,crm.kia.meridian@gmail.com,26.12582
https://meridian-motors-nalapara-kia.com,"Meridian Motors, Nalapara","NH-37, Guwahati, Assam-781022",91.813982,"Near Health City Hospital,",E40,"Uday Nagar, Khanapara, ",999999999,6901255133,Guwahati,Assam,3,Service,AS,AS401,servicemanager@meridiankia.in,26.116362
https://goyal-kia-jorhat.com,"Goyal Kia, Jorhat","Pulibor Jorhat,Assam-785006",94.174182,"Dag No. 1199, Patta No. 24,A.T. Road,",E49,"Bhatemara Gaon,  Near Deka Gaon,",8047092297,8047092297,Jorhat,Assam,1,Sales,AS,AS403,sales@goyalkia.com,26.748831
https://meridian-motors-at-road-kia.com,"Meridian Motors, AT Road","Near R.D. Motors, Nagaon –782002",92.6838,"Mouza Kachamary, Khutikatia",E51,"Patta No. 68, Daag No.302,",6901273610,6901273610,Nagaon,Assam,1,Sales,AS,AS402,gm.nagaon.tezpur@meridiankia.in,26.348
https://meridian-motors-at-road-kia.com,"Meridian Motors, AT Road","Near R.D. Motors, Nagaon –782002",92.6838,"Mouza Kachamary, Khutikatia",E51,"Patta No. 68, Daag No.302,",7099050397,7099050397,Nagaon,Assam,3,Service,AS,AS402,service.nagaon@meridiankia.in,26.348
https://infinity-kia-sonai-road.com,"INFINITY KIA, Sonai Road","Silchar, Assam-788006",92.805768,"Patta No.19 and, Dag No.140 and,",E50,"Sonai Road, Near Truck Drivers Associati",,9435071239,Silchar,Assam,1,Sales,AS,AS302,kia.silchar@gmail.com,24.795961
https://infinity-kia-sonai-road.com,"INFINITY KIA, Sonai Road","Silchar, Assam-788006",92.805768,"Patta No.19 and 45, Dag No.140 and,",E50,"Sonai Road, Near Truck Drivers Associati",9435071239,9435071239,Silchar,Assam,3,Service,AS,AS302,kia.silchar@gmail.com,24.795961
https://meridian-motors-tezpur-kia.com,"Meridian Motors, Tezpur","Sonitpur, Assam-784001",92.791778,"Patta No.531, Nikamul,Tezpur,",E56,"Dag No.1076,",6901273610,6901273610,Tezpur,Assam,1,Sales,AS,AS501,gm.nagaon.tezpur@meridiankia.in,26.652778
https://meridian-motors-tezpur-kia.com,"Meridian Motors, Tezpur","Sonitpur, Assam-784001",92.791778,"Patta No.531, Nikamul,Tezpur,",E56,"Dag No.1076,",9707394080,9707394080,Tezpur,Assam,3,Service,AS,AS501,service.nagaon@meridiankia.in,26.652778
https://borah-kia-tinsukia.com,"Borah Kia, Tinsukia",Assam-786145,95.297995," NH37, Tinsukia",E52,"Opp Laipuli Garrison,",7002212044,7002212044,Tinsukia,Assam,1,Sales,AS,AS502,borahkia.tsk@borahkia.com,27.478229
https://borah-kia-tinsukia.com,"Borah Kia, Tinsukia",Assam-786145,95.297995," NH37, Tinsukia",E52,"Opp Laipuli Garrison,",9435135163,7002212044,Tinsukia,Assam,3,Service,AS,AS502,borahkia.tsk@borahkia.com,27.478229
,"Goberdhan Kia, Darbhanga",Bihar - 846004,85.897851,"Basudeopur, NH-57, Darbhanga,",EAF,"Dilli More, Bus Stand,",9297932601,9297932601,Darbhanga,Bihar,1,Sales,BR,BR501,kiadarbhanga@gmail.com,26.187471
,"Raj KIA, Gaya","GAYA, BIHAR -823004",84.967408,"BODH-GAYA ROAD, NEAR TEKUNA FARM",E65,"PLOT NO.-1233, NH-83,",9031057100,9031057100,Gaya,Bihar,1,Sales,BR,BR302,smsales@rajkia.com,24.731657
,"Raj KIA, Gaya","GAYA, BIHAR -823004",84.967408,"BODH-GAYA ROAD, NEAR TEKUNA FARM",E65,"PLOT NO.-1233, NH-83,",9031057101,9031057101,Gaya,Bihar,3,Service,BR,BR302,smservice@rajkia.com,24.731657
https://goberdhan-kia-dariyapur-kafen.com,"Goberdhan Kia, Dariyapur Kafen",Muzaffarpur-844127,85.364636,Patna Road,E66,"Kafen, NH-77",9297932601,040-48215127,Muzaffarpur,Bihar,1,Sales,BR,BR301,kiamuzaffarpur@gmail.com,26.058204
https://goberdhan-kia-dariyapur-kafen.com,"Goberdhan Kia, Dariyapur Kafen",Muzaffarpur-844127,85.364636,Patna Road,E66,"Kafen, NH-77",9297932626,9297932626,Muzaffarpur,Bihar,3,Service,BR,BR301,Servicemanager@goberdhankia.com,26.058204
,"Amar Jyoti Kia, Saguna More","Patna, Bihar - 801105",85.0430126,"Near Kiran Dental, Danapur,Patna, Bihar - 801105",E60,"Saguna Khagaul Road, Mustafapur,",9606970220,9606970220,Patna,Bihar,1,Sales,BR,BR101,saguna@amarjyotikia.com,25.5957793
https://amar-jyoti-exhibition-road-kia.com,"Amar Jyoti, Exhibition Road",,85.14363,"Pandey Plaza, Exhibition Road, Patna, 800001",E60,,999999999,8102922001,Patna,Bihar,1,Sales,BR,BR401,care@amarjyotikia.com,25.61162
https://prema-kia-anishabad.com,"Prema Kia, Anishabad","Near Sipara, Patna, Bihar",85.12392,"NH 30, Bypass Road, Overbridge,",E60,"Jay Prakash Nagar,",9708001414,9708001414,Patna,Bihar,1,Sales,BR,BR403,chiefmanager@premagroup.in,25.58483
https://amar-jyoti-exhibition-road-kia.com,Amar Jyoti CPO,,85.191346,"Kankarbagh,",E60,Dhanki More,,8069451800,Patna,Bihar,2,Pre-owned Cars,BR,BR401,cpo@amarjyotikia.com,25.599767
https://amar-jyoti-exhibition-road-kia.com,"Amar Jyoti, Exhibition Road",,85.17453,"Pandey Motors Campus, Bhoothnath Road, Kankarbagh, 800020",E60,,999999999,7360002221,Patna,Bihar,3,Service,BR,BR401,service@amarjyotikia.com,25.59693
https://amar-jyoti-exhibition-road-kia.com,"Amar Jyoti,Kurji",,85.110737,Kia Service,E60," Kurji More, Kurji",,8102922004,Patna,Bihar,3,Service,BR,BR201,kurji@amarjyotikia.com,25.639782
https://prema-kia-anishabad.com,"Prema Kia, Anishabad","Dasaratha, Sipara, Patna, Bihar",85.122066,"behind Yati Yamaha, BC Colony,",E60,Near NH- 30,7280082641,,Patna,Bihar,3,Service,BR,BR403,md@premagroup.in,25.582873
https://kosi-kiapurnia.com,"Kosi Kia,Purnia",Purnia-854326,87.57048456,"NH 31, Barsoni,",EAH,"Kosi KIA,",7283000470,7283000470,Purnia,Bihar,1,Sales,BR,BR402,sales@kosikia.com,25.79875377
https://kosi-kiapurnia.com,"Kosi Kia,Purnia",Purnia 85431,,Belori Purnia 85431,EAH,"Kosi KIA, NH 31 Bypass Road",7283000475,7283000475,Purnia,Bihar,3,Service,BR,BR402,service@kosikia.com,
https://joshi-kia-industrial-area-phase-1.com,Joshi Kia,,76.806428,"PLOT NO.16,INDUSTRIAL AREA,PHASE-1,CHANDIGARH-160002",N70,,999999999,7087000111,Chandigarh,Chandigarh,1,Sales,CH,CH401,gaurav.misra@joshikia.in,30.712707
https://joshi-kia-industrial-area-phase-1.com,Joshi Kia CPO,CHANDIGARH-160002,76.80076,"Near Elante Mall, Industrial Area",N70,Plot No. 167,999999999,7087000111,Chandigarh,Chandigarh,2,Pre-owned Cars,CH,CH401,gaurav.misra@joshikia.in,30.70737
,"Joshi Kia, Industrial area, Phase 1-2S",CHANDIGARH-160002,76.806541,"Industrial Area, Phase 1",N70,"Plot No. 33,",0172-5305366,0172-5305366,Chandigarh,Chandigarh,3,Service,CH,CH201,joshikiachandigarh@gmail.com,30.711601
,"Joshi Kia, Industrial area, Phase 1",CHANDIGARH-160002,76.799065,"Industrial Area, Phase 1",N70,"Plot  No. 182/1,",,9875923025,Chandigarh,Chandigarh,3,Service,CH,CH401,gmaftersales@joshikia.in,30.70307
https://maosaji-kia-parsada.com,"Maosaji Kia, Parsada","Parsada,",82.118354,"Raipur Road,",W56,Near Transport Nagar Gate,8815103912,8815103912,Bilaspur,Chhattisgarh,1,Sales,CG,CG302,sales@maosajikia.com,22.043594
https://maosaji-kia-parsada.com,"Maosaji Kia, Parsada","Parsada,",82.118354,"Raipur Road,",W56,Near Transport Nagar Gate,8815103920,8815103920,Bilaspur,Chhattisgarh,3,Service,CG,CG302,sales@maosajikia.com,22.043594
https://krishna-kia-main-road-korba.com,"Krishna Kia, Main Road Korba","Korba, Chhattisgarh - 495678",82.7025069,Main Road,W62,Plot No. 487/32,8815104502,8871327554,Korba,Chhattisgarh,1,Sales,CG,CG401,sales.korba@krishnakia.com,22.34324
https://krishna-kia-main-road-korba.com,"Krishna Kia, Main Road Korba","Korba, Chhattisgarh - 495678",,Main Road,W62,Plot No. 487/32,9827461591,,Korba,Chhattisgarh,3,Service,CG,CG401,Service.korba@krishnakia.com,
https://maosaji-kia-raigarh.com,"Maosaji Kia, Raigarh","Raigarh, Chhattisgarh- 496001",83.394272,"61/28, Ward No. 45,",WCW,"Bhagwanpur, Jindal Road,",9770511222,9343604983,RAIGARH,Chhattisgarh,1,Sales,CG,CG502,salesraigarh@maosajikia.com,21.894291
,"Intara Kia,Labhandi, Raipur",Chhattisgarh- 492012,21.2381052,"Near Courtyard Marriot Hotel, Raipur, ",W54,"Plot Not. 385/3, Great Eastern Road,",7880006086,7880006086,Raipur,Chhattisgarh,1,Sales,CG,CG303,sales@intarakia.com,81.7008752
https://sairam-wheels-tatibandh-kia.com,"Sairam Wheels, Tatibandh",Raipur-492001,81.55484955,"GE Road, NH-6",W54,Khasra No. 168/2,999999999,18008895001,Raipur,Chhattisgarh,1,Sales,CG,CG301,ccmsales@sairamkiamotors.in,21.25579318
https://sairam-wheels-tatibandh-kia.com,"Sairam Kia CPO, NH 6",G.E Road,81.55484955,"Veer Sawarkar Nagar, Tatibandh",W54,"Khasara No. 338/126,",7714356400,9826628539,Raipur,Chhattisgarh,2,Pre-owned Cars,CG,CG301,cpo.sairamkia@gmail.com,21.25579318
https://sairam-wheels-tatibandh-kia.com,"Sairam Wheels, Tatibandh",Raipur-492001,81.55484955,"GE Road, NH-6",W54,Khasra No. 168/2,999999999,7247004002,Raipur,Chhattisgarh,3,Service,CG,CG301,gmservice@sairamkiamotors.in,21.25579318
https://sairam-wheels-tatibandh-kia.com,"Sairam Kia, Ring Road","Raipur, CG- 493222",81.591392,"Ring Road No. 1, opposite to Dmart, Bhatagaon,",W54,"Khasra no 336/2 and 333,",7771033444,9329931727,Raipur,Chhattisgarh,3,Service,CG,CG201,gmservice@sairamkiamotors.in,21.234565
https://allied-kia-connaught-place.com,"Allied Kia, Connaught Place",Delhi-110001,77.21989,"No.5 Scindia House,",N10,Connaught Place,8047363017,8047363017,Delhi,Delhi,1,Sales,DL,DL408,gmsalescp@allied-kia.in,28.62959
,"Automotive Kia, Dwarka","Dwarka, New Delhi - 110077",77.0632203,"Service Center Sector - 20,",N10,"Plot No -26,",7780755133,7780755133,Delhi,Delhi,1,Sales,DL,DL409,digitalsales.kiadelhi@automotiveml.com,28.567876
https://frontier-kia-safdarjung.com,"Frontier Kia, Safdarjung",,77.189665,"A2/8, Safdarjung Enclave, New Delhi 110029",N10,,999999999,9873943152,Delhi,Delhi,1,Sales,DL,DL403,saleshead.sd@frontierkia.in,28.567428
,"Ritu Kia, Mayapuri","West Delhi, Delhi -110027",77.129225,"Rajouri Garden, New Delhi,",N10,"D-13, RING ROAD,",7419798999,7419798999,Delhi,Delhi,1,Sales,DL,DL410,gmsalesdelhi@ritukia.in,28.641321
https://jayanti-motors-mathura-road-kia.com,"JAYANTI MOTORS, MATHURA ROAD",DELHI,77.17341,NEW DELHI,N10,"B1/A9, MOHAN COOPERATIVE AREA, DELHI",999999999,7290027386,Delhi,Delhi,1,Sales,DL,DL102,saleshead.mtr@jayantikia.in,28.31237
https://jayanti-kia-lajpat-nagar.com,"JAYANTI KIA, LAJPAT NAGAR",DELHI,77.14178,NEW DELHI,N10,"B-33, LAJPAT NAGAR 2, NEW DELHI",999999999,7290070428,Delhi,Delhi,1,Sales,DL,DL407,saleshead.lpn@jayantikia.in,28.34261
,"Lohia Kia, Rohini",Delhi -110085,77.135145,"Sector 14, Rohini,",N10,"E-48, Prashant Vihar,",9711154775,8929247777,Delhi,Delhi,1,Sales,DL,DL106,cre.rohini@lohiakia.com,28.715741
https://lohia-kia-wazirpur.com,"Lohia Kia, Wazirpur","Phase 2,Delhi",77.16925,"Wazirpur Industrial Area Road, Pocket C3",N10,Site No B-95,999999999,8929294444,Delhi,Delhi,1,Sales,DL,DL406,gmsales.wzp@lohiakia.com,28.70326
https://lohia-kia-peeragarhi.com,"Lohia Kia, Peeragarhi",New Delhi-110087,77.0891631,"Mianwali Nagar, Peeragarhi, ",N10,"RR4, ",999999999,8929294444,Delhi,Delhi,1,Sales,DL,DL101,gm.sales@lohiakia.com,28.6797717
https://sparsh-kia-moti-nagar.com,"Sparsh Kia, Moti Nagar",New Delhi-110015,72.8317345,"Najafgarh Road, Shivaji Marg, New Delhi",N10,"Plot no. 23 Industrial Area,",999999999,7428380700,Delhi,Delhi,1,Sales,DL,DL301,Kia@sparsh.co,21.1755596
https://speedingo-kia-patparganj.com,"Speedingo Kia, Patparganj",Delhi,77.31275,"Plot No. 77, Patparganj Industrial Area, Delhi-110092",N10,Plot No. 77,999999999,9555125125,Delhi,Delhi,1,Sales,DL,DL404,salesmanager@speedingo-kia.in,28.63749
https://speedingo-kia-patparganj.com,"Speedingo Kia, Gokulpuri","East Gokulpuri, Delhi-110094",77.2956826,"Wazirabad main road,",N10,"C-184, 186, 185, 174,",9555289289,9555289289,Delhi,Delhi,1,Sales,DL,DL103,CRM.GP@SPEEDINGO-KIA.IN,28.7008952
https://jayanti-kia-lajpat-nagar.com,"Jayanti Kia CPO, Kailash Colony",,77.24258,"NEW DELHI,",N10,"A-20, KAILASH COLONY,",,8111000009,Delhi,Delhi,2,Pre-owned Cars,DL,DL407,Mayank.saluja@jayantikia.in,28.55346
https://lohia-kia-wazirpur.com,"Lohia Kia CPO, Kailash Colony",,77.102493,"Parshant Vihar,",N10,"H.N.-48,Block-E,Upper Ground Floor",,9355005148,Delhi,Delhi,2,Pre-owned Cars,DL,DL406,usedcarhead@lohiakia.com,28.70406
https://allied-kia-connaught-place.com,"Allied Kia, Connaught Place",,77.127562,Delhi-110064,N10,"A-1, Mayapuri Industrial Estate,",8929700778,8929700778,Delhi,Delhi,3,Service,DL,DL408,smservice.delhi@allied-kia.com,28.633671
https://frontier-kia-safdarjung.com,"Frontier Kia, Safdarjung",,77.28079,"D81, Okhla Phase 1, New Delhi 110020",N10,,999999999,8882038550,Delhi,Delhi,3,Service,DL,DL403,agmservice.okh@frontierkia.in,28.5214
,"Ritu Kia, Mayapuri",Uttar Pradesh- 221105,77.17373,"Wazirpur, Industrial Area, New Delhi",N10,"65/2, Block-B,",9254076914,9254076914,Delhi,Delhi,3,Service,DL,DL410,ccmservicedelhi@ritukia.in,28.70543
https://jayanti-kia-lajpat-nagar.com,"Jayanti Motors, Okhla",DELHI-110020,77.273866,"PLOT NO A2,",N10,"Okhla Phase 1 ,",011-43536415,,Delhi,Delhi,3,Service,DL,DL202,servicemanagera2@jayantikia.in,28.52985
https://jayanti-motors-mathura-road-kia.com,"JAYANTI MOTORS, MATHURA ROAD",DELHI,77.17341,NEW DELHI,N10,"B1/A9, MOHAN COOPERATIVE AREA, DELHI",999999999,7290027386,Delhi,Delhi,3,Service,DL,DL102,,28.31237
https://jayanti-kia-lajpat-nagar.com,"JAYANTI KIA, LAJPAT NAGAR",New Delhi,77.2700633,"Okhla Industrial Area ,Phase 2 ,",N10,"Plot No – E - 41/2&amp;3 ,",8800021465,8800021460,Delhi,Delhi,3,Service,DL,DL407,servicehead@jayantikia.in,28.5377343
https://lohia-kia-wazirpur.com,"Lohia Kia, Wazirpur",Delhi,77.15767,"GT KARNAL ROAD,Delhi -110033",N10,"C-17, SMA INDUSTRIAL AREA",999999999,8929293333,Delhi,Delhi,3,Service,DL,DL406,gm.service@lohiakia.com,28.72577
https://sparsh-kia-moti-nagar.com,"Sparsh Kia, Moti Nagar",NewDelhi,77.1501,"Najafgarh Road, Next to Haldiram, Motinagar, New D",N10,,7428380704,7428380704,Delhi,Delhi,3,Service,DL,DL301,service.kia.mn@sparsh.co,28.66161
https://automotiveis-de-cristal-verna-kia.com,"Automotiveis De Cristal, Verna",Goa,73.90344,"Verna Airport Road, 4 Lane Highway, Sancole",W60,"A.B Motorpark, Next to HP Petrol Pump",7447747046,7447747046,Goa,Goa,1,Sales,GA,GA301,marketing@adckia.in,15.37411
https://automotiveis-de-cristal-verna-kia.com,"ADC Kia, North Goa",Goa - 403526,73.827507,"Tivim Industrial Estate, Karaswada, North Goa,",W60,"Plot No. 45/46,",7447747047,8956001371,Goa,Goa,1,Sales,GA,GA401,sdesai1940@gmail.com,15.612361
https://automotiveis-de-cristal-verna-kia.com,"Automotiveis De Cristal, Verna",Goa,73.90344,"Verna Airport Road, 4 Lane Highway, Sancole",W60,"A.B Motorpark, Next to HP Petrol Pump",7447747042,7447747061,Goa,Goa,3,Service,GA,GA301,servicemanager@adckia.in,15.37411
https://supernova-nikol-kia.com,"Supernova, Nikol","Nikol, Ahmedabad, Gujarat 382350.",72.678617,"besides Hero showroom, Nikol Kathvada, Sardar Patel Ring Rd,",W30,"Survey No: 28/6, 28/7, Plot no. 44",7043733733,7043733733,Ahmedabad,Gujarat,1,Sales,GJ,GJ314,info@supernovakia.com,23.0369732
https://supernova-sg-highway-south-kia.com,"Supernova, SG Highway South",,72.50043564,"es YMCA club, SG highway,380051",W30,"Westgate D block, Showrooms-1,2,3 ,besid",999999999,7043722722,Ahmedabad,Gujarat,1,Sales,GJ,GJ402,info@supernovakia.com,23.00338341
https://west-coast-sg-highway-north-kia.com,"West Coast, SG Highway North","SOLA, Ahmedabad - 380060",72.5253238,"S.G. HIGHWAY, OPP KARGIL PETROL PUMP",W30,"D1, GANESH MARIDIAN",9723316316,9727316316,Ahmedabad,Gujarat,1,Sales,GJ,GJ405,Kia.sales2@karnavati.co,23.0745631
,"West Coast Kia, Motera","Ahmedabad, Gujarat-380005",72.603324,"Dwarkesh Business Hub, Motera,",W30,"Shop No.3 To 5,",8238887600,8238887600,Ahmedabad,Gujarat,1,Sales,GJ,GJ104,sales.kiamotera@karnavati.co,23.109307
https://west-coast-ambawadi-kia.com,"West Coast, Ambawadi",AHMEDABAD- 380015,72.5540526,"IIM ROAD, PANJARA POLE, AMBAWADI, ",W30,"B-G, 01-02, SHIVALIK PLAZA, ",999999999,9377772200,Ahmedabad,Gujarat,1,Sales,GJ,GJ401,sm.kia@karnavati.co,23.040168
https://supernova-sg-highway-south-kia.com,"Supernova, Makarba","SG HIGHWAY,AHMEDABAD-380051",72.49935,"Block A, Solitaire Corporate Park,",W30,"Ground Floor Shop no. 2,3",999999999,7043722722,Ahmedabad,Gujarat,2,Pre-owned Cars,GJ,GJ402,poc@supernovakia.com,22.9998
https://west-coast-ambawadi-kia.com,"West Coast CPO, Swati Clover Buliding","Ahmedabad, Gujarat, 380054",72.548765,"Sardar Patel Ring Road, Thaltej,",W30,"7, Swati Clover, Shilaj Circle,",999999999,9377772200,Ahmedabad,Gujarat,2,Pre-owned Cars,GJ,GJ401,cpo.westcoast@karnavati.co,23.003207
https://supernova-sg-highway-south-kia.com,"Supernova, SG Highway South","SG Highway, Ahmedabad – 380054",72.50097923,"Opp SK Farm,Besides Patron Building,",W30,"Behind Rajpath Club, ",999999999,7043722722,Ahmedabad,Gujarat,3,Service,GJ,GJ402,servicemanager@supernovakia.com,23.03468138
https://supernova-nikol-kia.com,"Supernova, Nikol","Nikol, Ahmedabad, Gujarat 382350.",72.677968,"besides Hero showroom, Nikol Kathvada, Sardar Patel Ring Rd,",W30,"Survey No: 28/6, 28/7, Plot no. 44",7043733733,7043733733,Ahmedabad,Gujarat,3,Service,GJ,GJ314,servicemgr.nikol@supernovakia.com,23.037129
https://west-coast-ambawadi-kia.com,"West Coast Motors Pvt Ltd, Narol","Ahmedabad, Gujarat 382405",72.5914774,"Nr.Mukesh Industries, Isanpur -Narol Highway",W30,"Nr. Narol Circle,NH 8",,9825043256,Ahmedabad,Gujarat,3,Service,GJ,GJ203,kuldeepsingh.rathod@karnavati.co,22.9727062
https://west-coast-sg-highway-north-kia.com,"West Coast, SG Highway North",Ahmedabad-380060,72.512658,Science City Road,W30,"Survey No. 345/1, Sola,",9825043256,9825043256,Ahmedabad,Gujarat,3,Service,GJ,GJ405,kuldeepsingh.rathod@karnavati.co,23.077017
https://west-coast-ambawadi-kia.com,"West Coast, Ambawadi",,72.5918869,"Near Indus Hospital,Behind Old ONGC,Sabarmati",W30,"PltNo.199,Sabarmati Industrial Society",9825043256,9825043256,Ahmedabad,Gujarat,3,Service,GJ,GJ401,kuldeepsingh.rathod@karnavati.co,23.0924571
https://destination-kia-karamsad.com,"Destination Kia, Karamsad","Karamsad, Anand-388325",72.91433978,"Opp GMM, Anand-Sojitra Road",W36,Plot No. 535,7948058224,7948058224,Anand,Gujarat,1,Sales,GJ,GJ303,sales@destinationkia.in,22.54052659
https://destination-kia-karamsad.com,"Destination Kia, Karamsad","Karamsad, Anand-388325",72.91433978,"Opp GMM, Anand-Sojitra Road",W36,Plot No. 535,999999999,8320022065,Anand,Gujarat,3,Service,GJ,GJ303,servicemanager@destinationkia.in,22.54052659
https://shreenath-cars-bardoli-kia.com,"Shreenath Cars, Bardoli","Bardoli, Gujarat 394315",73.06926,"Bardoli Kadodara Road, Tal. Palsana,",W73,"163/1 At Post. Barasari, ",9081726777,9725077777,Bardoli,Gujarat,1,Sales,GJ,GJ506,sales@shreenathkia.in,21.125579
https://shreenath-cars-bardoli-kia.com,"Shreenath Cars, Bardoli","Bardoli, Gujarat 394315",73.06926,"Bardoli Kadodara Road, Tal. Palsana,",W73,"163/1 At Post. Barasari, ",9081726777,9081726777,Bardoli,Gujarat,3,Service,GJ,GJ506,sm.bardoli@shreenathkia.in,21.125579
https://gopinathji-kia-atladra.com,"Gopinathji Kia, Atladra",a -390012,73.15289," Atladra Railway  Station, Padra Main Road, Atladra, Vadodar",W33,"Shree Gopinathji Agencies, RS No. 7 Opp.",999999999,7874713131,Baroda,Gujarat,1,Sales,GJ,GJ305,sales@gopinathjikia.in,22.27411
https://gopinathji-kia-atladra.com,Gopinathji Kia CPO,"Kalali Vadsar Road,Vadodara",73.15289,"Near DPS School,",W33,"Ground Floor,  “Corner Heights”,  ",999999999,9979109577,Baroda,Gujarat,2,Pre-owned Cars,GJ,GJ305,kiacpo@gopinathjikia.in,22.27411
https://gopinathji-kia-atladra.com,"Gopinathji Kia, Atladra",Vadodara,73.15289,"Padra Main Road, Atladra, Vadodara",W33,"RS No.7 Opp. Atladra Railway Station,",999999999,8758144666,Baroda,Gujarat,3,Service,GJ,GJ305,servicemanager@gopinathjikia.in,22.27411
,"Gopinathji Kia, Bharuch","Bharuch, Gujarat -392210",21.75812,"N.H. No 8, AT Vaghusana,",W49,"Near Aithi Resort,",7874513131,7874513131,Bharauch,Gujarat,1,Sales,GJ,GJ319,salesmgr.bharuch@gopinathjikia.in,73.0194
https://western-kia-rajkot-road.com,"Western Kia, Rajkot road","Rajkot Road, Bhavnagar",72.0776856, P1-P2 Nari to Vartej,W64,"Plot No.C3/C4, RS No 196",8238096000,7948058648,Bhavnagar,Gujarat,1,Sales,GJ,GJ313,sm.sales@westernkia.in ,21.7451011
https://western-kia-rajkot-road.com,"Western Kia, Rajkot road","Rajkot Road, Bhavnagar",72.0776856, P1-P2 Nari to Vartej,W64,"Plot No.C3/C4, RS No 196",8238097000,,Bhavnagar,Gujarat,3,Service,GJ,GJ313,sm.service@westernkia.in,21.7451011
https://bm-kia-airport-crossways.com,"BM Kia, Airport Crossways","Vil.Galpadar, Gandhidham- 370240",70.10251536,National Highway No 8,W34,Land Survey No 93/2,7567565452,7567565452,Gandhidham,Gujarat,1,Sales,GJ,GJ311,sales@bmkia.net,23.09430674
https://bm-kia-airport-crossways.com,"BM Kia, Airport Crossways","Vil.Galpadar, Gandhidham- 370240",70.10251536,National Highway No 8,W34,Land Survey No 93/2,8980021051,8980021051,Gandhidham,Gujarat,3,Service,GJ,GJ311,gmservice@bmkia.net,23.09430674
https://vibrant-kia-sector-28-gidc.com,"Vibrant Kia, Sector 28 GIDC",Gandhinagar-382028,72.65319965,Sec-28 GIDC,W44,Plot-1001/1002,9099033325,9099033325,Gandhinagar,Gujarat,1,Sales,GJ,GJ301,kia.sales@karnavati.co,23.25584732
https://vibrant-kia-sector-28-gidc.com,"Vibrant Kia, Sector 28 GIDC",Gandhinagar-382028,72.65319965,Sec-28 GIDC,W44,Plot-1001/1002,999999999,9099033325,Gandhinagar,Gujarat,3,Service,GJ,GJ301,worksmanager@vibrantkia.com,23.25584732
https://gopinathji-kia-godhra.com,"Gopinathji Kia, Godhra",,73.642167,"Godhra Dahod Road,Vavdi, Panchmahal",W68,"Moonlight Cinema Compound,",9898369333,7574831313,Godhra,Gujarat,1,Sales,GJ,GJ501,sales@gopinathjikia.in,22.775028
https://gopinathji-kia-godhra.com,"Gopinathji Kia, Godhra",,73.642167,"Godhra Dahod Road,Vavdi, Panchmahal",W68,"Moonlight Cinema Compound,",9898369333,9898369333,Godhra,Gujarat,3,Service,GJ,GJ501,Service.godhra@gopinathjikia.in,22.775028
https://west-coast-village-motipura-kia.com,"West Coast, Village motipura",,72.9577163,"e Motipura, Himatnagar, District Sabarkantha",W47,"Survey No. 57/P, Plot No. 9 &amp; 10, Villag",999999999,9099033395,Himmatnagar,Gujarat,1,Sales,GJ,GJ302,kia.himmatnagar@karnavati.co,23.5763426
https://west-coast-village-motipura-kia.com,"West Coast, Village motipura",Sabarkantha,72.9577163,"Village Motipura, Himatnagar, District Sabarkantha",W47,,999999999,9099033395,Himmatnagar,Gujarat,3,Service,GJ,GJ302,kuldeepsingh.rathod@karnavati.co,23.5763426
https://shivam-kia-hapa.com,"Shivam Kia, HAPA"," HAPA, Jamnagar",70.114473,"Jamnagar – Rajkot Highway, Opp. Ravi Petrol Pump,",W39,"Savan IB Automotive Private Limited,",7228080804,7228080804,Jamnagar,Gujarat,1,Sales,GJ,GJ307,ccm@shivamkia.in,22.478498
https://shivam-kia-hapa.com,"Shivam Kia, Rajkot Highway", Jamnagar-361120,70.114945,"Plot No. 24, HAPA",W39,"Jamnagar, Rajkot Highway",,9925099977,Jamnagar,Gujarat,3,Service,GJ,GJ202,md@ibgroup.biz,22.476401
https://shivam-kia-hapa.com,"Shivam Kia, HAPA",Jamnagar,70.114473,"Opp. Ravi Petrol Pump, HAPA, Jamnagar",W39,"Jamnagar–Rajkot Highway,",7228080804,7228080804,Jamnagar,Gujarat,3,Service,GJ,GJ307,service-jamnagar@shivamkia.in,22.478498
,"Shivam Kia, Junagadh","Junagadh, Gujarat -362037",70.471984,"Rajkot-Junagadh Highway, Near Bhesan Chowkdi,",W40,"Plot no 16/A And B,",7227979540,7227979491,Junagarh,Gujarat,1,Sales,GJ,GJ315,md@ibgroup.biz,21.577647
https://krunal-motors-kadi-kia.com,"Krunal Motors, Kadi","At- Karannagar , Kadi",72.39121069,Kadi-Kalol Road,W77,"Plot No -1387 , Near Jaifar Hotel",9513392491,9513392491,Kadi,Gujarat,1,Sales,GJ,GJ509,Sm.kadi@krunalmotorskia.com,23.28118206
https://krunal-motors-kadi-kia.com,"Krunal Motors, Kadi","At- Karannagar , Kadi",72.39121069,Kadi-Kalol Road,W77,"Plot No -1387 , Near Jaifar Hotel",9513392491,9335938443,Kadi,Gujarat,3,Service,GJ,GJ509,kkgroup9100@gmail.com,23.28118206
https://krunal-motors-mehsana-highway-kia.com,"Krunal Motors, Mehsana highway",shobhasan-mehsana highway,72.37783097,"near green meadows party plot, opp. Reliance petrol pump,",H99,"Survey no.373,plot no.61/62, ",999999999,9998214646,Mehsana,Gujarat,1,Sales,GJ,GJ304,sales@krunalmotorskia.com,23.55008397
https://krunal-motors-mehsana-highway-kia.com,"Krunal Motors, Mehsana highway",shobhasan-mehsana highway,72.37783097,"near green meadows party plot, opp. Reliance petro",H99,,999999999,9328933770,Mehsana,Gujarat,3,Service,GJ,GJ304,ashish &lt;ashish.wm@krunalmotorskia.com&gt;,23.55008397
https://shivam-kia-morbi.com,"Shivam Kia, Morbi",,71.01617,"Morbi-Rajkot Highway,Morbi-363641",WAL,"Nr. Solar Clock,Opp Uma Party Plot",7228080803,7228080803,Morbi,Gujarat,1,Sales,GJ,GJ504,ccm@shivamkia.in,22.87694
https://shivam-kia-morbi.com,"Shivam Kia, Morbi",,71.01617,"Morbi-Rajkot Highway,Morbi-363641",WAL,"Nr. Solar Clock,Opp Uma Party Plot",7227979453,7228080803,Morbi,Gujarat,3,Service,GJ,GJ504,Service.morbi@shivamkia.in,22.87694
https://halleys-kia-near-gayatri-temple.com,"Halleys Kia, Near Gayatri Temple","Near Gayatri Temple, Dist: Banaskantha",72.430618,"B/s Shivam Auto Mall,",W67,"NH No. 27, Palanpur",999999999,8758221111,Palanpur,Gujarat,1,Sales,GJ,GJ310,sales@halleyskia.com,24.191063
https://halleys-kia-near-gayatri-temple.com,"Halleys Kia, Near Gayatri Temple","Near Gayatri Temple, Dist: Banaskantha",72.430618,"B/s Shivam Auto Mall,",W67,"NH No. 27, Palanpur",8758303333,8758303333,Palanpur,Gujarat,3,Service,GJ,GJ310,service@halleyskia.com,24.191063
https://halleys-kia-patan.com,"Halleys Kia, Patan",Patan-384265,72.13792798,Deesa-Chanasma Highway,W23,Opp. Prajapati Hostel,9512033700,9512033700,Patan,Gujarat,1,Sales,GJ,GJ507,sales.patan@halleyskia.com,23.85619817
https://halleys-kia-patan.com,"Halleys Kia, Patan",Patan-384265,72.13792798,Deesa-Chanasma Highway,W23,Opp. Prajapati Hostel,8758303333,8758303333,Patan,Gujarat,3,Service,GJ,GJ507,sales.patan@halleyskia.com,23.85619817
https://shivam-kia-gondal-road.com,"Shivam Kia, Gondal road","-88, At: Village Vavdi, Rajkot, 360004",70.7994847,"y No. 41/1. Gondal Ahmedabad By-Pass Circle, Gondal Road, NH",W31,"Savan IB Cars Pvt Ltd, Revenue Surve",7228080803,7228080803,Rajkot,Gujarat,1,Sales,GJ,GJ308,ccm@shivamkia.in,22.2427608
,"Parin Kia, Kalawad Road","Rajkot, Gujarat - 360005",70.746417,"Kalawad Road, Motamova,",W31,"Survey No. 10 Paiki 2,",7600930093,7600930093,Rajkot,Gujarat,1,Sales,GJ,GJ318,info@parinmotors.com,22.270694
https://shivam-kia-gondal-road.com,"Shivam Kia, Gondal road",Rajkot,72.91433978,"Gondal Road, NH-88, At: Village Vavdi, Rajkot",W31,Revenue Survey No. 41/1.,7228080803,7228080803,Rajkot,Gujarat,3,Service,GJ,GJ308,gmservice@shivamkia.in,22.54052659
,"Parin Kia, Kalawad Road","Rajkot, Gujarat - 360005",70.746417,"Kalawad Road, Motamova,",W31,"Survey No. 10 Paiki 2,",7600930093,7600930093,Rajkot,Gujarat,3,Service,GJ,GJ318,parin@parinfurniture.com,22.270694
https://shreenath-kia-adajan.com,"Shreenath Kia, Adajan",Adajan – Surat.,72.782784,Opposite Pal RTO.,W32,"G 6-7, Marvella Shopping centre.",9081924777,9081924777,Surat,Gujarat,1,Sales,GJ,GJ102,gmsalesadajan@shreenathkia.in,21.175159
https://shreenath-cars-piplod-kia.com,"Shreenath Cars, Piplod",,72.763016,"ne Cinema, Piplod- Surat 395007",W32,"Plot No. 49/1 Harihar Plot, Near Valenti",999999999,9725077777,Surat,Gujarat,1,Sales,GJ,GJ403,sales@shreenathkia.in,21.152855
,"Shreenath Kia, Vesu","Surat, GJ-395007",72.79741582,"Near Shyam Baba Temple, Bharthana,",W32,"Manbhari Farm, Vip Road, Opp. Vip Plaza,",9081020777,9081020777,Surat,Gujarat,1,Sales,GJ,GJ316,Cmd@Shreenathkia.In,21.14531111
https://surat-motorcars-varacha-kia.com,"Surat Motorcars, Varacha","Varachha, Surat-395006",72.91178185,Opp- Dream Land Party Plot,W32,"Ground Floor, Skyview Business Horizon",7437822222,7437822222,Surat,Gujarat,1,Sales,GJ,GJ103,contact.varachha@suratkia.in,21.24021751
https://surat-motorcars-udhana-kia.com,"Surat Motorcars, Udhana","Udhana Magdalla Road, Surat, 394210",72.8317345,"Nr Shree Chosath Joganio Mataji Temple, ",W32,"Opp. Khatodara Police Station, ",999999999,8930822222,Surat,Gujarat,1,Sales,GJ,GJ404,contact@suratkia.in,21.1755596
https://shreenath-cars-piplod-kia.com,Shreenath Cars CPO Bharthana,,72.79727526,"opp VIP plaza, Near Shyam Baba Mandir,VIP road,",W32,Manbhari Farm,9725077777,9725077777,Surat,Gujarat,2,Pre-owned Cars,GJ,GJ403,sales@shreenathkia.in,21.14423171
https://surat-motorcars-varacha-kia.com,"Surat Motorcars CPO, Udhana","Udhna Magdalla Road,",72.80822222,"Bhatar Char Rasta,",W32,"Block - 21, Besides Vishal Society,",7437822222,9316748049,Surat,Gujarat,2,Pre-owned Cars,GJ,GJ103,cpo@suratkia.in,21.16188889
https://shreenath-cars-piplod-kia.com,"Shreenath Cars, Piplod",Surat,72.728607,"ation, Hajira Road, Surat",W32,"A-42/5, Icchapore GIDC, Behind GEB Subst",9081053777,9081053777,Surat,Gujarat,3,Service,GJ,GJ403,service@shreenathkia.in,21.188122
https://surat-motorcars-udhana-kia.com,"Surat Motorcars, Udhana","Udhana , Surat-394210",72.8498465,Site No  B-171,W32,"New Industrial Estate, Udhyognnagar",,8930833333,Surat,Gujarat,3,Service,GJ,GJ201,gmservice@suratkia.in,21.1633875
https://surat-motorcars-udhana-kia.com,"Surat Motorcars, Udhana","Udhyognnagar, Udhna, Surat",72.8498465,"Udhyognnagar ,Udhna , Surat-394210",W32,"Site No  B-171 , New Industrial Estate,",999999999,8930833333,Surat,Gujarat,3,Service,GJ,GJ404,gmservice@suratkia.in,21.1633875
https://rathod-autolinks-balitha-kia.com,"Rathod Autolinks, Balitha",,72.914145,"o. 48, Balitha, Vapi, Gujarat-396191",W37,"Block No. 1496, Nr. Rathod Toyota, N.H.N",999999999,7202022444,Vapi,Gujarat,1,Sales,GJ,GJ306,info@rathodkia.com,20.39961
https://rathod-autolinks-balitha-kia.com,"Rathod Kia CPO, Salvav","Salvav, Vapi, GJ -396191",72.91543,"Maruti Suzuki Showroom, Opp.Baba Sita Ram Temple Gate, NH48,",W37,"House No.709, Near Kataria Automobiles",999999999,9227855570,Vapi,Gujarat,2,Pre-owned Cars,GJ,GJ306,info@rathodkia.com,20.40702
https://rathod-autolinks-balitha-kia.com,"Rathod Autolink, GIDC Vapi",Gujarat- 396195,72.918047,"First Phase GIDC Vapi,",W37,"Plot no.39,",9898907745,8511180518,Vapi,Gujarat,3,Service,GJ,GJ205,service@rathodkia.com,20.357567
https://rathod-autolinks-balitha-kia.com,"Rathod Autolinks, Balitha",Gujarat,72.54507708,"Nr. Rathod Toyota, N.H.No. 48, Balitha, Vapi, Guja",W37,,999999999,8511180518,Vapi,Gujarat,3,Service,GJ,GJ306,service@rathodkia.com,20.2358506
https://shreenath-cars-vyara-kia.com,"Shreenath Cars, Vyara",Vyara Gujarat,73.41555093,Vyara - Songad Road,W99,"Plot No. 61/4, Tadkua,",9725077777,9725077777,Vyara,Gujarat,1,Sales,GJ,GJ508,cmd@shreenathkia.in,21.11806703
https://shreenath-cars-vyara-kia.com,"Shreenath Cars, Vyara",Vyara Gujarat,73.41555093,Vyara - Songad Road,W99,"Plot No. 61/4, Tadkua,",9725077777,,Vyara,Gujarat,3,Service,GJ,GJ508,cmd@shreenathkia.in,21.11806703
https://mohan-vehicles-ambala-jagadhri-highway-kia.com,"Mohan Vehicles, Ambala-Jagadhri highway",,76.942644,"ighway, Ambala, Haryana",N24,"13/40 KM Stone, Tepla, Ambala-Jagadhri H",999999999,8607807100,Ambala,Haryana,1,Sales,HR,HR303,sales@mohankia.in,30.310832
https://mohan-vehicles-ambala-jagadhri-highway-kia.com,"Mohan Vehicles, Ambala-Jagadhri highway",Haryana,76.942644,"Tepla, Ambala-Jagadhri Highway, Ambala, Haryana",N24,,999999999,8607157100,Ambala,Haryana,3,Service,HR,HR303,service@mohankia.com,30.310832
https://ransh-motors-delhi-rohtak-road.com,"Ransh Motors, Bahadurgarh",,76.94025,"Ram Nagar, Bhaadurgarh-124507",NBE,"Near Rj Hospital, Delhi-Rohtak Road,",9817979136,9817979152,Bahadurgarh,Haryana,1,Sales,HR,HR504,sales@ranshkia.com,28.690389
https://ransh-motors-delhi-rohtak-road.com,"Ransh Motors, Bahadurgarh",,76.94025,"Ram Nagar, Bhaadurgarh-124507",NBE,"Near Rj Hospital, Delhi-Rohtak Road,",9817979136,9817979136,Bahadurgarh,Haryana,3,Service,HR,HR504,serviceb@ranshkia.com,28.690389
https://ritu-kia-bhiwani.com,"Ritu Kia, Bhiwani",,76.1674,Bhiwani- 127021,N74,"Oppo. Central School, Rohtak Road,",9053009868,9896110111,Bhiwani,Haryana,1,Sales,HR,HR503,Info@ritukia.in,28.7968
https://ritu-kia-bhiwani.com,"Ritu Kia, Bhiwani",,76.1674,Bhiwani- 127021,N74,"Oppo. Central School, Rohtak Road,",9053009868,9053009868,Bhiwani,Haryana,3,Service,HR,HR503,service.bhiwani@ritukia.in,28.7968
https://dhingra-motors-faridabad-kia.com,"Dhingra Motors, Faridabad",Faridabad-121002,77.31295,"Plot no, 1, Mathura Rd, Sector 27/A",N22,,9654300045,087439 00045,Faridabad,Haryana,1,Sales,HR,HR304,crm.fbd@dhingrakia.in,28.397047
https://dhingra-motors-faridabad-kia.com,"Dhingra Motors, Faridabad",Faridabad,77.3090432,"Plot no, 1, Mathura Rd, Sector 27/A",N22,,999999999,098186 33331,Faridabad,Haryana,3,Service,HR,HR304,varjesh.singh@dhingrakia.in,28.4277786
https://asb-kia-sector-61-gurugram.com,"ASB Kia, Sector 61, Gurugram","Gurugram, Haryana-122102",77.09301,"Sector 61	Gurugram,",N20,"Picasso Centre (GF+FF)	Baharampur Naya,",,8800185551,Gurgaon,Haryana,1,Sales,HR,HR407,kia.ggm@asbkia.in,28.416534
https://allied-motors-sohna-road-kia.com,"Allied Motors, Sohna Road",Gurugram,77.04076," Malibu Town, Sector 47, Gurgaon, Haryana",N20,"Unit No. 27 to 30,  GF, Spaze Boulevard,",999999999,9899486666,Gurgaon,Haryana,1,Sales,HR,HR401,pankajlalit@alliedmotors.net,28.41787
https://dhingra-motors-old-gurgaon-kia.com,"Dhingra Motors, Old Gurgaon",Gurugram-122001,77.052147,"IDC, MG Road, Gurgaon",N20,Plot No B34,999999999,8745900045,Gurgaon,Haryana,1,Sales,HR,HR403,crmsales.ggn@dhingrakia.in,28.472029
https://frontier-kia-mg-road.com,"Frontier Kia, Golf Course Road",122022,77.072288,"Golf Course Road, Gurugram, Haryana - 122022",N20,"A-14/14, DLF Phase-1",9999999999,9654264367,Gurgaon,Haryana,1,Sales,HR,HR405,Saleshead.ggn@frontierkia.in,28.480146
https://asb-kia-sector-61-gurugram.com,"ASB Kia, Udyog Vihar, Gurugram",Haryana - 122016,77.080055,"Phase IV	Gurugram,",N20,"288A, Udyog Vihar,",,9650874111,Gurgaon,Haryana,3,Service,HR,HR407,gmservice.ggm@asbkia.in,28.497958
https://allied-motors-sohna-road-kia.com,"Allied Motors, Sohna Road",Gurgaon,77.00053,"gumpur Khatola, Gurgaon",N20,"RECT No. 31, Killa No. 8, , Village - Be",999999999,8929581188,Gurgaon,Haryana,3,Service,HR,HR401,bodyshopgurgaon@allied-kia.in,28.40941
https://dhingra-motors-old-gurgaon-kia.com,"Dhingra Motors, Old Gurgaon",Haryana-122004,77.009397,"Khandsa, Gurgaon",N20,Khasra No. 1169,999999999,8743045000,Gurgaon,Haryana,3,Service,HR,HR403,varjesh.singh@dhingrakia.in,28.423687
https://frontier-kia-mg-road.com,"Frontier Kia, MG Road",,77.063529,"Plot 34, Sector 18, Gurgaon 122002",N20,,9999999999,7827042251,Gurgaon,Haryana,3,Service,HR,HR405,servicemgr.ggn@frontierkia.in,28.4885978
https://ritu-kia-o-p-jindal-marg.com,"Ritu Kia, O P Jindal marg",,75.80502,"9th KM Stone, O P Jindal Marg, Hisar, Haryana-125001",N23,,999999999,7419994999,Hissar,Haryana,1,Sales,HR,HR302,Info@ritukia.in,29.11936
https://ritu-kia-o-p-jindal-marg.com,"Ritu Kia, O P Jindal marg","Hisar, Haryana",75.80502,"9th KM Stone, O P Jindal Marg, Hisar,",N23,,999999999,9053009822,Hissar,Haryana,3,Service,HR,HR302,smservicehisar@ritukia.in,29.11936
https://raja-kia-kaithal.com,"Raja Kia, Kaithal","Opposite Arena Showroom, Kaithal-136027",76.42086,"Rect No.69,Ambala Road",N15,"Khewat No.827/1,Khatoni No. 1006/1",7948060002,7948060002,Kaithal,Haryana,1,Sales,HR,HR306,gmsales@rajakia.in,29.82514
https://aaryaman-kia.in.kia,"Aaryaman Kia, GT road",,76.9853677,"117/6 KM STONE, GT ROAD KARNAL, HARYANA -132001",N21,,999999999,7298000345,Karnal,Haryana,1,Sales,HR,HR301,sales@aaryamankia.in,29.6508978
https://aaryaman-kia.in.kia,"Aaryaman Kia, GT road",HARYANA,76.9853677,"117/6 KM STONE, GT ROAD KARNAL, HARYANA",N21,,999999999,7298000378,Karnal,Haryana,3,Service,HR,HR301,servicehead@aaryamankia.in,29.6508978
,"Lally Kia, Hoshiarpur",Punjab -146022,75.857288,"Jalandhar Road, Hoshiarpur,",N77,"HB 245,",8552900009,8552900009,Kurukshetra,Haryana,1,Sales,HR,HR507,smhsp@lallykia.in,31.503997
,"Saluja Kia, Palwal","Palwal, Haryana-121102",77.326369,"Delhi Agra Highway, Huda Chowk,",N18,"Near Pappan Plaza, 57 Km,",7056661800,7056661800,Palwal,Haryana,1,Sales,HR,HR311,saleshead@salujakia.com,28.155537
"Near Pappan Plaza, 57 Km,","Saluja Kia, Palwal",Haryana-121102,77.326369,"Delhi Agra Highway, Huda Chowk, Palwal,",N18,"Near Pappan Plaza, 57 Km,",7056661801,7056661801,Palwal,Haryana,3,Service,HR,HR311,crm_service@salujakia.com,28.155537
https://klg-kia-panchkula.com,"KLG KIA, Panchkula","Panchkula, Haryana-134113",77.30897,"Plot No. 171 P,",N26,"Industrial Area - 1,",9876222333,9876222333,Panchkula,Haryana,1,Sales,HR,HR307,gmsales@klgkia.in,28.45882
https://klg-kia-panchkula.com,"KLG KIA, Panchkula","Panchkula, Haryana-134113",,"Plot No. 171 P,",N26,"Industrial Area - 1,",8068097777,,Panchkula,Haryana,3,Service,HR,HR307,gmaftersales@klgkia.in,
https://aaryaman-kia-panipat.com,"Aaryaman Kia, Panipat",Haryana- 132103,76.988277,"GT Road, Panipat,",N69,"Killa No. 16/2, Village Sewah,",7298000355,7298000355,Panipat,Haryana,1,Sales,HR,HR310,edp.panipat@aaryamankia.in,29.325314
https://aaryaman-kia-panipat.com,"Aaryaman Kia CPO, Panipat","Phase 1, Panipat, Haryana -132103",76.978041,"Sector 25 Huda Industrial Area, ",N69,"Plot Number 24,",7027715555,7027715555,Panipat,Haryana,2,Pre-owned Cars,HR,HR310,sales.panipat@aaryamankia.in,29.371118
https://elite-kia-delhi-road.com,"Elite Kia, Delhi Road",Haryana- 123401,76.640752,"Delhi Road, Rewari ",N13,"Near Abhay Singh Chowk,",7419980700,7419980700,Rewari,Haryana,1,Sales,HR,HR305,Gm.Sales@elitekia.in,28.200574
https://elite-kia-delhi-road.com,"Elite Kia, Delhi Road",Haryana- 123401,76.640752,"Delhi Road, Rewari ",N13,"Near Abhay Singh Chowk,",7419980621,7419980621,Rewari,Haryana,3,Service,HR,HR305,Gm.service@elitekia.in,28.200574
https://ransh-motors-jind-byepass-road-kia.com,"Ransh Motors, Jind byepass road",,76.57732,"d, Opp New Power House, Rohtak",N12,"Khasra No. 14664/4895, Jind Bye Pass Roa",999999999,9817979125,Rohtak,Haryana,1,Sales,HR,HR402,sales@ranshkia.com,28.91707
https://ransh-motors-jind-byepass-road-kia.com,"RANSH KIA, BAHUJAMALPUR","BAHUJAMALPUR ROHTAK, HARYANA-124001",76.51846,"KHEWAT NO 97 MIN, KHATA NO 101 MIN",N12,"KILA NO 61/3/2/2, HISAR ROAD",,9817979122,Rohtak,Haryana,3,Service,HR,HR201,GM.SERVICE@RANSHKIA.COM,28.903868
https://ransh-motors-jind-byepass-road-kia.com,"Ransh Motors, Jind byepass road",Haryana,76.57732,"DC, Hissar Road, Rohtak, Haryana",N12,"Killa No. 23/2, Village Kutana, Behind I",999999999,9215889627,Rohtak,Haryana,3,Service,HR,HR402,gm.service@ranshkia.com,28.91707
https://www.ritu-kia-sirsa.com/,"Ritu Kia, Sirsa",Haryana-125055,75.03942,"Near OHM Cinema, Sirsa,",N27,"VPO Moriwala, Hisar Road,",9910099706,9053009900,Sirsa,Haryana,1,Sales,HR,HR309,gmsales@ritukia.in,29.53425
https://www.ritu-kia-sirsa.com/,"Ritu Kia, Sirsa",Haryana-125055,75.03942,"Near OHM Cinema, Sirsa,",N27,"VPO Moriwala, Hisar Road,",9053009826,9053009826,Sirsa,Haryana,3,Service,HR,HR309,gmservice@ritukia.com,29.53425
https://legacy-kia-gt-road.com,"Legacy Kia, GT Road",,77.12273,"tt, Sonipat, Haryana",N14,"31 Km Stone, N H 1, G T Road, Kundli Dis",999999999,7496969901,Sonepat,Haryana,1,Sales,HR,HR404,gm@legacykia.in,28.86966
https://legacy-kia-gt-road.com,"Legacy Kia, GT Road",,77.07726,"43/6, Jat Joshi, Bahalgarh Road, Sonipat, Haryana",N14,,999999999,7496969920,Sonepat,Haryana,3,Service,HR,HR404,gmservice@legacykia.in,28.97023
https://mohan-vehicles-yamunanagar-kia.com,"Mohan Vehicles, Yamunanagar",,77.310877,,N25,"Agrasen Chowk ,Court Road,Jagadhri",9817707100,9817707100,Yamunanagar,Haryana,1,Sales,HR,HR505,sales@mohankia.in,30.156255
https://mohan-vehicles-yamunanagar-kia.com,"Mohan Vehicles, Yamunanagar",,77.310877,,N25,"Agrasen Chowk ,Court Road,Jagadhri",9817707100,9817707100,Yamunanagar,Haryana,3,Service,HR,HR505,ynr@mohankia.in,30.156255
,"Surya Kia, Hamirpur","Hamirpur,Himachal Pradesh -177001",76.552339,"NH 103,  Near Reliance Petrol Pump,",N83,"Village Chattar, Bhira,",9317079366,9317079366,Hamirpur,Himachal Pradesh,1,Sales,HP,HP303,suryaautomobiles.tatamotors@gmail.com,31.648178
https://sant-autocraft-kangra-kia.com,"Sant Autocraft, Kangra",,76.313111,Matour Distt. Kangra  H.P. 176001 ,N82,"Nh 154,Mandi Pathankot Road,",9899063696,9899063696,Kangra,Himachal Pradesh,1,Sales,HP,HP501,sm@santautocraft-kia.in,32.108917
https://sant-autocraft-kangra-kia.com,"Sant Autocraft, Kangra",,76.313111,Matour Distt. Kangra  H.P. 176001 ,N82,"Nh 154,Mandi Pathankot Road,",7876906855,7876906855,Kangra,Himachal Pradesh,3,Service,HP,HP501,service.kangra@santautocraft-kia.in,32.108917
https://sant-autocraft-muhal-otta-gutkar-kia.com,"Sant Autocraft, Muhal Otta Gutkar",District Mandi (H.P) 175021,76.94422,"NH-21, Muhul Otta Gutkar",N80,Plot Khasra No. 51/1,9899063696,9899063696,Mandi,Himachal Pradesh,1,Sales,HP,HP301,sm@santautocraft-kia.in,31.66385
https://sant-autocraft-muhal-otta-gutkar-kia.com,"Sant Autocraft, Muhal Otta Gutkar",District Mandi (H.P) 175021,76.94422,"NH-21, Muhul Otta Gutkar",N80,Plot Khasra No. 51/1,7876907055,7876907055,Mandi,Himachal Pradesh,3,Service,HP,HP301,service@santautocraft-kia.in,31.66385
,"RC Kia, Shimla",Himachal Pradesh-171006,77.20207597,"Bhattakufer, Shimla",N05,"Platinum Mall 9 Frood,",9816184888,9816184888,Shimla,Himachal Pradesh,1,Sales,HP,HP502,sales@rckiashimla.com,31.09869193
https://r-c-kia-nh-22.com,"R C Kia, NH-22",Barog Bypass,77.1097,"Village Anji, NH-22",N81,Platinum Mall VI,9816006888,8894778888,Solan,Himachal Pradesh,1,Sales,HP,HP302,info@rc-kia.com,30.8941
https://r-c-kia-nh-22.com,"R C Kia, NH-22",Barog Bypass,77.1097,"Village Anji, NH-22",N81,Platinum Mall VI,8894778889,8894778889,Solan,Himachal Pradesh,3,Service,HP,HP302,info@rc-kia.com,30.8941
https://pal-kia.in.kia,"Pal Kia, Thangaer, NH-1A",,74.89861,"Khasra No. 278, Vill, Thangaer, National Highway, 1A, Jammu",N50,,999999999,6006800800,Jammu,Jammu and Kashmir,1,Sales,JK,JK401,info@palkia.in,32.69963
,"Pal Kia CPO, Akhnoor Road",Jammu-180002,74.84267,"Akhnoor Highway, Jammu - 180002",N50,"KIA CPO, Opp Piller No.5,",6006800811,6006800811,Jammu,Jammu and Kashmir,2,Pre-owned Cars,JK,JK401,sumit.sharma@palkia.in,32.73189
https://pal-kia.in.kia,"Pal Kia, Thangaer, NH-1A",Jammu,74.91471,"nal Highway, Jammu, Sidhra, Jammu",N50,"Khasra No. 193/194, Jammu Srinagar Natio",999999999,6006900900,Jammu,Jammu and Kashmir,3,Service,JK,JK401,vicky.raina@palkia.in,32.76164
,"Elgen KIA, Bokaro",Jharkhand - 827013,86.199738,"Chas-28, Paragona, Khaspel, Bokaro,",E64,"Plot no. 927, Mouza- Dumarjore,Plot no. 927, Mouza- Dumarjore,",9234111050,9234111050,Bokaro,Jharkhand,1,Sales,JH,JH304,,23.656868
,"Elgen KIA, Bokaro","Bokaro, Jharkhand - 827013",86.200185,"Chas-28, Paragona, Khaspel,",E64,"Plot no. 927, Mouza- Dumarjore,",9263855020,9263855020,Bokaro,Jharkhand,3,Service,JH,JH304,gmservice@elgenkia.com,23.656659
https://juhi-kia-deoghar.com,"Juhi Kia, Deoghar","Baijnathpur,Deoghar-814112",86.695175,"Below State Bank Of India, Maheshmara,",EBB,"Dumka Road, Ward No.27, P.S.Rikhiya ",8651037783,9297944027,DEOGHAR,Jharkhand,1,Sales,JH,JH501,sales.kia@juhimotor.com,24.482775
https://juhi-kia-deoghar.com,"Juhi Kia, Deoghar","Baijnathpur,Deoghar-814112",86.695175,"Below State Bank Of India, Maheshmara,",EBB,"Dumka Road, Ward No.27, P.S.Rikhiya ",8651037783,8651037783,DEOGHAR,Jharkhand,3,Service,JH,JH501,Service.deogharkia@juhimotor.com,24.482775
https://juhi-kia-gt-road-barwadda.com,"Juhi Kia, GT road, Barwadda",,86.4361, Jharkhand - 826004 ,E62,"Plot No. 807 GT Road, Barwadda, Dhanbad,",999999999,9297942222,Dhanbad,Jharkhand,1,Sales,JH,JH301,sales.kia@juhimotor.com,23.8495
https://juhi-kia-gt-road-barwadda.com,"Juhi Kia, GT road, Barwadda",Jharkhand,86.4361,"Plot No. 807 GT Road, Barwadda, Dhanbad, Jharkhand",E62,,999999999,9297946666,Dhanbad,Jharkhand,3,Service,JH,JH301,service.kia@juhimotor.com,23.8495
https://utkal-kia-adityapur.com,"Utkal Kia, Adityapur",Jharkhand-832109,86.1293," Adityapur, Jamshedpur",E61,"Adityapur Kandra Main Road,",9939153299,7643992965,Jamshedpur,Jharkhand,1,Sales,JH,JH303,salesmanager@utkalkia.com,22.8006
https://utkal-kia-adityapur.com,"Utkal Kia, Adityapur",Jharkhand-832109,86.1293," Adityapur, Jamshedpur",E61,"Adityapur Kandra Main Road,",9264490015,9264490015,Jamshedpur,Jharkhand,3,Service,JH,JH303,servicemanager@utkalkia.com,22.8006
https://dilip-motors-heritage-garden-kia.com,"Dilip Motors, Heritage Garden",&amp; Jharkhand 834001,85.36887," Ranchi, Ranchi",E63,"Heritage Garden, H.B Road,",999999999,8440958440,Ranchi,Jharkhand,1,Sales,JH,JH401,gm@dilip-kia.com,23.38364
https://horizon-kia-ranchi.com,"Horizon Kia, Ratu Road","Ranchi-834005, Jharkhand",85.287137,"Village Hehal, Ratu Road, Beside Aastha Residency, ",E63,"RS Plot No 36-37, Khata No 27,",7520001101,7520001101,Ranchi,Jharkhand,1,Sales,JH,JH101,sales@horizonkia.com,23.385279
https://horizon-kia-ranchi.com,"Horizon Kia, Ashok Nagar","Ranchi, Jharkhand -834002",85.306678,"Opposite Maple Plaza, Near Road No.2, Ashok Nagar, Argora",E63,"RS Plot No 2158, Khata No 263,",,7520000101,Ranchi,Jharkhand,1,Sales,JH,JH402,sales@horizonkia.com,23.349896
https://dilip-motors-heritage-garden-kia.com,"Dilip Motors, Heritage Garden",Ranchi,85.359253,"Tata Road, Namkom, Near Riada Office, Ranchi",E63,,999999999,9693917067,Ranchi,Jharkhand,3,Service,JH,JH401,servicemanager@dilip-Kia.com,23.354705
https://horizon-kia-ranchi.com,"Horizon Kia, Pundag","Ranchi, Jharkhand -834002",85.281269,"Pundag Road, Thana No. 228",E63,"RS Plot No 3985, Khata No 21,",,7520004101,Ranchi,Jharkhand,3,Service,JH,JH402,servicehead@horizonkia.com,23.347697
https://advaith-kia-lalbagh-main-road.com,"Advaith Kia, Lalbagh Main Road",Banglore,77.58585,"No. 71&amp; 71/1, Lalbagh Main Road, Bangalore-560027",S80,No 71,999999999,6366237292,Bangalore,Karnataka,1,Sales,KA,KA301,info@advaithkia.com,12.95696
https://pps-kia-mysore-road.com,"PPS Kia, Mysore Road",Banglore,77.4955211,"Mysore road, Bangalore",S80,"Survey No. 78/2, Valagerahalli Village, ",999999999,6309990010,Bangalore,Karnataka,1,Sales,KA,KA304,gmsales.kiablr@automotiveml.com,12.92293531
https://epitome-kia-yelahanka-airport-road.com,"Epitome Kia, Yelahanka(Airport Road)","Nehru Nagar, Bangalore – 560064",77.59976,Yelahanka Old Town,S80,Survey # 99,7829933669,7829933669,Bangalore,Karnataka,1,Sales,KA,KA307,ccm.ylk@epitomekia.in,13.09901
https://epitome-automobiles-whitefield-kia.com,"Epitome Automobiles, Whitefield",,77.70913,"ahadevapura,Bangalore",S80,"19/A,Vishveshwaraiah Industrial area , M",999999999,6366243243,Bangalore,Karnataka,1,Sales,KA,KA403,ccm@epitomekia.in,12.98617
https://jsp-autocore-marathahalli-ring-road-kia.com,"JSP Autocore, Marathahalli Ring Road",Kadubeesanhalli,77.69087,"Road, Sy No. 20/7",S80,"Swamy Legato, Khata No. 330, Outer Ring ",999999999,8722878822,Bangalore,Karnataka,1,Sales,KA,KA101,asmbellandur@jspkia.com,12.93546
https://jsp-autocore-hosur-road-kia.com,"JSP Autocore, Hosur Road",Bangalore,77.64724,Singasandra,S80,"233, Hosur Main Road",999999999,9606011244,Bangalore,Karnataka,1,Sales,KA,KA303,asmhsr@jspkia.com,12.87827
https://naara-motors-jp-nagar-kia.com,"Naara Motors, J.P Nagar",Karnataka,77.58511,Bangalore,S80,"No.8A/8B, 24th Main Road, Jeewan Griha C",999999999,7406528200,Bangalore,Karnataka,1,Sales,KA,KA401,sm@naarakia.com,12.90834
https://taapasi-motors-kalyan-nagar-kia.com,"Taapasi Motors, Kalyan nagar",Bangalore-560043,77.64501,"floor, 8th Main Road HRBR Layout, 1st block ",S80,"No. 5AC-722 &amp; 724, Ground and 1st",999999999,8095537777,Bangalore,Karnataka,1,Sales,KA,KA404,info@taapasikia.in,13.02312
https://vst-central-palace-cross-road-kia.com,"VST Central, Palace Cross Road",Bengaluru,77.58589,"aluru, Karnataka- 560020",S80,"VST Vistas No 1, Palace Cross Road, Beng",999999999,9606988123,Bangalore,Karnataka,1,Sales,KA,KA102,salescrmpcr.blr@vstcentral-kia.in,12.99749
https://vst-central-yeshwanthpur-kia.com,"VST Central, Yeshwanthpur",Karnataka,77.55246,Yeshwanthppur,S80,Opp Yeshwanthpur Railway Station,999999999,9606988124,Bangalore,Karnataka,1,Sales,KA,KA306,salescrmypr.blr@vstcentral-kia.in,13.0202
https://pps-kia-mysore-road.com,"PPS Kia CPO, RR Nagar",,77.527107,"Pantharapalaya, RR Nagar",S80,"Kia CPO Facility, Katha No 2/2,",,6309990056,Bangalore,Karnataka,2,Pre-owned Cars,KA,KA304,gmsales.kiablr@automotiveml.com,12.943846
https://epitome-automobiles-whitefield-kia.com,"Epitome Automobiles CPO, Yelhanka",,77.5804777,"Hoodi Road,,",S80,"#19 A Vishveshwaraia, Industrail area,",,9606970216,Bangalore,Karnataka,2,Pre-owned Cars,KA,KA403,ccm@epitomekia.in,13.1081175
https://jsp-autocore-hosur-road-kia.com,JSP Autocore Bangalore,"(Service Road), Bangalore",77.64724,6th Sector HSR Layout,S80,R T Square No.578/B,999999999,7676661666,Bangalore,Karnataka,2,Pre-owned Cars,KA,KA303,cgmsales@jspkia.com,12.87827
https://naara-motors-jp-nagar-kia.com,"Naara Motors CPO,Omkar Nagar",,77.597564,"Opp. Rose Garden Apartments,",S80,"No.6, Bannerghatta Main Rd,Omkar Nagar",,7406528200,Bangalore,Karnataka,2,Pre-owned Cars,KA,KA401,Certifiedpreowned@naarakia.com,12.889809
https://vstcentral-kia.in/,"VST Central CPO, Ring Road","Bangalore, Karnataka- 560058",77.5261,"Kempegowda Layout, Laggera",S80,"No. 130, Ring Road",999999999,9606988134,Bangalore,Karnataka,2,Pre-owned Cars,KA,KA306,managercpo.blr@vstcentral-kia.in,13.0038
https://pps-kia-mysore-road.com,"PPS Kia, Arvind Mills","Bengaluru, Karnataka-560059",77.50402,"Sy No: 26/2 and 27/2, Kenchanahalli Village",S80,Near Arvind Mills Mysore Road,,6309990019,Bangalore,Karnataka,3,Service,KA,KA206,sm.2s@automotiveml.com,12.928794
https://advaith-kia-lalbagh-main-road.com,"Advaith Kia, Lalbagh Main Road",Bangalore,77.58585,"No. 71&amp; 71/1, Lalbagh Main Road, Bangalore",S80,,999999999,6366355151,Bangalore,Karnataka,3,Service,KA,KA301,agm@advaithkia.com,12.95696
https://pps-kia-mysore-road.com,"PPS Kia, Mysore Road",Bangalore,77.4955211,"Survey No. 78/2, Valagerahalli Village, Mysore roa",S80,,999999999,7975418103,Bangalore,Karnataka,3,Service,KA,KA304,gmservice.kiablr@automotiveml.com,12.92293531
https://epitome-kia-yelahanka-airport-road.com,"Epitome Kia, Yelahanka(Airport Road)","Nehru Nagar, Bangalore – 560064",77.59976,Yelahanka Old Town,S80,Survey # 99,6366244339,6366244339,Bangalore,Karnataka,3,Service,KA,KA307,,13.09901
https://epitome-automobiles-whitefield-kia.com,"Epitome Automobiles, Whitefield",Bangalore,77.70606,"in road,Doddanakundi Industrial area 2 ,Bangalore",S80,"23B, KIADB Industrial area,Whitefield ma",999999999,9739311653,Bangalore,Karnataka,3,Service,KA,KA403,sanjay@epitomekia.in,12.97775
https://jsp-autocore-hosur-road-kia.com,"JSP Autocore, Hosur Road","Bangalore, Karnataka-560068",77.64724,"Begur Hobli, Bangalore south Taluk,",S80,"3/3, Singasandra Village,",999999999,9513111683,Bangalore,Karnataka,3,Service,KA,KA303,servicemanagerhsr@jspkia.com,12.87827
https://naara-motors-jp-nagar-kia.com,"Naara KIA, Kanakapura Road",Bengaluru - 560062,77.53736511,"Near Thalagattapura Metro Station,",S80,"No 8/3 and 10, Kanakapura Road,",,6366436272,Bangalore,Karnataka,3,Service,KA,KA208,servicemanager.tlg@naarakia.com,12.8698092
https://naara-motors-jp-nagar-kia.com,"Naara Motors, J.P Nagar",,77.5982,"61, 13th Cross, 2nd Main, J.P. Nagar, Bangalore, Karnataka",S80,,6366380017,6366380017,Bangalore,Karnataka,3,Service,KA,KA401,Servicemanager@naarakia.com,12.90734
https://taapasi-motors-kalyan-nagar-kia.com,"Taapasi Motors, Kalyan nagar","Kyalasanahalli village, Bangalore",77.6634917,"K.R. Puram Hobli, K.R. Puram, ",S80,"SY No 24/3, 24/4, SR No. 92/2008-09, ",999999999,9093899999,Bangalore,Karnataka,3,Service,KA,KA404,gmservice@taapasikia.in ,13.0548745
https://vst-central-palace-cross-road-kia.com,"VST Central, Palace Cross Road","Bengaluru, Karnataka - 560057",77.58589,"Begalgunte, Mallasandra Village,",S80,"Survey No. 69/2, Hessarghatta Road",9845416514,9845416514,Bangalore,Karnataka,3,Service,KA,KA102,gmservice.blr@vstcentral-kia.in,12.99749
https://vst-central-yeshwanthpur-kia.com,"VST Central, Yeshwanthpur",Karnataka,77.55246,"Yeshwanthpur, Bangalore, Karnataka",S80,"Opp.Yeshwanthpur Railway Station,",999999999,9606033433,Bangalore,Karnataka,3,Service,KA,KA306,servicemanagerypr.blr@vstcentral-kia.in,13.0202
https://miraculam-kia-khanapur-road.com,"Miraculum Kia, Khanapur Road","Belgavi (Belgaum), Karnataka-590008",74.485366,Survey  No. 317/6,S88,Khanapur Road,8310158056,8310158056,Belgaum,Karnataka,1,Sales,KA,KA314,salesinfo.bgm@miraculumkia.in,15.805583
https://miraculam-kia-khanapur-road.com,"Miraculum Kia, Khanapur Road","Belgavi (Belgaum), Karnataka-590008",74.4855106,Survey  No. 317/6,S88,Khanapur Road,8310157877,8310158153,Belgaum,Karnataka,3,Service,KA,KA314,crmservice.bgm@miraculumkia.in,15.8058743
https://athena-kia-hospet-road.com,"Athena Kia, Hospet Road",Bellary  583104,76.867792,Hospete Road,S86,"Opp To  FCAI, Allipura ",6364922843,6364922843,Bellary,Karnataka,1,Sales,KA,KA309,gm.sales@athenakia.com,15.162723
https://athena-kia-hospet-road.com,"Athena Kia, Hospet Road",Bellary  583104,76.867792,Hospete Road,S86,"Opp To  FCAI, Allipura ",6364922873,6364922873,Bellary,Karnataka,3,Service,KA,KA309,gm.service@athenakia.com,15.162723
https://kumar-kia-manguli-road.com,"Kumar Kia, Manguli road","Near Ring Road, Vijayapur (Bijapur)",75.733354,NH 13 Managuli Road,SBI,Sy. No 7/1+2/A/1,7829999999,9606458511,Bijapur,Karnataka,1,Sales,KA,KA313,sales@kumarkia.com,16.798338
https://kumar-kia-manguli-road.com,"Kumar Kia, Manguli road","Near Ring Road, Vijayapur (Bijapur)",75.733354,NH 13 Managuli Road,SBI,Sy. No 7/1+2/A/1,7829999999,,Bijapur,Karnataka,3,Service,KA,KA313,bilgundimotors.glb@gmail.com,16.798338
https://jansi-kia-davanagere.com,"Jansi Kia, Davanagere","Davanagere, Karnataka-577002",14.47445,"Karur Village, Old PB Road",SCR,"Plot No.174/4, Sy. No.11/1",9538551444,9538551444,DAVANAGERE,Karnataka,1,Sales,KA,KA506,dvgsales@jansikia.in,75.88448
https://kumar-kia-gulbarga.com,"Kumar Kia, Gulbarga",Pin: 585104,76.8548292,Humnabad Road,S85,"Sy No 80, Kapnoor Industrial Area",7829990740,7829990740,Gulbarga,Karnataka,1,Sales,KA,KA310,gmsales@kumarkia.com,17.3742403
https://kumar-kia-gulbarga.com,"Kumar Kia, Gulbarga",Pin: 585104,76.8548292,Humnabad Road,S85,"Sy No 80, Kapnoor Industrial Area",7829990752,7829990752,Gulbarga,Karnataka,3,Service,KA,KA310,Bilgundimotors.glb@gmail.com,17.3742403
https://aadarsh-motors-hassan-kia.com,"Aadarsh Motors, Hassan",Hassan-573201,76.073583,Doddamandiganahalli,SBU,"#1016 &amp; 1017, Kandali Village Panchayat",9606034050,9606034050,Hassan,Karnataka,1,Sales,KA,KA504,saleshassan@volanzokia.in,12.993944
https://aadarsh-motors-hassan-kia.com,"Aadarsh Motors, Hassan",Hassan-573201,76.073583,Doddamandiganahalli,SBU,"#1016 &amp; 1017, Kandali Village Panchayat",9606039188,9606039188,Hassan,Karnataka,3,Service,KA,KA504,gmservice@volanzokia.in,12.993944
https://bhadra-kia-hospet.com,"Bhadra Kia, Hospet", Hospet- 583201,76.4108386,"Sankalapura, Bellary road",S90,"124/2, Beside canal",7760888885,7760888885,Hospet,Karnataka,1,Sales,KA,KA311,bhadrakiahpt@gmail.com,15.25882687
https://bhadra-kia-hospet.com,"Bhadra Kia, Hospet", Hospet- 583201,76.4108386,"Sankalapura, Bellary road",S90,"124/2, Beside canal",7760888885,,Hospet,Karnataka,3,Service,KA,KA311,kiabellary@gmail.com,15.25882687
https://nagshanti-kia-amargol.com,"Nagshanti Kia, Amargol",,75.08869,"Block No. 54, Amargol, Hubli",S81,,9148432469,9148432469,Hubli,Karnataka,1,Sales,KA,KA402,hblsh@nagshantikia.com,15.39427
https://nagshanti-kia-amargol.com,"Nagshanti Kia, Amargol",,75.1057,"Block No. 40/4 and 53/2, Amargol, Hubli, Karnataka",S81,,8431907312,8431907312,Hubli,Karnataka,3,Service,KA,KA402,kiawmhbl@nagshanti.in,15.35088
https://arm-kia-kushalnagar.com,"A.R.M kia, Kushalnagar","Kushalnagar , Karnataka",75.94259924,"SLN Timbers , BM Road ,Madhapatna",SEQ,Survey No – 88/1,9999999999,9606055314,KUSHAL NAGAR,Karnataka,1,Sales,KA,KA507,sales.coorg@armkia.com,12.44966077
https://epitome-automobiles-kolar-kia.com,"Epitome Automobiles, Kolar","Petechamanahally, Kolar-563101",78.132747,"C.V.Ramaiah Layout, R.V.Gardens,",SCM,"Plot No,14-2-11-148A/30,",999999999,7829244655,Kolar,Karnataka,1,Sales,KA,KA503,ccm@epitomekia.in,13.1180133
https://epitome-automobiles-kolar-kia.com,"Epitome Automobiles, Kolar","Petechamanahally, Kolar-563101",78.132747,"C.V.Ramaiah Layout, R.V.Gardens,",SCM,"Plot No,14-2-11-148A/30,",6384441122,9999999999,Kolar,Karnataka,3,Service,KA,KA503,service.karur@pressanakia.in,13.1180133
https://aadarsh-motors-mandya-kia.com,"Aadarsh Motors, Mandya",,76.919417,"Near Acetate Town, Mandya - 571 404",SCQ,"99/145, M C Road, Belur Gramapanchayath",999999999,9606034070,Mandya,Karnataka,1,Sales,KA,KA505,sales@volanzokia.in,12.540778
https://aadarsh-motors-mandya-kia.com,"Aadarsh Motors, Mandya",,76.919417,"Near Acetate Town, Mandya - 571 404",SCQ,"99/145, M C Road, Belur Gramapanchayath",9606039194,9999999999,Mandya,Karnataka,3,Service,KA,KA505,Servicemandya@volanzokia.in,12.540778
https://arm-kia-kadri-road.com,"A.R.M kia, Kadri Road",Mangaluru – 575003,74.853359,Door No. 3-W-30-2386/2,S82,"Next to City Hospital,Kadri Road",999999999,9606013152,Mangalore,Karnataka,1,Sales,KA,KA302,salesmanager@armkia.com,12.879831
https://arm-kia-kadri-road.com,"A.R.M Kia CPO, Kulur",Karnataka,74.82885,Mangalore - 575013,S82," The Riviera Building, Kulur,",999999999,9606085246,Mangalore,Karnataka,2,Pre-owned Cars,KA,KA302,salesmanager@armkia.com,12.92514
https://arm-kia-kadri-road.com,"A.R.M kia, Kadri Road",Mangaluru – 575003,74.8533349,Door No. 3-W-30-2386/2,S82,"Next to City Hospital,Kadri Road",999999999,9606013170,Mangalore,Karnataka,3,Service,KA,KA302,agmservice@armkia.com,12.8797998
https://aadarsh-motors-hunsur-road-kia.com,"Aadarsh Motors, Hunsur Road",,76.611383,"#882, Vijayanagar 1st stage, Hunsur Road, Mysore-570017",S83,,999999999,9606034060,Mysore,Karnataka,1,Sales,KA,KA405,sales@volanzokia.in,12.325549
,"Aadarsh Kia, Devegowda Circle, Mysore",Mysore - 570011,76.7048352,"Alanahalli, Near Devegowda Circle,",S83,"Sy No: 87/2, Property No. 448/386,",9606039188,9606039188,Mysore,Karnataka,3,Service,KA,KA209,gmservice@volanzokia.in,12.30446
https://aadarsh-motors-hunsur-road-kia.com,"Aadarsh Motors, Hunsur Road",Mysore,76.56803,"Industrial Area, Mysore - 570018",S83,"#14 - P, Sy No 96, 3rd Stage, Koorgalli ",999999999,9606034061,Mysore,Karnataka,3,Service,KA,KA405,servicemanager@volanzokia.in,12.35741
https://jansi-kia-vidyanagar.com,"Jansi Kia, Vidyanagar",By-Pass Road,75.587779,Nanjappa Layout,S84,"# 1, Urgadur Extesion,",8884854444,8884854444,Shimoga,Karnataka,1,Sales,KA,KA308,sales@jansikia.com,13.913811
https://jansi-kia-vidyanagar.com,"Jansi Kia, Vidyanagar",By-Pass Road,75.587779,Nanjappa Layout,S84,"# 1, Urgadur Extesion,",8884854444,8884854444,Shimoga,Karnataka,3,Service,KA,KA308,service@jansikia.in,13.913811
https://pps-kia-sira-road.com,"PPS Kia, Sira Road","Mandapa, Sira Road, Tumkur-572106",77.1031243,"Next to Bavikatte Kalyana,",SCS,"Syrvey No. 197/1,",6303622210,6303622210,Tumkur,Karnataka,1,Sales,KA,KA312,salesmanagertmk@automotivemotors.in,13.21102
https://pps-kia-sira-road.com,"PPS Kia, Sira Road","Mandapa, Sira Road, Tumkur-572106",77.06113,"Next to Bavikatte Kalyana,",SCS,"Syrvey No. 197/1,",6303622210,9391725753,Tumkur,Karnataka,3,Service,KA,KA312,servicemanagertmk@automotivemotors.in,13.21102
https://arm-kia-udupi.com,"A.R.M kia, Udupi",Katapady Panchayath,74.744604,"Nh 66,Yenagudde",S87,Door No.Yng6/22/1,9606055296,9606055296,Udipi,Karnataka,1,Sales,KA,KA501,salesmanager@armkia.com,13.291657
https://arm-kia-udupi.com,"A.R.M kia, Udupi",Katapady Panchayath,74.744604,"Nh 66,Yenagudde",S87,Door No.Yng6/22/1,9606035534,9606035534,Udipi,Karnataka,3,Service,KA,KA501,service.udupi@armkia.com,13.291657
https://dkh-motors-calicut-kia.com,"DKH Motors, Calicut",Kerala,75.76311786,"Calicut - 673005,Calicut",S70,"Athanikkal,West Hill,Kannur Road,",999999999,9207622000,Calicut,Kerala,1,Sales,KL,KL305,info@dkhkia.com,11.29873484
https://dkh-motors-calicut-kia.com,"DKH Motors, Vengeri",Kerala,75.76311786,Calicut - 673005,S70,"Athanikkal,West Hill,Kannur Road",999999999,9207649000,Calicut,Kerala,2,Pre-owned Cars,KL,KL305,servicemanagerclt@dkhkia.com,11.29873484
https://dkh-motors-calicut-kia.com,"DKH Motors, Calicut",Kerala,75.76311786,"Calicut - 673005,Calicut",S70,"Athanikkal,West Hill,Kannur Road,",999999999,9207649000,Calicut,Kerala,3,Service,KL,KL305,servicemanagerclt@dkhkia.com,11.29873484
https://incheon-kia-nettoor.com,"Incheon Kia, Nettoor","Cochin , Kerala-682040",76.31873," NH -47 ,Bypass Netoor PO ,",S72,"Plot  No – 11/336 ,",8111879111,8111879111,Cochin,Kerala,1,Sales,KL,KL310,naeem@incheonkia.com,9.948271
https://incheon-kia-desom.com,"Incheon Kia, Desom",,76.35266,", Salem-Kochi Highway, Desom, Aluva, ernakulam- 683578",S72,"Re. Sy. No. 273/5-1, Chengamanad Village",8111879111,8111879111,Cochin,Kerala,1,Sales,KL,KL302,enquiry@incheonkia.com,10.13593
https://incheon-kia-edappally.com,"Incheon Kia, Edapally","Pulibor Jorhat,Assam-785006",94.174182,"Ernakulam,Kerala 682024",S72,Edapally North Villge Edapally,8111879054,8111879054,Cochin,Kerala,1,Sales,KL,KL102,sm.edapally@incheonkia.com,26.748831
https://incheon-kia-desom.com,"Incheon Kia, Desom","Aluva, Ernakulam – 683585",76.35266,"Salem Highway,Parambayam, Nedumbassery P O, ",S72,"6/13A, 13B, 13C,NH 544, Kochi – ",8111879111,8111879111,Cochin,Kerala,3,Service,KL,KL302,enquiry@incheonkia.com,10.13593
https://incheon-kia-nettoor.com,"Incheon Kia, Nettoor","Cochin , Kerala-682040",76.31873," NH -47 ,Bypass Netoor PO ,",S72,"Plot  No – 11/336 ,",8111879111,8111879111,Cochin,Kerala,3,Service,KL,KL310,naeem@incheonkia.com,9.948271
https://dkh-motors-kannur-kia.com,"DKH Motors, Kannur",Thottada PO. Kannur. 670007,75.4180034,Kairali Nagar Nr. Govt. Industrial Training Institut,S75,"Door No. 893, Ward No. 32",999999999,9207624000,Kannur,Kerala,1,Sales,KL,KL306,info@dkhkia.com,11.8490608
https://dkh-motors-kannur-kia.com,DKH Kannur CPO,Kannur. 670007,75.4180034,Thottada,S75,Near Junior Technical High School,999999999,9656032000,Kannur,Kerala,2,Pre-owned Cars,KL,KL306,cpo.knr@dkhkia.com,11.8490608
https://dkh-motors-kannur-kia.com,"DKH Motors, Kannur",Thottada PO. Kannur. 670007,75.4180034,Kairali Nagar Nr. Govt. Industrial Training Institut,S75,"Door No. 893, Ward No. 32",999999999,8111994405,Kannur,Kerala,3,Service,KL,KL306,servicemanagerkannur@dkhkia.com,11.8490608
https://incheon-kia-kayamkulam.com,"Incheon Kia, Karthikapalli","Kayamkulam, Alappuzha District",76.4697871,"Cheppad Village, Karthikappally",S29,"Block No.14, Sy No.23/7",6282016120,6282016120,Kayamkulam,Kerala,1,Sales,KL,KL309,sales.kayamkulam@incheonkia.com,9.2447373
https://incheon-kia-athirampuzha-village.com,"Incheon Kia, Athirampuzha village","Village, Kottayam Taluk, Kottayam",76.54406," Opp. To Decathlon, Athirampuzha",S74,"Thellakom, Kottayam Ettumannor Road,",8111879111,8111879111,Kottayam,Kerala,1,Sales,KL,KL304,enquiry@incheonkia.com,9.63821
https://incheon-kia-kodimatha.com,"Incheon Kia, Kodimatha",Kottayam-686013,76.509441,"Manippuzha, Nattakom PO",S74,"12/70 A, M C Road,",8111879011,8111879011,Kottayam,Kerala,1,Sales,KL,KL101,enquiry@incheonkia.com,9.553101
https://incheon-kia-athirampuzha-village.com,Incheon Kia CPO Kulur,"Kottayam, Kerala- 686007",76.51405,"Caramel Junction, Pallom",S74,Near KSEB Office of Executive Engineer,8111879111,0484 7180000,Kottayam,Kerala,2,Pre-owned Cars,KL,KL304,usedcar@incheonkia.com,9.541855
https://incheon-kia-athirampuzha-village.com,"Incheon Kia, Athirampuzha village","Kottayam Taluk, Kottayam",76.54406,"Opp. To Decathlon, Athirampuzha Village,",S74,"Thellakom, Kottayam Ettumannor Road,",8111879111,8111879111,Kottayam,Kerala,3,Service,KL,KL304,enquiry@incheonkia.com,9.63821
https://dkh-kia-panangangara.com,"DKH KIA, Panangangara",Kerala - 679321,76.161028,"Perinthalmanna, Malapuram",S79,"NH 966, Panangangara",9947445566,9947445566,Malappuram,Kerala,1,Sales,KL,KL307,sales@dkhkia.com,10.99325
https://dkh-kia-panangangara.com,"DKH KIA, Panangangara",Kerala - 679321,76.161028,"Perinthalmanna, Malapuram",S79,"NH 966, Panangangara",9947445566,9947445566,Malappuram,Kerala,3,Service,KL,KL307,gmservice@dkhkia.com,10.99325
,"Incheon Kia, Kannadi, Palakkad","Palakkad, Kerala -678701",76.5534958," Vadakkumuri, Kannadi,",S76,"Re Sy No: 778/11, 779/36,",8848001239,8848001239,Palakkad,Kerala,3,Service,KL,KL311,service.palakkad@incheonkia.com,10.7384298
https://incheon-kia-marathakkara.com,"Incheon Kia, Marathakkara",Thrissur,76.25751,Survey No. 16/68P &amp; 16/137,S73,Puthoor Panchayat Thrissur,8111879111,8111879111,Thrissur,Kerala,1,Sales,KL,KL308,enquiry@incheonkia.com,10.48063
https://incheon-kia-marathakkara.com,"Incheon Kia CPO , Thrissur",THRISSUR. KERALA -680301,10.44706,"GF 3/554 A NH544, Service Rd,Paliyekkara,",S73,"PATHIPARAMBANS BUILDING,",4847180000,4847180000,Thrissur,Kerala,2,Pre-owned Cars,KL,KL308,Admin.ho@incheonkia.com,10.44706
https://incheon-kia-marathakkara.com,"Incheon Kia, Marathakkara",Thrissur,76.25751,Survey No. 16/68P &amp; 16/137,S73,Puthoor Panchayat Thrissur,8111879111,8111879111,Thrissur,Kerala,3,Service,KL,KL308,enquiry@incheonkia.com,10.48063
,"Automotive Kia, Thiruvananthapuram",Kerala-695501,77.024,"Pallichal, Vedivachankovil, Thiruvananthapuram,",S71,"SY.169/14, Paroorkuzhi",8297929929,8297929929,Trivandrum,Kerala,1,Sales,KL,KL403,infosales.kiatvm@automotiveml.com,8.438
,"Automotive Kia, Attingal","Thiruvananthapuram, Kerala- 695102",76.812607,"Attingal Taluk, Trivandrum, Alamcode,",S71,"Sy No 495/A2, 495/B21,",7780756858,7780756858,Trivandrum,Kerala,1,Sales,KL,KL504,salesmanager.kiatvm@automotiveml.com,8.724609
,"Automotive Kia, Thiruvananthapuram",Kerala-695522,76.999818,"Vellayayini, Nemon Village, Thiruvananthapuram,",S71,"RSO-902/9, Thejas,",9381565894,9381565894,Trivandrum,Kerala,3,Service,KL,KL403,servicemgr.kiatvm@automotiveml.com,8.457021
,"Incheon Kia, Vadanappally","Vadanappally, Thrissur, Kerala -680619,",76.06706,"Trittallur,Vadanappally, Thrissur Kerala -680619,",SIK,"Sy.No.52/4-4,Sy.No 52/4-5, Sy.No 53/2-5, Ezham Kallu Road",9995479780,8111879111,Vedanappally,Kerala,1,Sales,KL,KL312,enquiry@incheonkia.com,10.4924946
,"Incheon Kia, Vadanappally","Vadanappally, Thrissur, Kerala -680619,",75.7810831,"Ezham Kallu Road, Trittallur,",SIK,"Sy.No.52/4-4,Sy.No 52/4-5, Sy.No 53/2-5,",8111879150,8111879150,Vedanappally,Kerala,3,Service,KL,KL312,service.vadanappally@incheonkia.com,11.7629068
https://abhishek-kia-nagpur-road.com,"Abhishek Kia, Balaghat",Madhya Pradesh- 481001,21.800622,Madhya Pradesh- 481001,WAF,"Khasra No. 102, Gram Kosmi, Balaghat,",,8817404821,Balaghat,Madhya Pradesh,1,Sales,MP,MP507,sales@abhishekkia.in,21.800622
https://snr-kia-govindpura.com,"SNR Kia, Govindpura","Bhopal, Madhya Pradesh-462023",77.457477,"18/1, Sector -G,",W50,"Industrial Area, Govindpura",9977407636,9171151313,Bhopal,Madhya Pradesh,1,Sales,MP,MP403,gmsales@snrkia.com,23.260975
https://sun-globe-hoshangabad-road-kia.com,"Sun Globe, Hoshangabad Road","Bhopal, Madhya Pradesh, 462001",77.4600514,"Near Vrindavan Garden, Hoshangabad Road",W50,"Khasra No. 435/2/1/A,",999999999,9111809777,Bhopal,Madhya Pradesh,1,Sales,MP,MP301,gmsales.sunglobe@gmail.com,23.1763149
https://snr-kia-govindpura.com,"SNR Kia, Govindpura","Bhopal, Madhya Pradesh-462023",77.452476,"Plot No. 1A, 1B &amp; 2B, Sector-B",W50,"Industrial Area, Govindpura",9977407636,9171151313,Bhopal,Madhya Pradesh,3,Service,MP,MP403,neha@snrkia.com,23.262881
https://sun-globe-hoshangabad-road-kia.com,"Sun Globe, Hoshangabad Road","Bhopal, Madhya Pradesh, 462001",77.4600514,"Near Vrindavan Garden, Hoshangabad Road",W50,"Khasra No. 435/2/1/A,",9109107456,9109107456,Bhopal,Madhya Pradesh,3,Service,MP,MP301,,23.1763149
https://abhishek-kia-nagpur-road.com,"Abhishek Kia, Nagpur road",Nagpur Road-480001,78.9297081,Gram Shikarpur,W59,Near Podar School,8226006863,8226006863,Chhindwara,Madhya Pradesh,1,Sales,MP,MP305,,21.9887211
https://abhishek-kia-nagpur-road.com,"Abhishek Kia, Nagpur road",Nagpur Road-480001,78.9297081,Gram Shikarpur,W59,Near Podar School,8226006863,8226006863,Chhindwara,Madhya Pradesh,3,Service,MP,MP305,,21.9887211
https://royal-kia-guna.com,"Royal Kia, Guna",Guna 473001,77.3017482,"Aron Bypass, AB Road,",W66,"Royal Kia, Badawar House,",9893926555,9893926555,Guna,Madhya Pradesh,1,Sales,MP,MP504,sales@kia.royalgroupindia.biz,24.6338652
https://royal-kia-guna.com,"Royal Kia, Guna",Guna 473001,77.3017482,"Aron Bypass, AB Road,",W66,"Royal Kia, Badawar House,",9893926555,9893926555,Guna,Madhya Pradesh,3,Service,MP,MP504,mgr.service@kia.royalgroupindia.biz,24.6338652
https://royal-motor-shivpuri-link-road-kia.com,"Royal Motor, Shivpuri link road",-475001,78.16378335,"wroom, Shivpuri Link Road, Kedarpur, Gwalior,Madhya Pradesh ",W53,"Survey No 44, 48/2, Adjacent to Ford Sho",999999999,9109195864,Gwalior,Madhya Pradesh,1,Sales,MP,MP303,sales@kia.royalgroupindia.biz,26.16218392
https://royal-motor-shivpuri-link-road-kia.com,"Royal Motor, Shivpuri link road",Madhya Pradesh,78.16378335,"Shivpuri Link Road, Kedarpur, Gwalior,Madhya Prade",W53,"Adjacent to Ford Showroom,",999999999,9752087649,Gwalior,Madhya Pradesh,3,Service,MP,MP303,mgrservice@kia.royalgroupindia.biz,26.16218392
https://bhagirath-kiamata-gujri-campus.com,"Bhagirath Kia,Mata Gujri Campus"," Indore,Madhya Prades-452001",75.862004,"Mata Gujri Campus,A.B. Road, Bhanwarkuan",W51,"78/1/2, Village Pipaliya Rao,",9926903099,9926903099,Indore,Madhya Pradesh,1,Sales,MP,MP402,adityasharma@bhagirathmotors.co.in,22.686941
https://shri-kia-new-devas-naka.com,"Shri Kia, New Devas naka",,75.9004324,"Dewas  Naka, Indore, Madhya Pradesh-452010",W51,"Plot No. 7-10, Niranjanpur AB Road, New ",999999999,6262626801,Indore,Madhya Pradesh,1,Sales,MP,MP302,salesmanager.shrikia@sbil.in,22.76889
https://shri-kia-new-devas-naka.com,"Shri Kia CPO, Vijay Nagar","TEH INDORE, INDORE - 452010",75.89,"GRAM NIRANJANPUR, JAIN NURSERY",W51,KHASRA NO 431,,6262000584,Indore,Madhya Pradesh,2,Pre-owned Cars,MP,MP302,cpo.shrikiaindore@sbil.in,22.75
https://shri-kia-new-devas-naka.com,"Shri Kia, New Devas naka",Madhya Pradesh,75.9004324,"Plot No. 7-10, Niranjanpur AB Road, New Dewas Naka",W51,,6262626875,6262626875,Indore,Madhya Pradesh,3,Service,MP,MP302,wmservice.shrikia@sbil.in,22.76889
https://khatwani-kia-tilwaranagpur-road.com,"Khatwani Kia, Tilwara - Nagpur Road",,79.87168,"ore Little World School, Jabalpur",W52,"16/1 -17/1, Tilwaraghat-Nagpur Road, Bef",999999999,9516648888,Jabalpur,Madhya Pradesh,1,Sales,MP,MP304,khatwanikia@gmail.com,23.12335
https://khatwani-kia-tripuri-chowk.com,"Khatwani Kia, Tripuri chowk","Nagpur Road, Jabalpur, MP",79.8913054,519/4/D Garha,W52,"Tripuri Chowk,",9516648888,9516648888,Jabalpur,Madhya Pradesh,1,Sales,MP,MP101,khatwanikia@gmail.com,23.157048
https://khatwani-kia-tilwaranagpur-road.com,"Khatwani Kia, Tilwara - Nagpur Road",Jabalpur,79.87168,"Before Little World School, Jabalpur",W52,,9691139131,9685848539,Jabalpur,Madhya Pradesh,3,Service,MP,MP304,servicemanager@khatwanikia.in,23.12335
,"Bhagirath Kia, Khargone",Madhya Pradesh- 451001,72.79741582,"Sanawad Road, Gram Balwadi, Khargone",WCZ,"Patwari Halka No. 35/25,",7354911000,7354911000,Khargone,Madhya Pradesh,1,Sales,MP,MP508,gmsales@bhagirathkia.com,21.14531111
,"Shri Kia, Mhow Neemuch Road, Ratlam",Madhya Pradesh - 457001,75.067091,"Sala Khedi Mhow Neemuch Road, Ratlam,",W57,"P No 146/3 Opp. Lavanya Palace,",9826612384,9826612384,Ratlam,Madhya Pradesh,1,Sales,MP,MP309,shrikia.ratlam@sbil.in,23.307703
https://baderiya-kia-rewa.com,"Baderiya Kia, Rewa","Rewa, Madhya Pradesh-486001",81.20582,"S.No. 149/1 Beside Goel Filling Station,",WAC,"Satna Rewa Rd, Umari,",9770000801,,Rewa,Madhya Pradesh,1,Sales,MP,MP506,salesrewa@baderiyakia.in,24.50014
https://sun-globe-sagar-kia.com,"Sun Globe, Sagar",,78.815505, Baheriya Sagar 470004,SGT,Plot No.75 Infront Of Bade Shankar Ji,9111809444,9111809444,Sagar,Madhya Pradesh,1,Sales,MP,MP501,gmsales.sunglobe@gmail.com,23.88059
https://sun-globe-sagar-kia.com,"Sun Globe, Sagar",,78.815505, Baheriya Sagar 470004,SGT,Plot No.75 Infront Of Bade Shankar Ji,9893489166,9111809444,Sagar,Madhya Pradesh,3,Service,MP,MP501,Service.sagar@sunglobekia.co.in,23.88059
https://baderiya-kia-rewa-road.com,"Baderiya KIA, Rewa road","Kripalpur, Satna",80.8842796,"Near Satsang Bhawan, Rewa Road",W55,Ward No. 17,7314855077,7314855077,Satna,Madhya Pradesh,1,Sales,MP,MP306,sales@baderiyakia.in,24.5674258
https://baderiya-kia-rewa-road.com,"Baderiya KIA, Rewa road","Kripalpur, Satna",80.8842796,"Near Satsang Bhawan, Rewa Road",W55,Ward No. 17,9770000801,7489900925,Satna,Madhya Pradesh,3,Service,MP,MP306,service@baderiyakia.in,24.5674258
https://sarvagya-kia-shahdol.com,"Sarvagya Kia, Burhar Road",Madhya Pradesh-484001,81.39581027,"Burhar Road, Shahdol,",WCY,"Khasra No 183, 193 NH-43, ",,9303782595,Shahdol,Madhya Pradesh,1,Sales,MP,MP308,sales.kia@sarvagya.in,23.29570559
https://shri-kia-dewas-road.com,"Shri kia, Dewas Road","Ujjain, Madhya Pradesh - 456006",75.8341575,"Village Chandsari, Dewas  Road",WDE,"Survey No. 1/2/3, Meen - 1",9171605000,9171605000,UJJAIN,Madhya Pradesh,1,Sales,MP,MP401,Raginisanghi@yahoo.co.in,23.1283699
https://shri-kia-dewas-road.com,"Shri kia, Dewas Road",Madhya Pradesh-456006,,"Agar Road, Ujjain",WDE,"111, Chak Kame d",6262000281,,UJJAIN,Madhya Pradesh,3,Service,MP,MP401,raginisanghi@yahoo.co.in,
https://sun-globe-vidisha-kia.com,"Sun Globe, Vidisha","Vidisha (M.P.), 464001",77.82725,Sagar Road NH 86,W81,"Sunglobe Kia, Near St. Mary P.G. College",9109107448,9109107448,Vidisha,Madhya Pradesh,1,Sales,MP,MP502,gmsales.sunglobe@gmail.com,23.52855
https://sun-globe-vidisha-kia.com,"Sun Globe, Vidisha",Madhya Pradesh,77.8267812,"Sagar Road, Dabar,  Vidisha,",W81,,9993975439,999999999,Vidisha,Madhya Pradesh,3,Service,MP,MP502,Service.vidisha@sunglobekia.co.in,23.5286444
https://pipada-kia-manmad-highway.com,"Pipada Kia, Manmad Highway",Manmad Highway,74.748,"Manmad Highway, Dudh Dairy Chowk",W27,"Beside Age Petrol Pump,  MIDC Office",7507611111,7507611111,Ahmednagar,Maharashtra,1,Sales,MH,MH308,sm@pipadakia.in,19.0948
https://jaika-amravati-kia.com,"Jaika, Amravati",Amrawati - 444601,77.74789,"Near Jai Bharat Mangal Karyalye,",W38,"Survey No. 17/6 , Badnera Road,",8975768563,8263918321,Amravati,Maharashtra,1,Sales,MH,MH502,sales.amr@jaikakia.in,20.896907
https://jaika-amravati-kia.com,"Jaika, Amravati",Amrawati - 444601,77.74789,"Near Jai Bharat Mangal Karyalye,",W38,"Survey No. 17/6 , Badnera Road,",8263918319,8975768563,Amravati,Maharashtra,3,Service,MH,MH502,service.amr@jaikakia.in,20.896907
https://ajinkya-autowheels-seven-hills-circle-kia.com,"Ajinkya Autowheels, Seven Hills circle",Maharashtra - 431001,75.3525758,"Jalna Road, Chhatrapati Sambhajinagar,",W24,"Plot No.7,8,9 Seven Hills Circle",999999999,9112222303,Chhatrapati Sambhajinagar,Maharashtra,1,Sales,MH,MH401,smsalesaurangabad@ajinkyakia.in,19.8755331
https://ajinkya-autowheels-seven-hills-circle-kia.com,"Ajinkya Autowheels CPO , Bypass Road",Chatrapati Sambhaji Nagar - 431001,75.3266778,"Opp Hotel Master Cook Beed by Pass, Near Jabinda Ground",W24,"Plot No-1 Gut No-3,",,9112222303,Chhatrapati Sambhajinagar,Maharashtra,2,Pre-owned Cars,MH,MH401,cpoaurangabad@gmail.com,19.8513053
https://ajinkya-autowheels-seven-hills-circle-kia.com,"Ajinkya Autowheels, Seven Hills circle",Maharashtra - 431001,75.372824,"Chikalthana, Chhatrapati Sambhajinagar,",W24,"E-37, MIDC,",999999999,9673763495,Chhatrapati Sambhajinagar,Maharashtra,3,Service,MH,MH401,smaurangabad@ajinkyakia.in,19.883971
https://akshay-kia-dhule.com,"Akshay Kia, Dhule","Dhule, Maharastra - 424006",74.763068,"Near Punyanagari Press Unit, Malegaon Road,",W43,"P-21, Additional MIDC, Avadhan",8408881100,8408881100,Dhule,Maharashtra,1,Sales,MH,MH505,smsales@akshaykia.com,20.850732
https://akshay-kia-dhule.com,"Akshay Kia, Dhule","Dhule, Maharastra - 424006",74.763068,"Near Punyanagari Press Unit, Malegaon Road,",W43,"P-21, Additional MIDC, Avadhan",9372788111,,Dhule,Maharashtra,3,Service,MH,MH505,akshayjakhete@akshaykia.com,20.850732
https://akshay-kia-midc-area.com,"AKSHAY KIA, MIDC Area","Jalgaon, Maharashtra - 425003",75.593097,"MIDC Area, Ajanta road",W28,"Plot No. H-2/1,",9372788111,9372788111,Jalgaon,Maharashtra,1,Sales,MH,MH305,info@akshaykia.com,20.980087
https://akshay-kia-midc-area.com,"AKSHAY KIA, MIDC Area","Jalgaon, Maharashtra - 425003",75.593097,"MIDC Area, Ajanta road",W28,"Plot No. H-2/1,",9370440111,9370440111,Jalgaon,Maharashtra,3,Service,MH,MH305,,20.980087
,"Modi Kia, Kongaon, Kalyan", Kalyan MH -421311,73.091889,"Near MGL CNG Station, Sapna Ind. Area,  Pimpalgaon",W95,"Balaji Archade, Kalyan Biwandi Rd,",8238089600,8238089600,Kalyan,Maharashtra,1,Sales,MH,MH312,info@modikia.com,19.260646
,"Modi Kia, Kongaon, Kalyan", Kalyan MH -421311,73.091889,"Near MGL CNG Station, Sapna Ind. Area,  Pimpalgaon",W95,"Balaji Archade, Kalyan Biwandi Rd,",8655720582,8655720582,Kalyan,Maharashtra,3,Service,MH,MH312,gmservice@modikia.com,19.260646
https://konduskar-kia-shiroli.com,"Konduskar Kia, Shiroli",,74.25017,"Plot No.6, NH-24, Shiroli-MIDC 416122, Kolhapur",W21,,999999999,7887884050,Kolhapur,Maharashtra,1,Sales,MH,MH303,sales@konduskar-kia.in,16.70314
https://konduskar-kia-shiroli.com,"Konduskar Kia CPO, Shiroli",,74.2790049,Kolhapur-416122,W21,"MIDC Shiroli,",,2316719000,Kolhapur,Maharashtra,2,Pre-owned Cars,MH,MH303,cpokolhapur@konduskar-kia.in,16.7535843
https://konduskar-kia-shiroli.com,"Konduskar Kia, Shiroli",Kolhapur,74.25017,"Plot No.6, NH-24, Shiroli-MIDC 416122, Kolhapur",W21,,999999999,2316719001,Kolhapur,Maharashtra,3,Service,MH,MH303,amit.mali@konduskar-kia.in,16.70314
https://ajinkya-autowheels-barsi-road-kia.com,"Ajinkya Autowheels, Barsi road",,76.5268884,"103, Beside Pramod Petrol Pump, Barsi Road, Latur",WBW,,999999999,9142121111,Latur,Maharashtra,1,Sales,MH,MH302,ajinkyaautowheels@gmail.com,18.4089879
https://ajinkya-autowheels-barsi-road-kia.com,"Ajinkya Autowheels, Barsi road",Latur,76.5268884,"103, Beside Pramod Petrol Pump, Barsi Road, Latur",WBW,,9142121111,9142121111,Latur,Maharashtra,3,Service,MH,MH302,smservicelatur@ajinkyakia.in,18.4089879
,"Khushi Kia, Malegaon","Malegaon, Maharashtra -423203",74.518626,"Old Agra Road, Near Girna Pool,",WAZ,"Sr. No 572,",9422257058,8767804818,Malegaon,Maharashtra,1,Sales,MH,MH507,salesmgrkushikia.in,20.533757
https://autobahn-kia-prabhadevi.com,"Autobahn Kia, Worli",25,72.81667," Ground Floor , Dr .Annie Besant Road , Worli , Mumbai -4000",W10,"Vaswani Chambers , 264-265 , Unit No-2 ,",999999999,9029292929,Mumbai,Maharashtra,1,Sales,MH,MH101,sales@kia-autobahn.com,19.01667
https://autobahn-kia-powai.com,"Autobahn Kia, Powai",,72.89309,"T-Square, Saki Vihar Road, Mumbai",W10,,999999999,9029292929,Mumbai,Maharashtra,1,Sales,MH,MH402,sales@kia-autobahn.com,19.12483
https://shaw-kia-bkc.com,"Shaw Kia, BKC",,72.8689338,"Bandra East, Mumbai, MH-400098",W10,"TCG Financial Center, Plot No 53",,9833311811,Mumbai,Maharashtra,1,Sales,MH,MH412,mahendra.shaw@maksgroup.co.in,19.069192
https://shivaay-kia-ghatkopar.com,"Shivaay KIA, Ghatkopar","Vidyavihar (West), Mumbai 400 086",72.893205,"Wing C-2, , Near State Bank of India, ",W10,"Shop No 1, Skyline Wealth Space, ",999999999,8657740870,Mumbai,Maharashtra,1,Sales,MH,MH410,sales.vidyavihar@shivaaykia.in,19.081494
https://shreenath-andheri-kia.com,"Shreenath, Andheri",Andheri(W)- 400053,72.84054534,"fiwala Lane, Juhu Gali",W10,"Unit No. 2, Waterford Building, C D Bar",9.12249E+11,9.12249E+11,Mumbai,Maharashtra,1,Sales,MH,MH408,sales.kia@shreenath-kia.in,19.11619842
https://shreenath-malad-kia.com,"Shreenath, Malad",,72.6797513,"Mulund Link Road, Malad, (W)",W10,"Ground Floor, First Avenue, Goregaon, - ",9.12249E+11,9.12249E+11,Mumbai,Maharashtra,1,Sales,MH,MH105,sales.kia@shreenath-kia.in,23.041755
https://shivaay-kia-ghatkopar.com,"Shivaay Kia CPO, Chembur"," Mumbai, Maharashtra - 400086",72.909713,"Raje Shivaji Chowk, Deonar, Mumbai",W10,"Plot No.5,Sunder Baug,",8655646173,8655646173,Mumbai,Maharashtra,2,Pre-owned Cars,MH,MH410,Shivaaykia@gmail.com,19.046378
https://autobahn-kia-powai.com,"Autobahn Kia, Sewri",,72.8547164," BPTP Shed Fosbery Road , Indira Nagar",W10,"Unit No 4, Plot No -1929",,8652501541,Mumbai,Maharashtra,3,Service,MH,MH201,crm.s@kia-autobahn.com,18.9924132
https://autobahn-kia-powai.com,"Autobahn Kia, Powai",,72.8934612,"Star Metal Compound, Next to L&amp;T,  Gate No. 2, Mumbai",W10,,999999999,7045921116,Mumbai,Maharashtra,3,Service,MH,MH402,gm.service@kia-autobahn.com,19.1253403
https://shaw-kia-bkc.com,"Shaw Kia, BKC",,72.86678477,"Kalina, Mumbai, MH-400098",W10,Bharati Workshop Compound,,9822080648,Mumbai,Maharashtra,3,Service,MH,MH412,info@shawkia.com,19.07221162
https://shivaay-kia-ghatkopar.com,"Shivaay KIA, Ghatkopar","Chembur, W.T.Patil Marg, Mumbai-400071",72.907889,"Nr.St.Gregorios Primary School, Ghatla",W10,"CTS No.443,",999999999,8657740877,Mumbai,Maharashtra,3,Service,MH,MH410,Servicegm@shivaaykia.in,19.051
https://shreenath-andheri-kia.com,"Shreenath, Andheri",Andheri(W)- 400053,72.8353597,Veera Desai Road,W10,"Plot No.23A, Shah Industrial Estate",999999999,9773526666,Mumbai,Maharashtra,3,Service,MH,MH408,rupesh.karekar@shreenath-kia.in,19.1325864
https://shreenath-andheri-kia.com,"Shreenath, Kandivali West",,72.8282022,"Plot No 87 ABCD, GOVT Industrial Estate,",W10, Sevantilal Khandwala Marg,,9773526666,Mumbai,Maharashtra,3,Service,MH,MH203,rupesh.karekar@shreenath-kia.in,19.2049149
https://bhavna-wheels-nerul-kia.com,"Bhavna Wheels, Nerul","Navi Mumbai, 400706",73.019652,"Near L P Bridge, Nerul East, ",WBO,"Plot No. 49, Sector 1, ",999999999,8422989175,NAVI MUMBAI,Maharashtra,1,Sales,MH,MH405,info@bhavnakia.com,19.05174
https://bhavna-wheels-nerul-kia.com,"Bhavna Kia CPO, Panvel",PANVEL - 410210 ,73.0753937,"NEAR KHARGHAR TOLL NAKA, KHARGHAR",WBO,"SAI VIHAR CHS,SHOP NO-3, PLOT NO-17",8286003023,8286003023,NAVI MUMBAI,Maharashtra,2,Pre-owned Cars,MH,MH405,preowned@bhavnakia.com,19.0363827
https://bhavna-wheels-nerul-kia.com,"Bhavna Wheels, Nerul",Turbhe M.I.D.C. Navi Mumbai - 400705,73.019652,"Between Igloo &amp; Amul milk dairy,",WBO,"Plot No. D-58,TTC Industrial Estate,",999999999,2261805127,NAVI MUMBAI,Maharashtra,3,Service,MH,MH405,servicemanager@bhavnakia.com,19.05174
,"Aryodaya Kia, Central Nagpur","Nagpur, MH-440003",79.09007,"Sardar Patel Sq., Great Nag Road,",W20,"Plot No.39, Timber Market,",9766522223,9766522223,Nagpur,Maharashtra,1,Sales,MH,MH413,sales@aryodayakia.com,21.137018
https://jaika-wadi-midc-kia.com,"Jaika, WADI MIDC",Nagpur,79.00327327,"Plot No. P122, 123, 124 Hinga Road, MIDC, Nagpur",W20,Plot No. P122,999999999,8975768392,Nagpur,Maharashtra,1,Sales,MH,MH102,salesmidc@jaikakia.in,21.15017703
https://jaika-kamptee-road-kia.com,"Jaika, Kamptee Road","Kamptee Road, Nagpur - 440026",79.12198222,"Wanjri Layout, Pili Nadi,",W20,"House No. 2302,",999999999,7666905263,Nagpur,Maharashtra,1,Sales,MH,MH404,sales3s@jaikakia.in,21.18790749
,"Jaika Kia CPO, MIDC","Nagpur, Maharashtra - 440028",79.00422,"Hingna Road,MIDC,",W20,"Plot no. E-1/P, ",9823328777,9823328777,Nagpur,Maharashtra,2,Pre-owned Cars,MH,MH404,cpo@jaikakia.in,21.13419
,"Aryodaya Kia, Central Nagpur","Nagpur, MH-440018",79.0892763,"Imamwada Road, Near Ganeshpeth, Nagpur, MH-440018",W20,"Block 1, Dalda Factory, 89,",8956108501,8956108501,Nagpur,Maharashtra,3,Service,MH,MH413,connect@aryodayakia.com,21.1399806
https://jaika-kamptee-road-kia.com,"Jaika, Kamptee Road","Kamptee Road, Nagpur - 440026",79.12198222,"Wanjri Layout, Pili Nadi,",W20,"House No. 2302,",999999999,7666900300,Nagpur,Maharashtra,3,Service,MH,MH404,service.manager@jaikakia.in,21.18790749
https://ajinkya-autowheels-nagpur-highway-kia.com,"Ajinkya Autowheels, Nagpur Highway",Nanded - 431606,77.349716,"Gut No. 88/89/97, NH361,",W41," Pimpalgao (M), Nanded - Nagpur Highway",7066043066,7066043066,Nanded,Maharashtra,1,Sales,MH,MH309,salesnanded@ajinkyakia.in,19.217391
https://khushi-cars-opp-civil-hospital-kia.com,"Khushi Cars, Opp. Civil hospital",,73.7811794,"a Signal, Opp. Civil Hospital, Nashik, Mahrashtra",W25,"Sr. No. 1054, Pinnacle Mall, Trimbak Nak",999999999,9689860157,Nasik,Maharashtra,1,Sales,MH,MH403,salesmgr@khushikia.in,19.9970032
https://khushi-cars-opp-civil-hospital-kia.com,Khushi Kia CPO,Nashik,73.7811794,"Upnagar, Nashik Puna Road",W25,Opp. Khushi Honda Showroom ,999999999,8767804818,Nasik,Maharashtra,2,Pre-owned Cars,MH,MH403,kiakonfidence@khushikia.in,19.9970032
https://khushi-cars-opp-civil-hospital-kia.com,"Khushi Cars, Opp. Civil hospital",Maharashtra,73.7431039,"Road, Nashik, Maharashtra",W25,"D25 &amp; 26, Street 11 B Road, Satpur MIDC ",999999999,9307902891,Nasik,Maharashtra,3,Service,MH,MH403,service@khushikia.in,19.999334
https://bhavna-wheels-panvel-kia.com,"Bhavna Wheels, Panvel",,73.10557,"r 17, New Panvel, Dist, Raigad",W70,"Shop No. 6 &amp; 106, Bhoomi Landmark, Secto",999999999,8422989175,Panvel,Maharashtra,1,Sales,MH,MH103,info@bhavnakia.com,19.0088
https://bhavna-wheels-nerul-kia.com,"Bhavna Wheels, Mumbai-Pune old Highway","Panvel,Dist-Raigad, MH -410221.",78.13680556,"59/A,At-Kolkhe village",W70,"Near D-Mart,Mumbai-Pune old Highway, Tal",,9930193000,Panvel,Maharashtra,3,Service,MH,MH204,ccmservicepanvel@bhavnakia.com,18.96611111
https://dhone-wheels-satara-road-kia.com,"Dhone Wheels, Satara Road",Pune-411008,73.85683," Pune Stara Road, Parvati",W22,City Sr. No. 3381,9607930494,9607930494,Pune,Maharashtra,1,Sales,MH,MH406,sm.satararoad@dhonekia.com,18.47675
https://dhone-wheels-hadapsar-kia.com,"Dhone Wheels, Hadapsar",Pune 412307,73.972191,"Manjri, Hadapsar",W22,"S. No. 82/2, Pune Solapur Highway",9607930496,9607930496,Pune,Maharashtra,1,Sales,MH,MH304,sm.hadapsar@dhonekia.com,18.496189
https://aman-motors-midc-chinchwad-kia.com,"Aman Motors, MIDC Chinchwad",,73.803516,Chinchwad 411019,W22,"Plot No. 33/2, D2 Block, MIDC,",999999999,2071533839,Pune,Maharashtra,1,Sales,MH,MH301,sales@amankia.in,18.654194
https://aman-motors-nagar-road-kia.com,"Aman Motors, Nagar Road","Nr Gunjan Cinema, Yerwada, Pune-411006",73.806548,"UG Floor, Survey No.103/129, Nagar Road",W22,"Nyati Unitree, Showroom No. 3&amp;4",9.12071E+11,9.12071E+11,Pune,Maharashtra,1,Sales,MH,MH411,sales.yerwada@amankia.in,18.653953
https://crystal-auto-baner-kia.com,"Crystal Auto, Baner",,73.77049,"Axis Centra, Mumbai Bangalore highway, Baner , Pune 411045",W22,,999999999,020 68280011,Pune,Maharashtra,1,Sales,MH,MH407,salesmanager.bn@crystalauto.co.in,18.5649
https://crystal-auto-tilak-road-kia.com,"Crystal Auto, Tilak Road",,73.84569,"Sno. 458/2, Sadashiv Peth, Tilak Road, Pune-411030",W22,,020-68280000,020-68280000,Pune,Maharashtra,1,Sales,MH,MH104,Saleshead.tr@ crystalauto.co.in,18.51077
https://dhone-wheels-hadapsar-kia.com,"Dhone Kia CPO, Clover Hills","NIBM UNDRI ROAD PUNE, MH-411048",73.90062,OPP TO CLOVER HILL PLAZA MALL,W22,"THE PEAK,",7264873000,7264873000,Pune,Maharashtra,2,Pre-owned Cars,MH,MH304,gmsales@dhonekia.com,18.467945
https://crystal-auto-baner-kia.com,"Crystal Auto CPO, Navale Bridge",PUNE-411041,73.822323,"NAVLE BRIDGE,NARHE",W22,"S. No. 51/2A/1A,NAVLE ICON",999999999,8411888966,Pune,Maharashtra,2,Pre-owned Cars,MH,MH407,business.analyst@crystalauto.co.in,18.460032
https://dhone-wheels-satara-road-kia.com,"Dhone Wheels, Satara Road",Pune-411008,73.8747969,"t N0 – 7, Gangadham – Katraj Road, Bibvewadi, Pune",W22,"Dhone Wheels Pvt Ltd, Survey No 649, Par",999999999,9307300340,Pune,Maharashtra,3,Service,MH,MH406,wm.satararoad@dhonekia.com,18.4498414
https://dhone-wheels-hadapsar-kia.com,"Dhone Wheels, Hadapsar",Pune 412307,73.972191,"Manjri, Hadapsar",W22,"S. No. 82/2, Pune Solapur Highway",999999999,7745861007,Pune,Maharashtra,3,Service,MH,MH304,wm.hadapsar@dhonekia.com,18.496189
https://aman-motors-midc-chinchwad-kia.com,"Aman Motors, MIDC Chinchwad",Chinchwad,73.79993,"Plot No. 33/2, D2 Block, MIDC, Chinchwad",W22,,999999999,7666904084,Pune,Maharashtra,3,Service,MH,MH301,service@amankia.in,18.65388
https://crystal-auto-baner-kia.com,"Crystal Auto, Baner","Bavdhan Bk, Pune",73.77683,"ighway, Bavdhan Bk, Pune 411028",W22,"19/1 Patil Nagar, Off Mumbai Bangalore H",999999999,9373134100,Pune,Maharashtra,3,Service,MH,MH407,servicemanager.bv@crystalauto.co.in,18.51734
https://pipada-kia-sangamner.com,"Pipada Kia, sangamner","Sangamner , Maharashtra",74.194374,"pune Nashik Highway , Ghulewadi",WBX,Plot No –Survey No -259/11,9511792371,9511792371,Sangamner,Maharashtra,1,Sales,MH,MH506,pipada.motors11@gmail.com,19.595894
https://pipada-kia-sangamner.com,"Pipada Kia, sangamner","Sangamner , Maharashtra",74.194374,"pune Nashik Highway , Ghulewadi",WBX,Plot No –Survey No -259/11,7507611111,,Sangamner,Maharashtra,3,Service,MH,MH506,pipada.motors11@gmail.com,19.595894
,"Konduskar Kia, Kolhapur Road, Sangli",Maharashtra -416416,74.564029,"Kolhapur Road, Sangli,",W46,"222/2, Sai Nagar,",7796611118,7796611118,Sangli,Maharashtra,1,Sales,MH,MH310,rohit@konduskar-kia.in,16.836671
https://celebrate-kia-pune-highway.com,"Celebrate Kia, Pune Highway","Kondi,Solapur-413255",75.8333308,Near Vinayak Petrol Pump,W45,"Gate No.304/2B,Solapur Pune Highway",9804184184,9804184184,Solapur,Maharashtra,1,Sales,MH,MH307,salesm@celebratekia.com,17.7302443
https://celebrate-kia-pune-highway.com,"Celebrate Kia, Pune Highway","Kondi,Solapur-413255",75.8333308,Near Vinayak Petrol Pump,W45,"Gate No.304/2B,Solapur Pune Highway",9804184184,9804184184,Solapur,Maharashtra,3,Service,MH,MH307,servicem@celebratekia.com,17.7302443
https://shreenath-thane-kia.com,"Shreenath Thane CPO, Flower Valley Complex",Thane West-400607,72.9756336,Manpada Junction Ghodbunder Road,W26,"Shop No 77, Area No 102",9.12249E+11,9.12249E+11,Thane,Maharashtra,1,Sales,MH,MH409,sales.kia@shreenath-kia.in,19.2379281
https://shreenath-thane-kia.com,"Shreenath Thane CPO, Flower Valley Complex","Flower Valley, Thane W-400601",72.972652,"X Shopping Centre, Flower Valley Complex CHS Ltd,",W26,"SX/G 01 Ground Floor,",,9321913672,Thane,Maharashtra,2,Pre-owned Cars,MH,MH409,sales.konfidence@shreenath-kia.in,19.207545
https://shreenath-thane-kia.com,"Shreenath Thane CPO, Flower Valley Complex",Thane West-400607,72.9919167,"Gate No.2, Kolshet",W26,"Gurjeet Embrioderies, Near Airforce",999999999,9664626666,Thane,Maharashtra,3,Service,MH,MH409,sm.thane@shreenath-kia.in,19.2406838
,"Autobahn Kia, Vasai","Vasai East, Maharashtra -401208",72.87760045, Opp. Gavdevi Temple Sativali,WBN,"Arihant Eastate S.No 5,",9821240254,9029292929,Vasai,Maharashtra,1,Sales,MH,MH414,info@kia-autobahn.com,19.40481548
https://punya-kia-imphal.com,"Punya Kia, Imphal","Imphal West, Manipur-795001",93.899471,"Changangei Uchekon,",E46,"Opp.Bir Tikendrajit Intnl Airport,",8794740552,8794740552,Imphal,Manipur,1,Sales,MN,MN301,kiaindiaimphal@gmail.com,24.768817
https://punya-kia-imphal.com,"Punya Kia, Imphal","Imphal West, Manipur-795001",93.899471,"Changangei Uchekon,",E46,"Opp.Bir Tikendrajit Intnl Airport,",9402983938,9402983938,Imphal,Manipur,3,Service,MN,MN301,kiaindiaimphal@gmail.com,24.768817
https://lbs-kiaaizawl.com,"LBS KIA,Aizawl","AIZAWL, MIZORAM-796007",92.743106,F-A17(B),E42,"FALKLAND NEAR SBI BANK,",7005705596,7005705596,Aizwal,Mizoram,1,Sales,MZ,MZ401,sales@lbskia.co.in,23.739393
https://lbs-kiaaizawl.com,"LBS KIA,Aizawl","AIZAWL, MIZORAM -796014",92.7294954,H/NO-N10/51,E42,"BAWNGKAWN BRIGADE VENG,",9233094779,9233094779,Aizwal,Mizoram,3,Service,MZ,MZ401,service@lbskia.co.in,23.7568511
https://central-kia-angul.com,"Central Kia, Angul",Angul - 759128,85.184062,Tahsil- Banapal,EAM,"Plot no- 4123 Mouza- Gotamara,",7440002936,7440002901,Angul,Odisha,1,Sales,OR,OD502,customercare@centralkia.in,20.844864
https://central-kia-angul.com,"Central Kia, Angul",Angul - 759128,85.184062,Tahsil- Banapal,EAM,"Plot no- 4123 Mouza- Gotamara,",7440002936,7440002936,Angul,Odisha,3,Service,OR,OD502,i2sinchargeangul@centralkia.in,20.844864
https://basanti-kia-balasore.com,"Basanti Kia, Balasore",Dist.-Balasore-756060,86.8587483,"At-Biruan,PO-Sergarh,",E78,"Basanti Kia, N.H-16,",7077732182,7077732182,Balasore,Odisha,1,Sales,OR,OD303,smsales@basantikia.com,21.4485826
https://basanti-kia-balasore.com,"Basanti Kia, Balasore",Dist.-Balasore-756060,86.8587483,"At-Biruan,PO-Sergarh,",E78,"Basanti Kia, N.H-16,",7077732172,,Balasore,Odisha,3,Service,OR,OD303,smservice@basantikia.com,21.4485826
https://central-kia-pahal.com,"Central Kia, Pahal",BHUBANESWAR-752101,85.88621,"PAHAL, BHUBANESWAR-752101",E70,"PLOT NO:644/2148, NH-16,",999999999,7440002919,Bhubaneshwar,Odisha,1,Sales,OR,OD301,customercare@centralkia.in,20.3492
,"Trupti Kia, Patrapada",Odisha -751019,85.768725,"Patrapada, NH-16, Bhubaneswar,",E70,"Plot No 99,",7606004618,9090388999,Bhubaneshwar,Odisha,1,Sales,OR,OD304,truptikia@gmail.com,20.243511
https://central-kia-pahal.com,"Central Kia, Pahal",BHUBANESWAR-752101,85.8838781,"NH-16,PAHAL",E70,"Plot No. 644/2148,645,646 &amp; 647",999999999,7440000832,Bhubaneshwar,Odisha,2,Pre-owned Cars,OR,OD301,kiakonfidence@centralkia.in,20.3494159
https://central-kia-pahal.com,"Central Kia, Pahal",HUBANESWAR,85.88621,"PLOT NO:644/2148,NH-16,PAHAL,BHUBANESWAR",E70,HUBANESWAR,999999999,9437066538,Bhubaneshwar,Odisha,3,Service,OR,OD301,servicemanager.bbsr@centralkia.in,20.3492
,"Trupti Kia, Patrapada",Odisha -751019,85.768725,"Patrapada, NH-16, Bhubaneswar,",E70,"Plot No 99,",7606004618,7064414002,Bhubaneshwar,Odisha,3,Service,OR,OD304,truptikia@gmail.com,20.243511
https://krishna-kia-beldihi.com,"Krishna Kia, Beldhi",Beldhi - 770031,84.754812,Kalunga Industrial Estate,E73,Plot - BL/8,7852941115,7852941115,Rourkela,Odisha,1,Sales,OR,OD302,krishnakiarourkela@gmail.com,22.238036
https://krishna-kia-beldihi.com,"Krishna Kia, Beldhi",Beldhi - 770031,84.754812,Kalunga Industrial Estate,E73,Plot - BL/8,7852941741,7852941741,Rourkela,Odisha,3,Service,OR,OD302,krishnakiarourkela@gmail.com,22.238036
https://asj-cars-villupuram-main-road-kia.com,"ASJ Cars, Villupuram main road",,79.78252513,"in Road, Moolakulam, Pondicherry-605110",S20,"Opp. Renault Car Showroom, Villupuram Ma",999999999,6384447001,Puducherry,Pondicherry,1,Sales,PY,PY401,asjcarspondy@gmail.com,11.92825969
https://asj-cars-villupuram-main-road-kia.com,"ASJ Cars, Villupuram main road",Pondicherry,79.7795676,"anapet, Bahour Commune, Pondicherry",S20,"RS No. 151/7A, Pillaiarkuppam &amp; RS No. M",999999999,6384445001,Puducherry,Pondicherry,3,Service,PY,PY401,servicemanager@asjcarskia.com ,11.80792908
https://speedways-kia-daburji.com,"Speedways Kia, GT road, Daburji",Punjab-143001,74.93813011,"1206, NH 1A, GT Road",N63,"Daburji, Amritsar",,8872098550,Amritsar,Punjab,1,Sales,PB,PB306,kiaspeedways@gmail.com,31.60354069
https://speedways-kia.in.kia,Speedways Kia CPO,Punjab-143001,74.93813011,"Daburji, Amritsar",N63,"1206, NH 1A, GT Road",999999999,8872098550,Amritsar,Punjab,2,Pre-owned Cars,PB,PB301,kiaspeedways@gmail.com,31.60354069
https://speedways-kia.in.kia,"Speedways Kia, GT road, Daburji",Punjab,74.93813011,"1206, NH 1A, GT Road, Daburji, Amritsar, Punjab",N63,,999999999,8427365866,Amritsar,Punjab,3,Service,PB,PB301,service@kiaspeedways.in,31.60354069
https://dada-motors-mansa-road-kia.com,"Dada Motors, Mansa Road",Pin-151001,74.9809545,Adjoining Sushant City 2 ,N66,"VPO Jassi Pauwali , G.T.Road(Mansa Road)",8557889999,8557889999,Bathinda,Punjab,1,Sales,PB,PB305,kiabtisaleshead@dadamotors.com,30.1572076
https://dada-motors-mansa-road-kia.com,"Dada Motors, Mansa Road",Pin-151001,74.9809545,Adjoining Sushant City 2 ,N66,"VPO Jassi Pauwali , G.T.Road(Mansa Road)",8557889999,8557889999,Bathinda,Punjab,3,Service,PB,PB305,headoffice@dadamotors.com,30.1572076
,"Gitansh Kia, Ferozepur","Ferozepur, Punjab-152004",74.63656,"Adjoining Genesis Dental College,",N79,"Vill. Malwal Qudim, Moga-Ferozepur Road,",8264633033,8264633033,Ferozpur,Punjab,1,Sales,PB,PB308,edp@gitanshkia.in,30.92986
https://lally-motors-hoshiarpur-kia.com,"Lally Motors, Hoshiarpur",,75.863886,Jalandhar Road Hoshiarpur -146001,N67,"Village Singriwala Hb No-245,",9815011700,9976600009,Hoshiarpur,Punjab,1,Sales,PB,PB503,saleshead@lallykia.in,31.508711
,"Lally Kia, Hoshiarpur",Punjab -146022,75.857288,"Jalandhar Road, Hoshiarpur,",N67,"HB 245,",8552900009,8552900009,Hoshiarpur,Punjab,1,Sales,PB,PB310,smhsp@lallykia.in,31.503997
https://lally-motors-hoshiarpur-kia.com,"Lally Motors, Hoshiarpur",,75.863886,Jalandhar Road Hoshiarpur -146001,N67,"Village Singriwala Hb No-245,",9815011700,9815011700,Hoshiarpur,Punjab,3,Service,PB,PB503,servicehsp@lallykia.in,31.508711
https://lally-motors-near-paragpur-gate-kia.com,"Lally Motors, Near Paragpur Gate",Jalandhar-144010,75.65969,"Paragpur, ",N61,"G T Road, Opp Best Price, ",999999999,9976600009,Jalandhar,Punjab,1,Sales,PB,PB303,saleshead@lallykia.in,31.288946
,"Yashodha Kia, Jalandhar","Jalandhar, Punjab - 144004",75.61161,"Bypass, Near Indian Oil Depo",N61,"Khasra No. 19632/9917 - 9921,Suchi Pind,  Amritsar",8715900002,8894670080,Jalandhar,Punjab,1,Sales,PB,PB309,headsalesjld@yashodha-kia.in,31.33626
https://lally-motors-near-paragpur-gate-kia.com,"Lally Motors CPO, Kot Kalan",JALANDHAR,75.65969,"MEHTAB COMPLEX, NEAR MCDONALD",N61,"GT ROAD, KOT KALAN",9818924600,9976600009,Jalandhar,Punjab,2,Pre-owned Cars,PB,PB303,sales@lallykia.in,31.288946
https://lally-motors-near-paragpur-gate-kia.com,"Lally Kia, Kot Kalan, Jalandhar",Jalandhar - 144024,75.66187,"Behind Grand Lilly Resort, Kot Kalan",N61,"Old Cantt Road,",9779280001,9779280001,Jalandhar,Punjab,3,Service,PB,PB202,gmservice@lallykia.in,31.28245
https://lally-motors-near-paragpur-gate-kia.com,"Lally Motors, Near Paragpur Gate",Jalandhar-144010,75.65969,"Paragpur, ",N61,"G T Road, Opp Best Price, ",999999999,9492600005,Jalandhar,Punjab,3,Service,PB,PB303,servicehead@lallykia.in,31.288946
,"Yashodha Kia, Jalandhar","Jalandhar, Punjab - 144004",76.61174,"Suchi Pind,  Amritsar Bypass, Near Indian Oil Depo",N61,"Khasra No. 19632/9917 - 9921,",9564800007,9564800007,Jalandhar,Punjab,3,Service,PB,PB309,headservicejld@yashodha-kia.in,31.33667
,"Vidhata KIA, Ludhiana",Punjab -141101,75.72056,"Mullanpur Dakha,Ludhiana,",N60,"Village Gahaur, Ferozepur Road,",8558844400,8558844400,Ludhiana,Punjab,1,Sales,PB,PB307,Sales@vidhatakia.com,30.86274
https://dada-motor-opp-dhandari-rly-stn-kia.com,"Dada Motor, Opp. Dhandari Rly. Stn.",,75.9055257,ndari Railway Station Ludhiana 141003,N60,"Dada Motors BXXIX/526 Giaspura, Opp. Dha",8557889999,8557889999,Ludhiana,Punjab,1,Sales,PB,PB302,kiasaleshead@dadamotors.com,30.8747615
,"Vidhata KIA, Ludhiana",Punjab -141101,75.72042,"Mullanpur Dakha,Ludhiana,",N60,"Village Gahaur, Ferozepur Road,",999999999,9888811180,Ludhiana,Punjab,3,Service,PB,PB307,service.gm@vidhatakia.com,30.8634
https://dada-motor-opp-dhandari-rly-stn-kia.com,"Dada Motor, Opp. Dhandari Rly. Stn.",Railway Station Ludhiana,75.9055257,"Dada Motors BXXIX/526 Giaspura, Opp. Dhandari",N60,,8557889999,8557889999,Ludhiana,Punjab,3,Service,PB,PB302,kiaservicehead@dadamotors.com,30.8747615
https://dada-motors-moga-kia.com,"Dada Motors, Moga",,75.21149,,N71,Near Bugipura Chowk Moga,8557889999,8557889999,Moga,Punjab,1,Sales,PB,PB502,kiamoga@dadamotors.com,30.81602
https://dada-motors-moga-kia.com,"Dada Motors, Moga",,75.21149,,N71,Near Bugipura Chowk Moga,8557889999,8557889999,Moga,Punjab,3,Service,PB,PB502,kiamoga@dadamotors.com,30.81602
https://joshi-kia-phase-7-mohali.com,"Joshi Kia, Phase - 7 Mohali",,76.703683,"Phase 7, Mohali - 160055",N72,"Plot No. C-108, Industrial Area, ",999999999,7087000222,Mohali,Punjab,1,Sales,PB,PB101,gaurav.misra@joshikia.in,30.72003
https://joshi-kia-industrial-area-phase-1.com,"Joshi Kia, Phase - 7 Mohali","MOHALI, PUNJAB - 160055",76.699664,"INDUSTRIAL AREA, PHASE – 7",N72,"PLOT NO C -144,",7087919100,7087919100,Mohali,Punjab,3,Service,PB,PB201,servicemanager.mhl@joshikia.in,30.716648
https://speedways-kia-near-simbal-chowk.com,"Speedways Kia, Pathankot",Pathankot-145001,75.6522,Dibber Gharat Dalhousie Road,N65,Near Simbal Chowk,,7743002155,Pathankot,Punjab,1,Sales,PB,PB505,kiaspeedways@gmail.com,32.2733
https://speedways-kia.in.kia,"Speedways Kia, Pathankot",,75.6522,Near Simbal Chowk Pathankot-145001,N65,Dibber Gharat Dalhousie Road,7018028237,7018028237,Pathankot,Punjab,3,Service,PB,PB501,serviceptk@kiaspeedways.in,32.2733
https://yashodha-kia-rajpura-road.com,"Yashodha Kia, Rajpura road",Patiala,76.494752,"Khasra No. 532/2(5-9),",N62,"Rajpura Road, Patiala",8751900002,8751900002,Patiala,Punjab,1,Sales,PB,PB304,sales@yashodha-kia.in,30.388298
https://yashodha-kia-rajpura-road.com,"Yashodha Kia, Rajpura road",Patiala,76.494752,"Khasra No. 532/2(5-9),",N62,"Rajpura Road, Patiala",9217031080,9217031080,Patiala,Punjab,3,Service,PB,PB304,service@yashodha-kia.in,30.388298
https://yashodha-kiasangrur.com,"Yashodha Kia,Sangrur",Sangrur-148001,75.845358,Mehlan - Delhi Road,N76,Khasra No.171,6280500001,6280500001,Sangrur,Punjab,1,Sales,PB,PB504,sales@yashodha-kia.in,30.231217
https://yashodha-kiasangrur.com,"Yashodha Kia,Sangrur",Sangrur-148001,75.845358,Mehlan - Delhi Road,N76,Khasra No.171,6280500001,6280500001,Sangrur,Punjab,3,Service,PB,PB504,Service.sngr@yashodha-kia.in,30.231217
,"Joshi Kia, Zirakpur",Punjab -140603,76.80353879,"Near Radisson Hotel, Zirakpur Patiala Road, Zirakpur",NDR,"Sco No.16,17,18,19, Mohali Citi Square,",9501117575,7087070333,Zirakpur,Punjab,1,Sales,PB,PB102,info.zkr@joshikia.in,30.6398832
https://samradh-kia-jaipur-road.com,"Samradh Kia, Jaipur Road",Rajasthan,74.6390121,Ajmer,N46,"393/10, Opp Patel Stadium Jaipur Road",999999999,9414003348,Ajmer,Rajasthan,1,Sales,RJ,RJ402,ajmer@samradhkia.in,26.4665269
https://samradh-kia-jaipur-road.com,"Samradh Kia, Jaipur Road",Rajasthan,74.6390121,Ajmer,N46,"393/10, Opp Patel Stadium Jaipur Road",999999999,9414003348,Ajmer,Rajasthan,3,Service,RJ,RJ402,sm@samradhkia.in,26.4665269
https://aravali-kia-keshav-nagar.com,"Aravali Kia, Keshav Nagar",Jai Marg,76.619523,Near Overbridge,N45,Plot No. 4 Keshav Nagar,7406346600,7406346600,Alwar,Rajasthan,1,Sales,RJ,RJ406,sm@aravalikia.in,27.569829
https://aravali-kia-keshav-nagar.com,"Aravali Kia, Keshav Nagar","Samola Chohraha, Alwar-301001",76.626854,Old industrial Area,N45,"Main Itarana Road, Near Vijay Solvex",7668632668,8306355533,Alwar,Rajasthan,3,Service,RJ,RJ406,gmservice@aravalikia.in,27.54031
,"Aravali Kia, Bhiwadi","Nr Kajaria Greens, Bhiwadi, Raj-301019",76.83257,"Main Alwar-Bhiwadi By Pass Road,",NFP,"K No. 436, 668/435, Ward No.1,",9799996290,7406346600,BHIWADI,Rajasthan,1,Sales,RJ,RJ507,krishan@aravalikia.in,28.06488
,"Kumbhat Kia, Balotra","Dist- Barmer, Rajasthan -344022",72.250998,"Pachpadra road, Balotra,",NBT,"Khasra No.279, Ward No 35,",9829022241,9873898953,Balotra,Rajasthan,1,Sales,RJ,RJ510,kumbhat.motors@kumbhatgroup.org,25.84937
https://sandeep-cars-ajmer-road-kia.com,"Sandeep Cars, Ajmer Road",Bhilwara - 311001,74.62528,"Ajmer Road, Subhash Nagar",N49,Opp. Shriji Resort,9772754444,9772754444,Bhilwara,Rajasthan,1,Sales,RJ,RJ407,gm@sandeepcars.com,25.369164
https://sandeep-cars-ajmer-road-kia.com,"Sandeep Cars, Ajmer Road","Bhilwara, Rajasthan - 311001",74.604634,Village Biliya Khurd,N49,"H-7, Evergreen Tax Park",7230091030,7230091030,Bhilwara,Rajasthan,3,Service,RJ,RJ407,gmservice@sandeepcars.com,25.362335
https://morvi-kia-gangashahar-road.com,"Morvi Kia, Gangashahar Road",Gangashahar,73.30753207,"Gangashahar Road,",N44,Opposite Rail Dada Bari,8094936666,8094936666,Bikaner,Rajasthan,1,Sales,RJ,RJ302,sales@morvikia.in,27.99692986
https://morvi-kia-gangashahar-road.com,"Morvi Kia, Gangashahar Road",Gangashahar,73.30753207,"Gangashahar Road,",N44,Opposite Rail Dada Bari,8094936666,8094936666,Bikaner,Rajasthan,3,Service,RJ,RJ302,service@morvikia.in,27.99692986
https://sandeep-cars-chittorgarh-kia.com,"Sandeep Cars, Chittorgarh","Chittorgarh , Rajasthan-312001",74.624407,"Plot No 3,",N57,"Old Industrial Area,",7230061245,7230061245,Chittorgarh,Rajasthan,1,Sales,RJ,RJ502,cco.manager@sandeepkia.in,24.899311
https://sandeep-cars-chittorgarh-kia.com,"Sandeep Cars, Chittorgarh","Chittorgarh , Rajasthan-312001",74.624407,"Plot No 3,",N57,"Old Industrial Area,",7230091634,,Chittorgarh,Rajasthan,3,Service,RJ,RJ502,accounts@sandeepkia.in,24.899311
,"Rajesh Kia, Dausa","Dausa, Rajasthan -303303",26.897459,"Shiv Sakti Nagar, Jaipur Road,",NAP,"Plot No. - 217, 218, 219, 220,",9257055531,9257055531,Dausa,Rajasthan,1,Sales,RJ,RJ506,info.dausa@rajeshkia.in,76.307475
https://rajesh-motors-ajmer-road-kia.com,"Rajesh Motors, Ajmer Road",Jaipur,75.74187,"pa hospital, DCM Ajmer Road , Jaipur - 302021",N40,"Plot no. 12-13, Nirman Nagar E, Opp. Aso",999999999,8824900971,Jaipur,Rajasthan,1,Sales,RJ,RJ404,info.ajrd@rajeshkia.in,26.89126
https://rajesh-motors-vkia-sikar-road.com,"Rajesh Motors, VKIA, Sikar Road",Jaipur,75.77258,Sikar Road,N40,F21 VKI Industrial Area,999999999,8824900972,Jaipur,Rajasthan,1,Sales,RJ,RJ101,info.vki@rajeshkia.in,26.97523
,"Roshan KIA, Raja Park","Raja Park, Jaipur, Raj- 302004",75.8317509,"Opp. Dusshera Ground Govind Marg,",N40,"2 Adarsh Vidhya Mandir,",9799998822,7941056588,Jaipur,Rajasthan,1,Sales,RJ,RJ409,gmsales-rp@roshankia.com,26.8974537
,"Roshan Kia, C-Scheme","Jaipur, Rajasthan -302001",75.7992398,"C-Scheme,",N40,"Plot No.2, Ajmer Road,",8233777777,7949107802,Jaipur,Rajasthan,1,Sales,RJ,RJ104,karanlaiker@roshangroup.co.in,26.9162219
http://sanghi-inc-tonk-road-kia.com/RJ401,"Sanghi Inc, Tonk Road",,75.7894602,Sanghi Garden Tonk Road Jaipur-302018,N40,,999999999,9873920264,Jaipur,Rajasthan,1,Sales,RJ,RJ401,sales@kia-sanghi.in,26.8547433
https://rajesh-motors-ajmer-road-kia.com,"Rajesh Motors, Raja Park","Adarsh Nagar , Raja Park, Jaipur",75.83367,"Chokdi Haweli city ,Govind marg",N40,North Part of Plot No. B-14,999999999,8824900971,Jaipur,Rajasthan,2,Pre-owned Cars,RJ,RJ404,digital.marketing@rajeshmotors.com,26.899508
https://sanghi-inc-tonk-road-kia.com,"Sanghi Inc CPO, Malviya Nagar",Jaipur - 302017,75.8243,"Celgiri Road, Malviya Nagar,",N40,"Plot No-15-16-17, Friends Colony,",8239664444,8239664444,Jaipur,Rajasthan,2,Pre-owned Cars,RJ,RJ401,cpomanager@kia-sanghi.in,26.8549
https://rajesh-motors-ajmer-road-kia.com,"Rajesh Motors, Ajmer Road",,75.8724454,"Khasra No. 72, Goner, Agra Road, Jaipur 302029",N40,,999999999,8824900957,Jaipur,Rajasthan,3,Service,RJ,RJ404,service.jpr@rajeshkia.in,26.8896937
,"Roshan KIA, Raja Park","Jaipur, Rajasthan -302017",75.82756374,Malviya Nagar Industrial area,N40,E-5A Malviya Nagar Industrial area,7375999922,7941056588,Jaipur,Rajasthan,3,Service,RJ,RJ409,servicemanager-mia@roshankia.com,26.85819352
https://sanghi-inc-tonk-road-kia.com,"Sanghi Inc, Tonk Road",,75.847281,"H-641-642, Sitpapura Industrial Area Jaipur-302022",N40,,999999999,8696321009,Jaipur,Rajasthan,3,Service,RJ,RJ401,gms@kia-sanghi.in,26.774275
https://kumbhat-motors-cazri-gate-kia.com,"Kumbhat Motors, Cazri Gate",,72.99878,"opp. CAZRI Gate, Jodhpur 342001",N41,"15-B-1, Light industrial area",999999999,9873898953,Jodhpur,Rajasthan,1,Sales,RJ,RJ403,info@kumbhatkia.in,26.26256
https://kumbhat-motors-cazri-gate-kia.com,"Kumbhat Motors CPO, Jawala Vihar","Jodhpur, Rajasthan",72.9780736,"Near Soni Traders, 1st Pulia,",N41,"P. NO.: 345, Jawala Vihar",999999999,9829027060,Jodhpur,Rajasthan,2,Pre-owned Cars,RJ,RJ403,pankaj.kumbhat@kumbhatgroup.org,26.2728635
https://kumbhat-motors-cazri-gate-kia.com,"KUMBHAT KIA, Basni","Jodhpur, Rajasthan -342005",73.006676,Plot No A43 Marudhar Industrial Area,N41,2nd Phase Basni,,6377205296,Jodhpur,Rajasthan,3,Service,RJ,RJ202,GMSERVICE@KUMBHATKIA.IN,26.223913
https://kumbhat-motors-cazri-gate-kia.com,"Kumbhat Motors, Opposite Cazri",,73.01263," 1st Phase, Basni, Jodhpur 342013",N41,"F-52, MIA",999999999,6377205258,Jodhpur,Rajasthan,3,Service,RJ,RJ403,Service@kumbhatkia.in,26.22546
https://galaxy-auto-wheels-jhalawar-road-kia.com,"Galaxy Auto Wheels, Jhalawar road",,75.8548,", Jhalawar Road, Kota",N43,"B-45(A), Road no. 2, IPIA",999999999,0172 30019855,Kota,Rajasthan,1,Sales,RJ,RJ301,sales@galaxykia.in,25.13999
https://galaxy-auto-wheels-jhalawar-road-kia.com,"Galaxy Auto Wheels, Jhalawar road",Rajasthan,75.8548,"B 45, Road No. 2, IPIA, Jhalawar Road, Kota, Rajas",N43,,7340419555,7976380126,Kota,Rajasthan,3,Service,RJ,RJ301,service@galaxykia.in,25.13999
https://morvi-kia-gangashahar-road.com,"Morvi Kia, Nagaur",Rajasthan-341001,73.71252147,"Bikaner Road, Nagaur ",NIG,"Near Guru Dev Hotel,",8206300170,8094936666,Nagaur,Rajasthan,1,Sales,RJ,RJ504,sales@morvikia.in,27.2156947
https://morvi-kia-gangashahar-road.com,"Morvi Kia, Nagaur",Rajasthan-341001,73.70074508,"RIICO Industrial Area, Nagaur, ",NIG,"Near RTO Office,",8206300180,8206300180,Nagaur,Rajasthan,3,Service,RJ,RJ504,gmservice@morvikia.in,27.22365765
https://kumbhat-motors-llp-jodhpur-road-kia.com,"Kumbhat Motors LLP, Jodhpur Road",,73.296188,"Khasra No. 769/3, Opp. Krishi Mandi,",NBX,"V square multiplex, Jodhpur Road,",,6377205251,Pali,Rajasthan,1,Sales,RJ,RJ503,pankaj.kumbhat@kumbhatgroup.org,25.798382
https://maharia-kia-jaipur-road.com,"Maharia Kia, Jaipur Road","Sikar, Rajasthan, India-332001",75.16593,332001,N78,"Plot No 484 A/B, Jaipur Road, Sikar (Raj)",8107710001,7300003127,Sikar,Rajasthan,1,Sales,RJ,RJ303,gm.sales@mahariakia.co.in,27.59484
https://maharia-kia-jaipur-road.com,"Maharia Kia, Jaipur Road","Sikar, Rajasthan, India-332001",75.16593,332001,N78,"Plot No 484 A/B, Jaipur Road, Sikar (Raj)",8107710001,7300003119,Sikar,Rajasthan,3,Service,RJ,RJ303,gm.service@mahariakia.co.in,27.59484
https://automotiveis-de-cristal-verna-kia.com,"Paras Kia, Sriganganagar","Sriganganagar, Rajasthan -335001",73.90104,"Hanumangarh-Suratgarh Byepass Road,",N58,"Vill. 3 ML,",9001833525,9001833525,Sriganganagar,Rajasthan,1,Sales,RJ,RJ304,info@elgenkia.com,29.88627
https://rajesh-motors-hiranmagri-kia.com,"Rajesh Motors, Hiranmagri","Udaipur, Rajasthan - 313001",73.71676,"Mewar Industrial Area, Madri, ",N42,"Rajesh Motors, A-83, Road no 1, ",999999999,9351229009,Udaipur,Rajasthan,1,Sales,RJ,RJ408,gm.udr@rajeshkia.in,73.746885
https://rajesh-motors-hiranmagri-kia.com,"Rajesh Motors, Hiranmagri",Udaipur -  313004 ,73.7469,"Mewar Industrial Area, Madri, ",N42,"Rajesh Motors, A-83, Road no 1,",999999999,8824900163,Udaipur,Rajasthan,3,Service,RJ,RJ408,service.udr@rajeshkia.in,24.57318
https://capital-kia-omr-perungudi.com,"Capital Kia, OMR Perungudi",,80.24303,"balipuram Road, Chennai-600096",S10,"16 Perungudi Industrial Estate, Old Maha",999999999,9962710000,Chennai,Tamil Nadu,1,Sales,TN,TN402,sm.omr@capitalkia.in,12.955351
https://capital-kia-adyar.com,"Capital Kia, Adyar", Adyar,80.256228,Baktavathsalam Nagar,S10,"79, L.B. Road",9962720000,9962720000,Chennai,Tamil Nadu,1,Sales,TN,TN103,sm.adyar@capitalkia.in,13.002181
https://kun-kia-ambattur.com,"KUN Kia, Ambattur","Ambattur, Chennai - 600058",80.170778,Ambattur Industrial Estate,S10,"No: 69 &amp; 70, South Avenue",999999999,9884970000,Chennai,Tamil Nadu,1,Sales,TN,TN307,Rajesh.motilal@kunkia.in,13.088583
https://svm-cars-guindy-kia.com,"SVM Cars, Guindy",,80.2068,"kkatuthangal, Chennai- 600032",S10,"Door No. 47 NP, Jawaharlal Nehru Road, E",999999999,8939060000,Chennai,Tamil Nadu,1,Sales,TN,TN101,reachus@svmkia.com,13.0254
https://svm-cars-porur-kia.com,"SVM Cars, Porur",Chennai – 600 056,80.1191,"Kattupakkam,",S10,"# 223/2, Poonamallee Trunk Road, ",999999999,8939070000,Chennai,Tamil Nadu,1,Sales,TN,TN303,reachus@svmkia.com,13.0444
,"VST Central Kia, Red Hills, Chennai","Chennai, Tamilnadu - 600066",13.174669,"GNT Road, Thantakazhani Puzhal,",S10,"No.55, Sivanthi Athithanar Nagar,",7305032085,7305032085,Chennai,Tamil Nadu,1,Sales,TN,TN510,Salesmanager1.chn@vstcentral-kia.in,80.196696
https://vst-central-mount-road-kia.com,"VST Central, Mount Road",Chennai,80.2591388,"New No. 237 (Old No. 182), Anna Salai, Chennai- 600006",S10,"No. 57, Bharani StudioCOmplex, ArcotRd, ",999999999,9087211113,Chennai,Tamil Nadu,1,Sales,TN,TN401,salescrm.chn@vstcentral-kia.in,13.0591029
https://capital-kia-omr-perungudi.com,"Capital Kia CPO, KOVILAMBAKKAM",,80.1948775,"S.Kolathur,Kovilambakkam,",S10,"#340 ,200 feet Radial Road",,9962710000,Chennai,Tamil Nadu,2,Pre-owned Cars,TN,TN402,kiakonfidence.mgr@capitalkia.in,12.9486887
https://svm-cars-porur-kia.com,"SVM Kia CPO, Mount Poonamallee Road", Chennai - 600056,80.136767," Mount Poonamallee Road, Iyyappanthangal,",S10,"Next to Prince Highland Apartment,",7825874005,7825874005,Chennai,Tamil Nadu,2,Pre-owned Cars,TN,TN303,konfidencemgr@svmkia.com,13.038086
https://capital-kia-omr-perungudi.com,"Capital Kia, OMR Perungudi",,80.24303,"Survey 138, Burma colony, Perungudi, Chennai- 600096",S10,,999999999,9500039573,Chennai,Tamil Nadu,3,Service,TN,TN402,gm.service@capitalkia.in,12.95535
www.kunkiamotors.com,"Kun Kia, Arumbakkam","Chennai, TN -600106",13.07515107,"Arumbakkam,",S10,"No.422, Poonamallee High Road,",7824082874,7824082874,Chennai,Tamil Nadu,3,Service,TN,TN312,ccm.arm@kunkia.in,13.07515107
https://kun-kia-ambattur.com,"KUN Kia, Ambattur","Ambattur, Chennai - 600058",80.170778,Ambattur Industrial Estate,S10,"No: 69 &amp; 70, South Avenue",999999999,9500126519,Chennai,Tamil Nadu,3,Service,TN,TN307,service.manager@kunkia.in ,13.088583
https://svm-cars-porur-kia.com,"SVM Cars, Porur",Chennai – 600 056,80.1191,"Kattupakkam,",S10,"# 223/2, Poonamallee Trunk Road, ",999999999,7825874060,Chennai,Tamil Nadu,3,Service,TN,TN303,servicemgrktp@svmkia.com,13.0444
https://vst-central-mount-road-kia.com,"VST Central, Mount Road",Chennai,80.201285,Saligramam,S10,"No. 57, Bharani StudioCOmplex, ArcotRd, ",9384877746,7305060883,Chennai,Tamil Nadu,3,Service,TN,TN401,servicemanager.chn@vstcentral-kia.in,13.046932
https://pressana-kia-ramanathapuram.com,"Pressana Kia, Ramanathapuram",COIMBATORE- 641045,77.00928,RAMANATHAPURAM,S43,"SF NO.576, TRICHY MAIN ROAD",6384444500,6384444500,Coimbatore,Tamil Nadu,1,Sales,TN,TN403,marketing@pressanakia.in,10.99715
https://pressana-kia-ramanathapuram.com,"Pressana Kia CPO,Masakalipalyam","Coimbatore, Tamil Nadu, 641004",77.01628,Avinashi Road,S43,"1548, Hope college, Peelamedu,",6384441115,6384444500,Coimbatore,Tamil Nadu,2,Pre-owned Cars,TN,TN403,ceo@pressanagroup.com,11.02694
https://pressana-kia-ramanathapuram.com,"Pressana Kia, Ramanathapuram",COIMBATORE- 641045,77.0016,RAMANATHAPURAM,S43,"106/2, SOWRIPALAYAM PIRIVU",6384444500,6384444500,Coimbatore,Tamil Nadu,3,Service,TN,TN403,sermgrcbe@pressanakia.in,11.00097
https://pressana-kia-veerappanpalayam.com,"Pressana Kia, Veerappanpalayam","THINDAL PO, ERODE-638012",77.6917,VEERAPAMPALAYAM,S44,"NO.1, CHINNAKADU THOTTAM",6384444500,6384444500,Erode,Tamil Nadu,1,Sales,TN,TN304,marketing@pressanakia.in,11.3273
https://pressana-kia-veerappanpalayam.com,"Pressana Kia, Veerappanpalayam","THINDAL PO, ERODE-638012",77.6917,VEERAPAMPALAYAM,S44,"NO.1, CHINNAKADU THOTTAM",6384444500,6384444500,Erode,Tamil Nadu,3,Service,TN,TN304,sermgrerd@pressanakia.in,11.3273
"Near Pappan Plaza, 57 Km,","VST Central, Hosur",TN - 635109,77.87469444,"Thorapalli Agragharam, Housur",S89,"Survey no.42/2A1B,",8870243334,8870243334,Hosur,Tamil Nadu,3,Service,TN,TN309,servicemanager.hosur@vstcentral-kia.in,12.71736111
https://pressana-kia-karur.com,"Pressana Kia, Karur",Manmangalam Taluk- 639001,78.060447,"Nh-7 Salem By Pass Road,",S32,"Sf No: 265/1F, Near Kongu College",6384444500,6384444500,Karur,Tamil Nadu,1,Sales,TN,TN505,marketing@pressanakia.in,10.992586
https://pressana-kia-karur.com,"Pressana Kia, Karur",Manmangalam Taluk- 639001,78.060447,"Nh-7 Salem By Pass Road,",S32,"Sf No: 265/1F, Near Kongu College",6384444500,6384444500,Karur,Tamil Nadu,3,Service,TN,TN505,sa.kolar@epitomekia.in,10.992586
https://aras-kia-thiruvayanallur-post.com,"ARAS Kia, Thiruvayanallur post",,78.01728,THIRUVALAYANALLUR POST.MADURAI 625221,S41,"SURVEY NO.63/6A1B, NH 44, NAGARI,",999999999,8110000556,Madurai,Tamil Nadu,1,Sales,TN,TN404,sales.mdu@aras-kia.in,10.0122
https://aras-kia-thiruvayanallur-post.com,"ARAS Kia, Thiruvayanallur post",,78.11216,38.T.P.K road Madurai- 625001,S41,,999999999,8110000632,Madurai,Tamil Nadu,3,Service,TN,TN404,servicemanager.mdu@aras-kia.in  ,9.91148
https://pressana-kia-namakkal.com,"Pressana Kia, Namakkal","NAMAKKAL, TAMIL NADU - 637001",78.1433514,SALEM MAIN ROAD,SDJ,SF NO.137/1,6384444500,6384444500,Namakkal,Tamil Nadu,1,Sales,TN,TN504,marketing@pressanakia.in,11.247965
https://pressana-kia-namakkal.com,"Pressana Kia, Namakkal","NAMAKKAL, TAMIL NADU - 637001",78.1433514,SALEM MAIN ROAD,SDJ,SF NO.137/1,6384444500,6384444500,Namakkal,Tamil Nadu,3,Service,TN,TN504,service.namakkal@pressana kia.in,11.247965
,Pressana Automobiles Private Limited,Tamil Nadu- 643101,76.710303,"Charring Cross, Connor Road, Ooty,",S26,"No 32, The Garage,",6384444500,6384442063,Ooty,Tamil Nadu,1,Sales,TN,TN513,ceo@pressanagroup.com,11.411336
https://vst-central-meyyannur-main-road-kia.com,"VST Central, Meyyannur Main Road",Tamilnadu,78.136097,"Main Road, Salem, Tamilnadu 636004",S40,"No: 250/2, Meyyannur Block 1, Meyyannur ",999999999,8124811113,Salem,Tamil Nadu,1,Sales,TN,TN301,salescrm.slm@vstcentral-kia.in,11.667629
,"VST Central CPO, Salem","Salem, Tamilnadu 636010",78.13912135,"Nattamangalam, Kondalampatti,",S40,"5-486, Kaatu Kottai Po, ",9384084440,7305060894,Salem,Tamil Nadu,2,Pre-owned Cars,TN,TN301,manimaran.r@vstcentral-kia.in,11.6272727
https://vst-central-meyyannur-main-road-kia.com,"VST Central, Meyyannur Main Road",Tamilnadu,78.136097,"Main Road, Salem, Tamilnadu 636004",S40,"No: 250/2, Meyyannur Block 1, Meyyannur ",999999999,7550294185,Salem,Tamil Nadu,3,Service,TN,TN301,servicemanager.slm@vstcentral-kia.in,11.667629
,"Sree Karpagamoorthy Motors, Trichy Nagai","Thanjavur, TN - 613006",79.120055,"Madhakottai Bypass Road, Nanjikottai,",S48,"No.187/12A3, Trichy Nagai Highway,",9150013397,9150013397,Thanjavur,Tamil Nadu,1,Sales,TN,TN308,karpagamoney@gmail.com,10.738901
https://aras-kia-jothipuram.com,"ARAS Kia, Jothipuram",,77.71513,", Konganthanparai Post. Tirunelveli-627007",S42,"No. 1183/3, Kanyakumari road, jothipuram",999999999,8110000722,Tirunelveli,Tamil Nadu,1,Sales,TN,TN306,sales.tnvl@aras-kia.in,8.66218
https://aras-kia-jothipuram.com,"ARAS Kia, Jothipuram",Tirunelveli,77.71513,"jothipuram, Konganthanparai Post. Tirunelveli",S42,,999999999,8110000652,Tirunelveli,Tamil Nadu,3,Service,TN,TN306,servicemanager.tnvl@aras-kia.in  ,8.66218
https://pressana-kia-tirupur.com,"Pressana Kia, Tirupur","TIRUPPUR, TAMIL NADU-641605",77.31171,PALLADAM TIRUPPUR MAIN ROAD,S39,"SF NO.137/1, KARAIPUDUR",6384444500,6384444500,Tirupur,Tamil Nadu,1,Sales,TN,TN305,marketing@pressanakia.in,11.03564
https://pressana-kia-tirupur.com,"Pressana Kia, Tirupur","TIRUPPUR, TAMIL NADU-641605",77.31171,PALLADAM TIRUPPUR MAIN ROAD,S39,"SF NO.137/1, KARAIPUDUR",6384444500,6384444500,Tirupur,Tamil Nadu,3,Service,TN,TN305,sermgrtpr@pressanakia.in,11.03564
https://sree-karpagamoorthy-motors-trichy-kia.com,"Sree Karpagamoorthy Motors, Trichy",,78.71118,"spital, Chennai, Bypass Road, Ariyamangalam, Trichy",S45,"Survey No. 126/6 &amp; 125/2, Near Appolo Ho",999999999,6384111777,Trichy,Tamil Nadu,1,Sales,TN,TN302,skmmsales.kia@gmail.com,10.80663
https://sree-karpagamoorthy-motors-trichy-kia.com,"Sree Karpagamoorthy Motors, Trichy",Trichy,78.71118,"Appolo Hospital, Chennai, Bypass Road, Ariyamangal",S45,,999999999,6384111444,Trichy,Tamil Nadu,3,Service,TN,TN302,servicemanager@skmmkia.com,10.80663
,"Automotive Kia, RC Puram","Sangareddy,Dist, TS-502032",78.2884,"Mallikarjun Nagar, Sangareddy,Dist, TS-502032",S50,"SY.NO:93,",6309908117,6309908117,Hyderabad,Telangana,1,Sales,TS,TS404,digitalsales.kiarcp@automotiveml.com,17.5138
https://automotive-kia-kondapur.com,"Automotive Kia, Kondapur",Reddy Dist,78.365598,"31,, Kondapur Village, Serilngapally Mandal, Ranga, Reddy Di",S50,"Sy No. 60,71 to 77, Plot No. 14,29,30 &amp; ",999999999,6309908117,Hyderabad,Telangana,1,Sales,TS,TS101,gmsales.kiaknd@automotiveml.com,17.470322
https://automotive-kia-lb-nagar-nagole.com,"Automotive Kia, LB Nagar, Nagole",RR Dist,78.558203," Nagole, Uppal Mandal, LB Nagar Municipality RR Dist 500068",S50,"Sy. No. 141-144, Block No 1, Old Village",999999999,6309908118,Hyderabad,Telangana,1,Sales,TS,TS402,crmsales.kiangl@automotiveml.com,17.378107
https://car-kia-jubilee-hills.com,"Car Kia, Jubilee Hills",Hyderabad,78.40301," Hyderabad 500033, Telangana",S50,"Plot No. 796, Road No 36, Jubilee Hills,",999999999,7997720333,Hyderabad,Telangana,1,Sales,TS,TS401,enquiry.sales@carkia.in,17.43454
https://car-kia-gachibowli.com,"Car Kia, Gachibowli","Serlinganpali Mandal, Hyderabad-500035",78.399535,"Rai Durg Panmaktha Village, Gachibowli,",S50,"2/A &amp; 2/B, GF SBRs SIRI",7997704333,7997704333,Hyderabad,Telangana,1,Sales,TS,TS103,agm.gachibowli@carkia.in,17.43212
https://vihaan-auto-kukkatpally-kia.com,Malik Kia,Hyderabad- 500072,78.42266,"Kukatpally, Y Junction",S50,"Ground Floor, KKR Commercial Complex",999999999,9394812345,Hyderabad,Telangana,1,Sales,TS,TS403,salesheadkukatpally@vihaankia.in,17.47481
https://vihaan-auto-secunderabad-kia.com,"Vihaan Auto, Secunderabad",Secunderabad,78.50805,"(Near Rail Nilayam), Sarojini Devi Road",S50,"NCL Pearl, #10-3-162, Opp Hyd Bhavan",999999999,9738312345,Hyderabad,Telangana,1,Sales,TS,TS102,salesheadsecunderabad@vihaankia.in,17.4402
,"Automotive Kia, SD Road","Hyderabad, TS -500076",78.5589,"Uppal Mandal, Medhal-Malkajgiri Dist,",S50,"P. No 14/1/2, Sy No: 66/1 and 64 Part, IDA",9100311169,9100311169,Hyderabad,Telangana,3,Service,TS,TS407,serviceheadkia@automotiveml.com,17.4306
https://automotive-kia-lb-nagar-nagole.com,"Automotive Kia, LB Nagar, Nagole",68,78.559124," Village, Uppal",S50,"Sy. No. 110/1, 111/1 and 112/1/E, Nagole",999999999,6309908169,Hyderabad,Telangana,3,Service,TS,TS402,heman.p@automotiveml.com,17.374492
https://car-kia-jubilee-hills.com,"CAR KIA, Raidurg","Rangareddy, Hyderabad - 500008",78.3831,"Raidurg navakhalsa, Serilingampally Mandal,",S50,"Door No. 7-4,Survey Number 73,",7997876333,7997876333,Hyderabad,Telangana,3,Service,TS,TS205,agmservice@carkia.in,17.4217
https://car-kia-jubilee-hills.com,"CAR KIA,Rangareddy","HYD, TS - 500008",78.42806,"Rajendranagar mandal, Rangareddy,",S50,"Door No 3-161, Attapur,",,7997769333,Hyderabad,Telangana,3,Service,TS,TS204,gmservice@carkia.in,17.375183
https://car-kia-jubilee-hills.com,"Car Kia, Jubilee Hills",Telangana,78.32806,"e, Vattinagullapalli, Ranga Reddy Dist. Telangana",S50,"Survey No. 224, Opp Bombay Stock Exchang",999999999,7997876333,Hyderabad,Telangana,3,Service,TS,TS401,agmservice@carkia.in,17.42314
,"Malik Kia, N Gardens - Kukatpally","Hyderabad, Telangana- 500072",78.422527,"N Gardens, Behind Metro Cash And Carry Kukatpally,",S50,"D.No. 5-5-33/22/E,",7995999379,7995999379,Hyderabad,Telangana,3,Service,TS,TS206,gmservice@malikkia.in,17.480614
,"Malik Kia, Kukatpally","Hyderabad, Telangana - 500072",78.42397,"P No. 4 and 3 Part Kukatpally,",S50,"H.No. 12-6/36/4/3,",7995999379,7995999379,Hyderabad,Telangana,3,Service,TS,TS406,gmservice@malikkia.in,17.47416
https://vihaan-auto-kukkatpally-kia.com,"Vihaan Kia, Nacharam",,78.5589,"Plot No 14/1/2, SY No 66/1 /Part",S50,"Industrial Development Area, Uppal Manda",,7995999379,Hyderabad,Telangana,3,Service,TS,TS203,gmservice@vihaankia.in,17.4306
https://vihaan-auto-kukkatpally-kia.com,"Vihaan Auto, Kukkatpally",Hyderabad- 500072,78.42397,"Kukatpally, Ranga Reddy District",S50,"12-6-36/4/3, Opp. Kukatpally Bus Depot",999999999,9966554444,Hyderabad,Telangana,3,Service,TS,TS403,servicehead@vihaankia.in,17.47416
https://malik-kia-rampur.com,"Malik Kia, Rampur","Rampur Locality, Karimnagar",79.138463,M No.8-6-316/1/2,S58,S No. 766/B &amp; 766/D,9999999999,8019770555,Karimnagar,Telangana,1,Sales,TS,TS302,gmsales.knr@malikkia.in,18.411542
https://malik-kia-rampur.com,"Malik Kia, Rampur","Rampur Locality, Karimnagar",79.138463,M No.8-6-316/1/2,S58,S No. 766/B &amp; 766/D,9963712345,,Karimnagar,Telangana,3,Service,TS,TS302,Rajeshmalik@malikcars.com,18.411542
https://automotive-kia-mahbubnagar.com,"Automotive Kia, Mahbubnagar",Mahabubnagar 509001,78.069083,"Appannapally Village,",SCA,"Sy.No 174/A ,Hyderabad Road,",6309908186,6309908110,Mehboobnagar,Telangana,1,Sales,TS,TS502,service.kiambnr@automotiveml.com,16.76232
https://automotive-kia-mahbubnagar.com,"Automotive Kia, Mahbubnagar",Mahabubnagar 509001,78.069083,"Appannapally Village,",SCA,"Sy.No 174/A ,Hyderabad Road,",6309908186,6309908186,Mehboobnagar,Telangana,3,Service,TS,TS502,service.kiambnr@automotiveml.com,16.76232
https://automotive-kia-nalgonda.com,"Automotive Kia, Nalgonda",,79.253345,Nalgonda 508001,S60,"Marriguda  By-Pass Near Nrs Garden,",6309908176,6309908183,Nalgonda,Telangana,1,Sales,TS,TS503,service.kianlg@automotiveml.com,17.093873
https://automotive-kia-nalgonda.com,"Automotive Kia, Nalgonda",,79.253345,Nalgonda 508001,S60,"Marriguda  By-Pass Near Nrs Garden,",6309908176,6309908176,Nalgonda,Telangana,3,Service,TS,TS503,service.kianlg@automotiveml.com,17.093873
,"Sunrise Kia, Nizamabad","Dist. Nizamabad, Telangana -503230",78.1769,"Village Bardipur, Mandal Dichpally,",S59,"G.P. No. 3-108/75/32,",7995939993,7995939993,Nizamabad,Telangana,1,Sales,TS,TS303,Suri.parige@gmail.com,18.63517
,"Sunrise Kia, Nizamabad","Dist. Nizamabad, Telangana -503230",78.1769,"Village Bardipur, Mandal Dichpally,",S59,"G.P. No. 3-108/75/32,",7995999841,7995999841,Nizamabad,Telangana,3,Service,TS,TS303,Suri.parige@gmail.com,18.63517
https://malik-kia-rangampet.com,"Malik Kia, Rangampet","Rangampet, Warangal- 506002",79.587111,Old Ramakrishna Theatre,S55,"15-1-318, KMC Road",9121601111,9121601111,Warangal,Telangana,1,Sales,TS,TS301,ceo@malikkia.in,17.998222
https://malik-kia-rangampet.com,"Malik Kia, Rangampet","Rangampet, Warangal- 506002",79.587111,Old Ramakrishna Theatre,S55,"15-1-318, KMC Road",,,Warangal,Telangana,3,Service,TS,TS301,,17.998222
https://prem-wheels-sikandra-mathura-road-kia.com,"Prem Wheels, Sikandra-Mathura Road",,77.9264,"Khasra No. 26, Lakhanpur, Sikandra-Mathura Road, Agra",N33,,999999999,7617599999,Agra,Uttar Pradesh,1,Sales,UP,UP304,contactus@premkia.com,27.22128
https://prem-wheels-sikandra-mathura-road-kia.com,"Prem Wheels, Sikandra-Mathura Road","Road,Agra",77.9264,"Khasra No. 26, Lakhanpur, Sikandra-Mathura Road, A",N33,,999999999,8077745495,Agra,Uttar Pradesh,3,Service,UP,UP304,service.agra@premkia.com,27.22128
https://prem-wheels-aligarh-kia.com/,"Prem Wheels, Aligarh","Aligarh, UP - 202001",78.026682,"Khasra No 12B, Vill Sikandarpur,",N29,"Bhukrawali,Tehsil Kol,",7302980375,7302980375,Aligarh,Uttar Pradesh,1,Sales,UP,UP313,gmsalesaligarh@premkia.com,27.928564
https://adyant-automovers-stanley-road-kia.com,"Adyant Automovers, Stanley road",Uttar Pradesh-211001,81.84374," Stanley Road, Allahabad",N36,129/134/135/1,999999999,7290070425,Allahabad,Uttar Pradesh,1,Sales,UP,UP401,gmsales@adyantkia.in,25.46579
https://adyant-automovers-stanley-road-kia.com,"Adyant Automovers, Stanley road",Uttar Pradesh,81.83444,"Allahabad, Uttar Pradesh-211008",N36,"Araji No-198 Dhanua, Block-Chaka, Naini ",999999999,6391500070,Allahabad,Uttar Pradesh,3,Service,UP,UP401,service@adyantkia.in,25.3695
,"Empire Kia, Azamgarh","Sadar Azamagrh, UP - 276001",83.1355039,"Chakkhairullah, Azamgarh-Varanasi Road,",NBN,"Plot No 174,",9651250919,9651250919,Azamgarh,Uttar Pradesh,1,Sales,UP,UP407,mohdhashim_azmi@yahoo.com,26.0195423
,"Empire Kia, Azamgarh","Sadar Azamagrh, UP - 276001",26.005127,"Chakkhairullah, Azamgarh-Varanasi Road, ",NBN,"Plot No 174,",7570909902,,Azamgarh,Uttar Pradesh,3,Service,UP,UP407,service@empirekia.in,26.005127
https://smart-city-cb-ganj-kia.com,"Smart City, CB Ganj",,79.38463,"lly, Uttar Pradesh-243001",N32,"4,5 KM Rampur Delhi Road C.B Ganj, Barei",999999999,9105678001,Bareilly,Uttar Pradesh,1,Sales,UP,UP303,sales.bareilly@ambay-kia.com,28.38415
https://smart-city-cb-ganj-kia.com,"Smart City, CB Ganj",Uttar Pradesh,79.38463,"4,5 KM Rampur Delhi Road C.B Ganj, Bareilly, Uttar",N32,,999999999,8937075000,Bareilly,Uttar Pradesh,3,Service,UP,UP303,service.bareilly@ambay-kia.com,28.38415
,"Iconic Kia, Bijnor",Uttar Pradesh-246701,78.14229,"Bijnor Moradabad Road, Bijnori",NDF,"Ladapura Code No1593, Opp SBI Branch,",9927944455,7252888111,Bijnor,Uttar Pradesh,1,Sales,UP,UP508,gm.sales@kiameerut.com,29.36544
https://virendra-kia-etawah.com,"Virendra Kia, Etawah","Kanpur Road, Etawah, UP-206001",26.767301,"Chaturvedi Nagar, Pakka Bagh,",N96,"Khasra No.  10-70, Khatoni No 140,",9520987005,9520987005,Etawah,Uttar Pradesh,1,Sales,UP,UP311,gmsales@virendrakia.net,26.767301
https://virendra-kia-etawah.com,"Virendra Kia, Etawah","Kanpur Road, Etawah, UP-206001",79.038762,"Chaturvedi Nagar, Pakka Bagh,",N96,"Khasra No.  10-70, Khatoni No 140,",9520987001,9520987001,Etawah,Uttar Pradesh,3,Service,UP,UP311,gmservice@virendrakia.net,26.767301
https://asb-automobiles-delhi-meerut-road-kia.com,"ASB Automobiles, Delhi Meerut Road",Ghaziabad,77.4506468,"Industrial Area, Ghaziabad",N90,"Plot No. C-1/2, Meerut Road, Sector 22, ",999999999,8505815555,Ghaziabad,Uttar Pradesh,1,Sales,UP,UP307,kia.gzb@asbkia.in,28.7034447
https://asb-automobiles-sahibabad-kia.com,"ASB Automobiles, Sahibabad",Sahibabad,77.3513002,"d, Near Euro Road, Sahibabad",N90,"40A/17, 4 Industrial Area, Main Link Roa",999999999,8505935555,Ghaziabad,Uttar Pradesh,1,Sales,UP,UP102,kia.gzb@asbkia.in,28.6585104
https://asb-automobiles-delhi-meerut-road-kia.com,"ASB Automobiles, Lohia Nagar",Uttar Pradesh- 201003,77.4290277,Lohia Nagar Ghaziabad ,N90,C-15,8505815555,8505815555,Ghaziabad,Uttar Pradesh,2,Pre-owned Cars,UP,UP307,agm@asbkia.in,28.676
https://asb-automobiles-delhi-meerut-road-kia.com,"ASB KIA, Sahibabad","Ghaziabad, Uttarpardesh-201010",77.344379,"54/18 and/17 Site 4,",N90,Industrial Area Sahibabad,,9773773909,Ghaziabad,Uttar Pradesh,3,Service,UP,UP204,service.shb@asbkia.in,28.665825
https://asb-automobiles-delhi-meerut-road-kia.com,"ASB Automobiles, Delhi Meerut Road",Ghaziabad,77.4506468,"Meerut Road, Sector 22, Industrial Area, Ghaziabad",N90,,999999999,8505815555,Ghaziabad,Uttar Pradesh,3,Service,UP,UP307,service.gzb@asbkia.in,28.7034447
https://speedingo-kia-patparganj.com,"Speedingo Kia, Patparganj",Ghaziabad,77.34928,"GHAZIABAD, 201010",N90,"39/3 SITE IV INDL AREA, SAHIBABAD, ",9311589502,9311589502,Ghaziabad,Uttar Pradesh,3,Service,UP,DL404,servicehead@speedingo-kia.in,28.65978
https://sahib-kia-gorakhpur.com,"Sahib Kia, Gorakhpur",,83.334148,Lucknow Road,N39,"1.0.0,Sahib kia Nausarh Chowk,",8047170777,1800-123-9896,Gorakhpur,Uttar Pradesh,1,Sales,UP,UP405,gmsales@sahibkia.in,26.733203
https://sahib-kia-gorakhpur.com,"Sahib Kia, Gorakhpur",,83.1481,"kasarawal,P.O.-Sahajanwa",N39,"447,Next to Gurudwara Bhagat kabir Das ji",6390394444,1800-123-9896,Gorakhpur,Uttar Pradesh,3,Service,UP,UP405,gmservice@sahibkia.in,26.75685
,"NRL Kia, Greater Noida","Greater Noida, UP -201306",77.52364,"Upsida Industrial Area, Surajpur Kasna Road,",N95," B-1, Surajpur Site 4,",8929484657,8929484657,Greater Noida,Uttar Pradesh,1,Sales,UP,UP316,Contact@nrlkia.com,28.45611
,"NRL Kia, Greater Noida","Greater Noida, UP -201306",77.52364,"Upsida Industrial Area, Surajpur Kasna Road,",N95," B-1, Surajpur Site 4,",8929484657,8929484657,Greater Noida,Uttar Pradesh,3,Service,UP,UP316,gmservice@nrlkia.com,28.45611
https://pitambra-kia-jhansi.com,"Pitambra Kia, Jhansi",Goramachhiya,78.669481,Kanpur road,N47,11th mile,7705023462,9415401191,Jhansi,Uttar Pradesh,1,Sales,UP,UP310,salesmanager@jaipitambrakia.in,25.469861
https://pitambra-kia-jhansi.com,"Pitambra Kia, Jhansi",Goramachhiya,78.669481,Kanpur road,N47,11th mile,7705023462,8957024073,Jhansi,Uttar Pradesh,3,Service,UP,UP310,servicegm@jaipitambrakia.in,25.469861
https://bright-kia-kanpur-city.com,Bright Kia,"Kanpur, Uttar Pradesh-208008",80.41712031,"246- 247 G.T ROAD,",N31,Chakeri,9839072222,9506040545,Kanpur,Uttar Pradesh,1,Sales,UP,UP312,gmsales@brightkia.com,26.37750991
https://shree-asr-fazalganj-kia.com,"Shree ASR, Fazalganj",,80.305698,"lpi Road, Fazalganj, Kanpur",N31,"122/236, A1, C1, Near Sangam talkies, Ka",999999999,8957401003,Kanpur,Uttar Pradesh,1,Sales,UP,UP306,enquiry@asr-kia.in,26.462425
https://shree-asr-mall-road-kia.com,"Shree ASR, Mall Road",,80.359681,16/95 mall road Kanpur 208001,N31,,999999999,8957401002,Kanpur,Uttar Pradesh,1,Sales,UP,UP101,enquiry@asr-kia.in,26.464065
https://bright-kia-kanpur-city.com,Bright Kia,"Kanpur, Uttar Pradesh-208008",80.41712031,"246- 247 G.T ROAD,",N31,Chakeri,9839072222,,Kanpur,Uttar Pradesh,3,Service,UP,UP312,vj@brightkia.com,26.37750991
https://shree-asr-fazalganj-kia.com,"Shree ASR, Fazalganj",Kanpur,80.305698,"Near Sangam talkies, Kalpi Road, Fazalganj, Kanpur",N31,,999999999,8957401026,Kanpur,Uttar Pradesh,3,Service,UP,UP306,servicemanager@asr-kia.in,26.462425
,"Balaji Motors, Telibagh","Lucknow, Uttar Pradesh -226002",80.94324,"Telibagh, Raebareli Road,",N30,"5-B, Senani Vihar,",941545155,9119803461,Lucknow,Uttar Pradesh,1,Sales,UP,UP104,navneetpandey82@gmail.com,26.774871
https://balaji-motors-faizabad-rd-kia.com,"Balaji Motors, Faizabad Rd",,81.02434,"CP 11 Vijyant Khand, Gomtinagar, Faizabad Rd, Lucknow UP",N30,,999999999,9119803462,Lucknow,Uttar Pradesh,1,Sales,UP,UP402,crmsaleslko@balajikia.in,26.874148
https://skydac-auto-airport-road-kia.com,"SKYDAC Auto, Airport Road",LUCKNOW,80.887062,"MAIN KANPUR ROAD, NEXT TO ESIC HOSPITAL , KANPUR ROAD, ",N30,"KHASRA NO 490,",18008901670,18008901670,Lucknow,Uttar Pradesh,1,Sales,UP,UP404,ccm@skydac.in,26.786694
https://skydac-auto-sitapur-road-kia.com,"Skydac Auto, Sitapur Road","Lucknow, UP-2226021",80.9481377,Near Petrol Pump,N30,"Plot 1, Sector E Jankipuram",9031323516,9031323516,Lucknow,Uttar Pradesh,1,Sales,UP,UP103,SKYDACAUTOKIA@GMAIL.COM,26.9105592
https://balaji-motors-faizabad-rd-kia.com,"Balaji Motors CPO, Sultanpur Road",Lucknow UP- 226002,80.99233943,"Sarsawan, Sultanpur Road,",N30,"Arjunganj,",,5224009822,Lucknow,Uttar Pradesh,2,Pre-owned Cars,UP,UP402,kiaexchange@balajikia.in,26.80588495
https://balaji-motors-faizabad-rd-kia.com,"Balaji Motors, Faizabad Rd",,81.0529723,"Village: Semra, Lucknow, UP",N30,"Khasra No. 197, 198,201, Faizabad Road, ",999999999,8840549511,Lucknow,Uttar Pradesh,3,Service,UP,UP402,kiaservicelko@balajikia.in,26.8864241
https://skydac-auto-airport-road-kia.com,"SKYDAC Auto, Airport Road",Lucknow,80.8778193,"1016 K, Sarojini Nagar",N30,,999999999,,Lucknow,Uttar Pradesh,3,Service,UP,UP404,gm.service@skydac.in,26.7694969
https://adyant-automovers-mirzapur-kia.com,"Adyant Automovers, Mirzapur",,82.588965,Mirzapur-231001,NDJ,"Mirzapur Bharuhan Chunar Road,",6392505236,7290070425,MIRZAPUR,Uttar Pradesh,1,Sales,UP,UP504,gmsales@adyantkia.in,25.133492
https://adyant-automovers-mirzapur-kia.com,"Adyant Automovers, Mirzapur",,82.588965,Mirzapur-231001,NDJ,"Mirzapur Bharuhan Chunar Road,",6392505236,6392505236,MIRZAPUR,Uttar Pradesh,3,Service,UP,UP504,servicemirzapur@adyantkia.in,25.133492
https://www.prem-wheels-mathura-kia.com/,"Prem Wheels, Mathura","Mathura, UP- 281006",77.69457,"Near Basera food grain ware house,",N93,"NH2 Baad,",9837056843,9837056843,Mathura,Uttar Pradesh,1,Sales,UP,UP314,sales.mathura@premkia.com,27.39786
https://iconic-kia-delhi-road.com,"Iconic Kia, Delhi Road",,77.64926467,"i Road, Meerut- 250103",N34,"1027, Opp. Partapur Police Station, Delh",999999999,7252888111,Meerut,Uttar Pradesh,1,Sales,UP,UP301,gm.sales@kiameerut.com,28.91985671
https://iconic-kia-delhi-road.com,"Iconic Kia, Delhi Road",Meerut,77.64926467,"1027, Opp. Partapur Police Station, Delhi Road, Me",N34,,7252888222,7252888222,Meerut,Uttar Pradesh,3,Service,UP,UP301,servicemanager@kiameerut.com,28.91985671
,"Global Kia, Delhi Road, Moradabad",Uttar Pradesh -244001,78.726806,"Delhi Road, Moradabad,",N28,"Moja Lakadi Fajalpur,",7055600802,7055600802,Moradabad,Uttar Pradesh,1,Sales,UP,UP317,sales@globalkiambd.com,28.827833
,"Global Kia, Delhi Road, Moradabad",Uttar Pradesh -244001,78.726658,"Delhi Road, Moradabad,",N28,"Moja Lakadi Fajalpur,",9700000444,7055600821,Moradabad,Uttar Pradesh,3,Service,UP,UP317,vinod.arora@globalstarauto.com,28.827934
https://iconic-kia-muzzaffarnagar.com,"Iconic Kia, Muzzaffarnagar",Muzzaffarnagar - 251001,77.699139,"Delhi Dehraun Road,",N54,"6Th Mile Stone, Nh-58 ,  ",9105902574,7252888111,Muzaffarnagar,Uttar Pradesh,1,Sales,UP,UP501,gm.sales@kiameerut.com,29.41575
https://iconic-kia-muzzaffarnagar.com,"Iconic Kia, Muzzaffarnagar",Muzzaffarnagar - 251001,77.699139,"Delhi Dehraun Road,",N54,"6Th Mile Stone, Nh-58 ,  ",9760391760,9105902574,Muzaffarnagar,Uttar Pradesh,3,Service,UP,UP501,sermuzaffarnagar@kiameerut.com,29.41575
https://allied-motors-sector-6-kia.com,"Allied Motors, Sector 6",Noida,77.3149,"Plot No. A-10, Sector 6, Noida-201301",N35,Plot No A-10,999999999,9899476666,Noida,Uttar Pradesh,1,Sales,UP,UP403,anamikajain@alliedmotors.net,28.59099
https://lohia-kia-sec-63-noida.com,"Lohia Kia, Sec-63 Noida"," Noida, Uttar pradesh-201301",77.37952,https://lohia-kia-sec-63-noida.com,N35,H-215 Sec 63,8929300646,8929294444,Noida,Uttar Pradesh,1,Sales,UP,UP406,gmsales.noida@lohiakia.com,28.62454
https://allied-motors-sector-6-kia.com,"Allied Motors, Sector 11",,77.33309,"W-9, Sector 11, Noida, UP",N35,,999999999,8929704146,Noida,Uttar Pradesh,3,Service,UP,UP403,smservice.noida@allied-kia.in,28.60084
https://allied-motors-sector-6-kia.com,"Allied Kia, Sector 11",Uttar Pradesh- 201301,28.59707,"Sector 11, Noida",N35,"C-5,",9667793534,9667793534,Noida,Uttar Pradesh,3,Service,UP,UP205,gmservice.noida@allied-kia.in,28.59707
https://lohia-kia-sec-63-noida.com,"Lohia Kia, Sec-65 Noida",Sector 65 Noida U.P-201301,77.39702,"Plot No:126,Village Bhoalapur",N35,Gautam Buddha Nagar,,8929300646,Noida,Uttar Pradesh,3,Service,UP,UP201,lohiakia.com,28.61383
,"Shubh Kia, Saharanpur","Sahranpur, UP-247001",77.530592,"Opp ITI Bijli Gher, Delhi Sahranpur Rd,",N52,"Near Maharaja Place,",9259536660,9259536660,Saharanpur,Uttar Pradesh,1,Sales,UP,UP510,gmsales@shubhia.com,29.929933
,"Avantika Kia, Babatpur Road",Uttar Pradesh- 221105,82.870132,"Babatpur Road, Varanasi,",N38,"MI 119, Bamokhar,",9415201242,9151039609,Varanasi,Uttar Pradesh,1,Sales,UP,UP315,"Avantika Kia, Babatpur Road",25.425569
https://kabir-motors-dlw-lahartara-road-kia.com,"Kabir Motors, DLW - Lahartara Road",Varanasi-221013,82.96743,"DLW-Lahartara Road, Sivdaspur",N38,Pama Complex,999999999,9152039791,Varanasi,Uttar Pradesh,1,Sales,UP,UP308,gmsales@kabirkia.in,25.31111
,"Avantika Kia, Babatpur Road",Uttar Pradesh- 221105,82.8701711,"Varanasi,Uttar Pradesh- 221105",N38,"MI 119, Bamokhar,Babatpur Road,",9415201242,9151039631,Varanasi,Uttar Pradesh,3,Service,UP,UP315,smservice@avantika.com,25.4260695
https://kabir-motors-dlw-lahartara-road-kia.com,"Kabir Motors, DLW - Lahartara Road",Varanasi-221013,82.96743,"DLW-Lahartara Road, Sivdaspur",N38,Pama Complex,999999999,7704002656,Varanasi,Uttar Pradesh,3,Service,UP,UP308,smservices@kabirkia.in,25.31111
https://shubh-kia-mothro-wala-chowk.com,"Shubh Kia, Mothro Wala Chowk","Dehradun, Uttarakhand",78.0418264,"bypass Road, ",N37,Mothro Wala Chowk Haridwar ,999999999,7088170881,Dehradun,Uttarakhand,1,Sales,UK,UK401,sales@shubhkia.com,30.2894256
,"Shubh Kia, Yamuna Colony",Uttarakhand -248001,78.02757,"Yamuna Colony, Connaught Place, Dehradun,",N37,"130/1, Chakrata Road, Bindaal Tiraha,",9582860202,7088170881,Dehradun,Uttarakhand,1,Sales,UK,UK102,Pankajveerbhan@Rediffmail.Com,30.331122
https://shubh-kia-mothro-wala-chowk.com,"Shubh Kia CPO, GMS Road","Dehradun, Uttarakhand-248001",78.0109542,"GMS Road,",N37,Near Niranjanpur Sabji Mandi,7088170881,7088170881,Dehradun,Uttarakhand,2,Pre-owned Cars,UK,UK401,gmsales@shubhkia.com,30.3058835
https://shubh-kia-mothro-wala-chowk.com,"Shubh Kia, Mothro Wala Chowk",Dehradun,78.1022729,"Haridwar Road, Opposite Doon Distillary, Kuanwala,",N37,,999999999,7055310868,Dehradun,Uttarakhand,3,Service,UK,UK401,service@shubhkia.com,30.2395901
https://classic-motors-bareilly-road-kia.com,"Classic Motors, Bareilly Road",,79.52133,-Nainital Uttarakhand 263139,N91,Bareilly Road Goraparao Haldwani Distt,999999999,7900679006,Haldwani,Uttarakhand,1,Sales,UK,UK301,sm@classickia.in,29.16492
https://classic-motors-bareilly-road-kia.com,"Classic Motors, Bareilly Road",Haldwani,79.52088,"Haripur Tularam, Bareilly Road, Goraparao, Haldwan",N91,,999999999,7900679006,Haldwani,Uttarakhand,3,Service,UK,UK301,service@classickia.in,29.1648
https://avs-kia-bhaderabad.com,AVS KIA,Haridwar Uttarakhand-249402,78.35643,"709, 710, Ranipur Jhaal,",N85,Bhaderabad,9105910001,9105910001,Haridwar,Uttarakhand,1,Sales,UK,UK302,gmsales@avskia.in,29.55602
https://avs-kia-roorkee.com,"AVS KIA, Roorkee","Haridwar, Uttarakhand, 247667",77.8829,"274/3, Asafnagar,",N48,"Delhi Road, Roorkee,",9897036244,9105910018,Roorkee,Uttarakhand,1,Sales,UK,UK101,smsales.rrk@avskia.in,29.8281
https://rudra-kia-asansol.com,"Rudra Kia, Asansol","Dist-Paschim Burdwan, Pin-713305",86.9478684,"Block-A, Shristinagar, PO- Ramkrishna Mission",E12,"UG-005,006, at Asansol Sentrum Office",9083013000,9083013000,Asansol,West Bengal,1,Sales,WB,WB404,rudrakiaasansol@rudrakia.com,23.7045052
https://rudra-kia-asansol.com,"Rudra Kia, Asansol",Asansol – 713303,86.9478684,Dist - Paschim Burdwan,E12,"Ushagram, G T Road (East),",9083045000,9083045000,Asansol,West Bengal,3,Service,WB,WB404,rudrakiaasansol@rudrakia.com,23.7045052
,"Rudra Kia, Burdwan","Dist- Purba Burdwan, WB -713104",87.893688,"P No 231, Opp Mahila ITI College,",EDZ,"P No 231, Opp Mahila ITI College,",7479003543,7479003543,Burdwan,West Bengal,1,Sales,WB,WB502,smbwn@rudrakia.in,23.21829
https://kaysons-kia-coochbehar.com,"Kaysons Kia, Coochbehar",,89.4797899,,E15,"Chakchaka Checkpost,Coochbehar",9434759770,9434759770,Cooch Behar,West Bengal,1,Sales,WB,WB501,Info@kaysons.co.in,26.3247161
https://kaysons-kia-coochbehar.com,"Kaysons Kia, Coochbehar",,89.4797899,,E15,"Chakchaka Checkpost,Coochbehar",7719384220,7719384220,Cooch Behar,West Bengal,3,Service,WB,WB501,admincob.kia@kaysons.co.in,26.3247161
https://rudra-kia-durgapur.com,"Rudra Kia, Durgapur",Dist- Paschim Bardhaman- 713212,87.36387,"Bashkopa,GT Road,NH2,Mouza Bamunara",E16,"Under Bamunara G.P,P.S-Kanksa",7479003582,7479003582,Durgapur,West Bengal,1,Sales,WB,WB304,durgapur@rudrakia.com,23.494694
https://rudra-kia-durgapur.com,"Rudra Kia, Durgapur",Dist- Paschim Bardhaman- 713212,87.36387,"Bashkopa,GT Road,NH2,Mouza Bamunara",E16,"Under Bamunara G.P,P.S-Kanksa",9434745001,,Durgapur,West Bengal,3,Service,WB,WB304,durgapur@rudrakia.com,23.494694
,Ahaan Mobility LLP,"West Bengal, 711403",,"Munshidanga Jublimath Howrah,",E76,"NH 6, Salap More,",9830022060,9230976151,Howrah,West Bengal,1,Sales,WB,WB306,anshulh@gangeskia.com,
https://shanvi-kia-kharagpur.com/,"Shanvi KIA, Kharagpur",West Bengal - 721301,87.35653,"Dist.- Paschim Medinipur, Kharagpur, WB",E13,"Plot No-221, NH-16,",9046986611,9046986611,Kharagpur,West Bengal,1,Sales,WB,WB305,gmsales@shanvikia.in,22.37717
https://shanvi-kia-kharagpur.com/,"Shanvi KIA, Kharagpur",West Bengal - 721301,87.35653,"Dist.- Paschim Medinipur, Kharagpur, WB",E13,"Plot No-221, NH-16,",9046985511,9046985511,Kharagpur,West Bengal,3,Service,WB,WB305,smservice@shanvikia.in,22.37717
https://eastern-kianew-town.com,"Eastern Kia,New town",New Town,88.463,"ACTION AREA IID, New Town",E10,Plot No-IID/9/1,9903969012,9903969012,Kolkata,West Bengal,1,Sales,WB,WB301,sales@easternkia.in,22.62
https://celica-kia-salt-lake.com,"Celica Kia, Salt Lake",,88.4402,"5, Salt Lake, Kolkata -700091",E10,"Ambient Building, Plot No. AQ-7, Sector ",6292134456,7596042222,Kolkata,West Bengal,1,Sales,WB,WB401,info@Celica-kia.in,22.5793
https://celica-kia-howrah.com,"Celica Kia, Howrah",ngal,88.26474521,". 51, Khaitan 302, PO Bankra, Police Station Donjur, West Be",E10,"Dag No. 3801, Mouza - North Libra, JL No",6292134458,6292134458,Kolkata,West Bengal,1,Sales,WB,WB101,info@Celica-kia.in,22.60826396
,"SPL KIA, Diamond Harbour Road",West Bengal - 700008,88.309832,"Behala Sekar Bazar, South 24-Parganas, Kolkata",E10,"196, Diamond Harbour Road,",9830770381,9830770381,Kolkata,West Bengal,1,Sales,WB,WB102,gmsales.behala@splkia.in,22.475844
https://spl-cars-ajc-bose-road.com,"SPL Cars,AJC Bose Road",West Bengal-700017,88.36022, Ground Floor.Kolkata,E10,"209,A.J.C Bose Road",9830717171,9830717171,Kolkata,West Bengal,1,Sales,WB,WB403,info@splkia.com,22.542512
,"SPL Kia CPO, Bose Road","Kolkata, West Bengal-700017",88.361048,"AJC Bose Road, ",E10,209,9830779219,9830779219,Kolkata,West Bengal,2,Pre-owned Cars,WB,WB403,9830779219,88.361048
https://eastern-kia.in.kia/,"Eastern Kia, Maheshtalla", Budge Budge Trunk Road,88.1719," Budge Budge Trunk Road,",E10,"Paragana Balia, PS Maheshtalla,",9147007499,9147007499,Kolkata,West Bengal,3,Service,WB,WB201,bpmanager@easternkia.in,22.3053
https://eastern-kianew-town.com,"Eastern Kia,New town",New Town,88.463,"ACTION AREA IID, New Town",E10,Plot No-IID/9/1,9147007477,9147007477,Kolkata,West Bengal,3,Service,WB,WB301,gmservice@easternkia.in,22.62
https://celica-kia-salt-lake.com,"Celica Kia, Salt Lake",Kolkatta,88.4114667,"lic School, Kolkatta - 700152",E10,"Jagatipota, Kalikapur, Near Culcutta Pub",999999999,7596042262,Kolkata,West Bengal,3,Service,WB,WB401,manager.service@celica-kia.in,22.4998759
https://spl-cars-ajc-bose-road.com,"SPL KIA, MIRANIA ROAD",KOLKATA-700105,88.40029,"MIRANIA ROAD,",E10,"ARUPOTA VILLAGE,",,9830487707,Kolkata,West Bengal,3,Service,WB,WB202,servicehead@splkia.com,22.54862
https://spl-cars-ajc-bose-road.com,"SPL Cars,AJC Bose Road",Kolkata-700141,88.246646,"New Ward No:22, PO+PS: Maheshtala",E10,Budge Budge Trunk Road,9830487707,,Kolkata,West Bengal,3,Service,WB,WB403,servicehead@splkia.com,22.5066135
https://kaysons-kia-sevoke-road.com,"Kaysons Kia, Sevoke road", West Bengal-734008,72.6797513,"g No: V/1723/A, 2nd Mile, Check Post, Sevoke Road, Siliguri,",E11,"Kaysons Ventures Private Limited, Holdin",999999999,7719384208,Siliguri,West Bengal,1,Sales,WB,WB302,Info@kaysons.co.in,23.041755
https://kaysons-kia-sevoke-road.com,"Kaysons Kia, Sevoke road",West Bengal,88.438194,"Check Post, Sevoke Road, Siliguri, West Bengal",E11,"Holding No: V/1723/A, 2nd Mile,",7719384220,7719384220,Siliguri,West Bengal,3,Service,WB,WB302,servicemanager.kia@kaysons.co.in,26.749802
