title,address,city,phone,what3words,State
"Tata Motors Cars Showroom - Gennext Motors, Port Blair","Room No 14, Atul Smriti Samity Complex, Middle Point",Port Blair,9.17045E+11,womb.tropic.canal,Andaman-And-Nicobar-Islands
"Tata Motors Cars Showroom - Rithvikaa Cars Pvt Ltd, Maruthinagar","Survey No 159/3, Kakkala Palli, NH 7, Bypass Rd",Anantapur,9.17045E+11,seagull.rebounder.flanks,Andhra-Pradesh
"Tata Motors Cars Showroom - Rithvikaa Cars, Hindupur",Anantapur Road,Hindupur,9.18879E+11,polished.receiving.chum,Andhra-Pradesh
"Tata Motors Cars Showroom - Haroon Cars, Chinna Chowk",Door No 3/168/5/8,Kadapa,9.18879E+11,cringe.tripods.resonates,Andhra-Pradesh
"Tata Motors Cars Showroom - Haroon Cars, Rajampet",Ground Floor,Rajampet,9.18291E+11,scribble.call.conspired,Andhra-Pradesh
"Tata Motors Cars Showroom - Haroon Cars Pvt Ltd, Khadarabad","Flat No 6 to 8, Mydukur Road",Kadapa,9.18291E+11,barbarian.tonal.available,Andhra-Pradesh
"Tata Motors Cars Showroom - Vijayabharathi Automobiles, Kattamanchi",Ground Floor,Chittoor,9.18879E+11,jumbo.sublet.gets,Andhra-Pradesh
"Tata Motors Cars Showroom - Vijayabharathi Automobiles, Madanapalli",Punganur Road,Madanapalli,9.19167E+11,observer.commoners.dignify,Andhra-Pradesh
"Tata Motors Cars Showroom - Vijayabharathi Automobiles, Krishnareddy Nagar","Door No 9/27, Sy No 252/2A, 3A, 253/3A, Thanapalli Road",Tirupati,9.17045E+11,exploring.report.copper,Andhra-Pradesh
"Tata Motors Cars Showroom - Vijayabharathi Automobiles, Srikalahasthi","16/865/1, Panagal, Sri Rama Nagar Colony",Chittoor,9.18291E+11,sizes.subsystem.slap,Andhra-Pradesh
"Tata Motors Cars Showroom - Haroon Cars, Auto Nagar","No 96/3/35/261, NH 7",Kurnool,9.17045E+11,kicked.impressed.chef,Andhra-Pradesh
"Tata Motors Cars Showroom - Haroon Cars, Thirumala Nagar",Roshan Garden Complex,Adoni,9.19167E+11,sizzled.magically.reporter,Andhra-Pradesh
"Tata Motors Cars Showroom - Haroon Cars, Bommala Satram Road",Ground Floor,Nandyal,9.17045E+11,undertook.holiday.trees,Andhra-Pradesh
"Tata Motors Cars Showroom - Jasper Industries, Vijayawada","D No 10/168, MG Road, Latha Buildings",Vijayawada,9.19167E+11,awards.reheat.ambitions,Andhra-Pradesh
"Tata Motors Cars Showroom - Jasper Industries, Bank Colony","Door No 54/15/5, Srinivasa Nagar, NH 5",Vijayawada,9.17045E+11,budgeted.inserted.handed,Andhra-Pradesh
"Tata Motors Cars Showroom - Jasper Industries, Machilipatnam","D Mart Road, Srinivas Colony",Machilipatnam,9.19167E+11,commenced.minimums.packet,Andhra-Pradesh
"Tata Motors Cars Showroom - Garapati Autoventures Private Limited, Nidamanuru","D No 10/63/2, RS No 117/2, NH 5, Done Atkuru",Vijayawada,9.17045E+11,screening.crass.pillows,Andhra-Pradesh
"Tata Motors Cars Showroom - Garapati, Jaggaiahpet","RS No 94, Flat No 173",Krishna,9.18291E+11,trifling.sober.fights,Andhra-Pradesh
"Tata Motors Cars Showroom - Garapati, Gudivada","C/47, 3rd Lane",Gudivada,9.18291E+11,hydration.enchanted.game,Andhra-Pradesh
"Tata Motors Cars Showroom - Garapati, Tenali",D No 31/7/10,Guntur,9.19167E+11,accent.entrust.gymnasium,Andhra-Pradesh
"Tata Motors Cars Showroom - Jasper Industries, Pedakakani","Survey No 179, Plot No 4, Phz 4, Block No 6, Auto Nagar",Guntur,9.17045E+11,starters.being.seemingly,Andhra-Pradesh
"Tata Motors Cars Showroom - Jasper Industries, Narsaraopeta",Ground Floor,Narasaraopeta,9.18291E+11,fizzled.fussy.ideals,Andhra-Pradesh
"Tata Motors Cars Showroom - Jasper Industries, Chilakaluripet","Ground Floor, GT Road",Chilakaluripet,9.19167E+11,reconnect.widget.lease,Andhra-Pradesh
"Tata Motors Cars Showroom - Varalakshmi Automobiles, Ongole","SY No 188, NH 5, North Bypass Road",Ongole,9.17045E+11,garages.package.elders,Andhra-Pradesh
"Tata Motors Cars Showroom - Varalakshmi Automobiles, Chirala","Bypass Road, Kothapeta, Vetapalem",Chirala,9.19167E+11,firming.tailing.equity,Andhra-Pradesh
"Tata Motors Cars Showroom - Varalakshmi Automobiles, Markapur","No 4/515, Railway Station Road",Prakasam,9.18879E+11,revision.desire.scaffold,Andhra-Pradesh
"Tata Motors Cars Showroom - Varalakshmi Automobiles, Chemudugunta","Plot No 39 & 40, NH 5, Kakuturu, Venkatachalam",Nellore,9.17045E+11,warmers.rainwater.reversed,Andhra-Pradesh
"Tata Motors Cars Showroom - Varalakshmi Automobiles, Sullurpet","NH 5, Keerthi Complex",Nellore,9.18879E+11,tender.plugged.blurs,Andhra-Pradesh
"Tata Motors Cars Showroom - Varalakshmi Automobiles, Kavali","No 19, Revenue Ward, Kothuru, Musunur, Sri Potti Sriramulu",Nellore,9.18879E+11,snore.argue.section,Andhra-Pradesh
"Tata Motors Cars Showroom - Tristar, Gajuwaka","Plot No 158/6, Haabia Business Park, Block B, Autonagar",Visakhapatnam,9.18879E+11,footpath.baroness.nerves,Andhra-Pradesh
"Tata Motors Cars Showroom - Siva Sankar Motors, Donddapatti","No 43/9/141, TSN Colony",Visakhapatnam,9.19619E+11,paddock.handle.carriage,Andhra-Pradesh
"Tata Motors Cars Showroom - Tristar Tata, Marripalem","No 38/13/54, NH 5 Road, Lakshmi Nagar",Visakhapatnam,9.17045E+11,mutual.rephrase.grocers,Andhra-Pradesh
"Tata Motors Cars Showroom - Jasper Industries Pvt Ltd, Maddilapalem",D No 54/11/9,Visakhapatnam,9.19167E+11,timer.ribs.fragment,Andhra-Pradesh
"Tata Motors Cars Showroom - Jasper Industries Pvt Ltd, Madhurawada","Flat No 102, Ground Floor, P Mallayapalem",Visakhapatnam,9.18292E+11,ship.minimums.plump,Andhra-Pradesh
"Tata Motors Cars Showroom - Tristar, Anakapalle","Mamma Complex, NH 5, Amal College Junction",Anakapalle,9.18879E+11,below.clashing.stick,Andhra-Pradesh
"Tata Motors Cars Showroom - Siva Sankar Motors, Pedapadu Road",Ground Floor,Srikakulam,9.18879E+11,revalue.outposts.tangible,Andhra-Pradesh
"Tata Motors Cars Showroom - Siva Sankar Motors, Rajam",Survey No 14,Rajam,9.19167E+11,hecklers.cashmere.answers,Andhra-Pradesh
"Tata Motors Cars Showroom - Siva Sankar Motors, Kakinada","Door No 2/1/42/2, Annamma Gati Center",East Godavari,9.18879E+11,cheesy.famed.telephone,Andhra-Pradesh
"Tata Motors Cars Showroom - Siva Sankar Motors, Rajahmundry","D No 110/4/7, NH 16",Rajahmundry,9.18291E+11,reworked.pulse.waddled,Andhra-Pradesh
"Tata Motors Cars Showroom - Siva Sankar Motors, Bandrulanka","Door No 1/107, Block 1, Main Road",Amalapuram,9.18291E+11,alerting.worried.relinquishing,Andhra-Pradesh
"Tata Motors Cars Showroom - Siva Sankar Motors, Tuni","No 18/23/5, S Annavaram Village & Post",Tuni,9.19167E+11,eagle.cornmeal.brawn,Andhra-Pradesh
"Tata Motors Cars Showroom - Jasper Industries, RK Puram","Door No 22/D/ 3/4, Canal Road",Eluru,9.18879E+11,mango.rock.radio,Andhra-Pradesh
"Tata Motors Cars Showroom - Jasper Industries, Undi Road",RK Complex,Bhimavaram,9.18879E+11,ranking.decoder.impulsive,Andhra-Pradesh
"Tata Motors Cars Showroom - Siva Sankar Motors, NCS Cinema Theatre Road",Ground Floor,Vizianagaram,9.18291E+11,scariest.beeline.wage,Andhra-Pradesh
"Tata Motors Cars Showroom - K Square Motors, Passighat",Ground Floor,East Siang,9.18879E+11,forklift.purchaser.utensil,Arunachal-Pradesh
"Tata Motors Cars Showroom - K Square Motors, Naharlagun",NH 415,Naharlagun,9.17045E+11,epoch.idealistic.ameliorated,Arunachal-Pradesh
"Tata Motors Cars Showroom - K Square Motors, Roing",Ground Floor,Roing,9.18879E+11,reverential.binder.booths,Arunachal-Pradesh
"Tata Motors Cars Showroom - Axom Cars, Guwahati","Ground Floor, Unique Avenuee, GS Road, Supermarket",Guwahati,9.19619E+11,stem.sized.provoking,Assam
"Tata Motors Cars Showroom - Kamakhya Motors, AT Road","Swastik Ayodhya Complex, Kamakhya Gate",Guwahati,9.17045E+11,broads.shadowed.shuttling,Assam
"Tata Motors Cars Showroom - Kamakhya Motors, Guwahati",Zoo Road,Guwahati,9.19167E+11,rooster.generally.gashes,Assam
"Tata Motors Cars Showroom - Bimal Cars, Basistha Chariali","Ground Floor, DN Tower, NH 37",Guwahati,9.17045E+11,yelled.spin.passages,Assam
"Tata Motors Cars Showroom - Bhagyashree Motors, Amingaon",Sila Mahekhaiti,Kamrup,9.18879E+11,agenda.thudding.film,Assam
"Tata Motors Cars Showroom - Bimal Cars, Lokhra","Ground Floor, NH 37",Kamrup,9.18291E+11,swatted.chess.habit,Assam
"Tata Motors Cars Showroom - Bimal Cars, Hajo",Panipara,Kamrup,9.19167E+11,robe.sandstorm.aliveness,Assam
"Tata Motors Cars Showroom - Bimal Cars, Kamrup",Palashbari,Kamrup,9.18292E+11,graphite.sunglasses.timbers,Assam
"Tata Motors Cars Showroom - Bhagyashree Motors, Simlaguri",Barpeta Road,Barpeta,9.18291E+11,reflexivity.solidity.taxable,Assam
"Tata Motors Cars Showroom - Bhagyashree Motors, Dhamdhama Road","Ground Floor, NH 31",Nalbari,9.17045E+11,unnervingly.stores.mistakenly,Assam
"Tata Motors Cars Showroom - Axom Cars Llp, Rangia","No 1, Nakul Road",Rangia,9.19167E+11,giddy.intolerable.spire,Assam
"Tata Motors Cars Showroom - Ashutosh Motors, Sensowa",Biroh Bebejia,Nagaon,9.17045E+11,welling.herein.showrooms,Assam
"Tata Motors Cars Showroom - Ashutosh Motors, Morigaon","Ward No 7, PWD Road",Morigaon,9.18879E+11,fictions.expensive.unheated,Assam
"Tata Motors Cars Showroom - Kamakhya Motors, Sonapur",Ground Floor,Sonapur,9.18291E+11,locksmith.foothold.retraced,Assam
"Tata Motors Cars Showroom - Ashutosh Motors, Borah Market",Ramakrishna Mission Road,Hojai,9.18291E+11,reprinted.condoning.scheduled,Assam
"Tata Motors Cars Showroom - Kamakhya Motors, Goalpara",ground Floor,Goalpara,9.18291E+11,righteously.woodblock.argue,Assam
"Tata Motors Cars Showroom - Axom Cars LLP, Dudhnoi","New Dudhnoi Part 2, Thekasu Part 1",Goalpara,9.18291E+11,waxing.pancreas.yeasts,Assam
"Tata Motors Cars Showroom - Bimal Cars, Dhubri",Matiabug,Dhubri,9.18879E+11,infuses.crucially.cheered,Assam
"Tata Motors Cars Showroom - Champak Automobiles Private Limited, Shamugaon",Ground Floor,Kokrajhar,9.19168E+11,ballerina.aided.stalemates,Assam
"Tata Motors Cars Showroom - Champak Automobiles Private Ltd, Bongaigaon",Ward No 05,Bongaigaon,9.19167E+11,playwright.lyrically.otters,Assam
"Tata Motors Cars Showroom - Ashutosh Motors, Holeswar","Udmari, Borjhar, Dekargaon",Tezpur,9.18291E+11,drive.skater.livelihood,Assam
"Tata Motors Cars Showroom - Subansiri Motors, NH 15",Ward No 3,Narayanpur,9.18291E+11,iniquity.toured.stalagmites,Assam
"Tata Motors Cars Showroom - Ashutosh Motors, Kalyanpur","Ground Floor, NH 15, Moral Gaon",Biswanath Chariali,9.18291E+11,tackling.river.pastures,Assam
"Tata Motors Cars Showroom - Kamakhya Motors, Udalguri","Ward No 1, BTR",Udalguri,9.19168E+11,supposed.neural.reappearing,Assam
"Tata Motors Cars Showroom - Kamakhya Motors, Punia",NH 52,Mangaldai,9.18291E+11,overload.soil.doorknob,Assam
"Tata Motors Cars Showroom - Pragati Motors, Pulibor","Ground Floor, AT Road",Jorhat,9.17045E+11,booklets.electrode.still,Assam
"Tata Motors Cars Showroom - Pragati Motors, AT Road","No 37, NH Bypass",Sivasagar,9.18291E+11,infuses.encounter.shipyards,Assam
"Tata Motors Cars Showroom - Subhangshu Motors, Moran","Ground Floor, Moranhat",Sivasagar,9.19168E+11,refrigerated.seamed.blending,Assam
"Tata Motors Cars Showroom - Pragati Motors, Tiniali","Ground Floor, GD Road",Golaghat,9.18291E+11,nephews.flashbacks.stitched,Assam
"Tata Motors Cars Showroom - Subhangshu Motors, Mohanaghat","Ground Floor, NH 37, Jhapara",Dibrugarh,9.17045E+11,look.anguishing.booklet,Assam
"Tata Motors Cars Showroom - Dhansri Auto Ventures, Hijuguri","Ground Floor, AT Road",Tinsukia,9.17045E+11,physiology.revamp.sidebars,Assam
"Tata Motors Cars Showroom - Dhansri Auto Ventures, Sadiya","Chapakhowa, Nizararpar",Tinsukia,9.18879E+11,toothaches.disputes.rebelled,Assam
"Tata Motors Cars Showroom - Dhansri Auto, Digboi",Golai No 1,Tinsukia,9.18291E+11,overdue.negates.strikingly,Assam
"Tata Motors Cars Showroom - Dhansri, Margherita","Ground Floor, Mission Road",Tinsukia,9.19167E+11,falling.supportively.yielded,Assam
"Tata Motors Cars Showroom - Subhangshu Motors, Kamalabari Road",Ground Floor,Duliajan,9.18291E+11,mouthpieces.homepage.revalue,Assam
"Tata Motors Cars Showroom - Subansiri Motors, Hatilung","Ground Floor, NH 15",North Lakhimpur,9.17045E+11,evaluations.blotted.greenery,Assam
"Tata Motors Cars Showroom - Subansiri Motors, Nalanipam",No 1 & 2,Dhemaji,9.18291E+11,dismantles.personas.abets,Assam
"Tata Motors Cars Showroom - Highway Wheels, Ramnagar","Ground Floor, NH 54",Silchar,9.17045E+11,selectively.kingpin.worms,Assam
"Tata Motors Cars Showroom - Highway Wheels, Hailakandi","Ground Floor, 6th Mile",Hailakandi,9.18291E+11,alight.likeliest.crowns,Assam
"Tata Motors Cars Showroom - Highway Wheels, Bhatgram","Silchar Road, Sarisha",Karimganj,9.18291E+11,continually.columnists.hesitant,Assam
"Tata Motors Cars Showroom - Shankar Motors, Gaushala","NH 30, Deedarganj",Patna,9.18879E+11,deflated.builder.cookbooks,Bihar
"Tata Motors Cars Showroom - Shankar Motors, Deedarganj",NH 30,Patna,9.17045E+11,shop.rehearsed.caused,Bihar
"Tata Motors Cars Showroom - Guinea Motors, Anand Vihar","Ground Floor, West Boring Canal Rd",Patna,9.17045E+11,keepers.acids.quietest,Bihar
"Tata Motors Cars Showroom - Shankar Motors, Bihta","NH 30, Ara Bihta Road",Patna,9.18879E+11,prenatally.backer.questionnaires,Bihar
"Tata Motors Cars Showroom - Ananya Auto Agency, Danapur Khagual Road",Ground Floor,Patna,9.17045E+11,smelter.openly.organ,Bihar
"Tata Motors Cars Showroom - Ananya Auto Agency, Golambar",Ground Floor,Buxar,9.18291E+11,morale.resembling.dedicates,Bihar
"Tata Motors Cars Showroom - Ananya Auto Agency, Chandwa",New Police Line,Arrah,9.18291E+11,flies.firewood.hindered,Bihar
"Tata Motors Cars Showroom - Ananya Auto Agency, Bakhtiyarpur Road","Chowk No 17, NH 80",Biharsharif,9.18291E+11,copies.crabmeat.reefs,Bihar
"Tata Motors Cars Showroom - Ganga Vehicles, Barh",Ground Floor,Barh,9.18291E+11,turntable.skyrocket.galleries,Bihar
"Tata Motors Cars Showroom - Ganga Vehicles, Ramjanpur",Kazichak Chowk,Begusarai,9.17045E+11,foal.guideline.allergy,Bihar
"Tata Motors Cars Showroom - Magadh Motors, Ahiyapur",NH 139,Arwal,9.18291E+11,reasoned.potholed.exhalations,Bihar
"Tata Motors Cars Showroom - Magadh Motors, Kanoudi",Gaya Patna Road,Jehanabad,9.18291E+11,stuffy.warping.typically,Bihar
"Tata Motors Cars Showroom - Kusumnath Automobiles, Nawada",Ground Floor,Nawada,9.18291E+11,commander.intrigued.putter,Bihar
"Tata Motors Cars Showroom - Ganga Vehicles, Sheikhpura","Dallu More, Bhojdi Road",Sheikhpura,9.18291E+11,responses.slamming.plants,Bihar
"Tata Motors Cars Showroom - Ananya Auto Agency, Kumharar","Ground Floor, Kumhrar Kankarbagh Main Road",Patna,9.17045E+11,down.contracting.broads,Bihar
"Tata Motors Cars Showroom - Shankar Motors, Kabaiya Thana",Naya Bazar,Lakhisarai,9.18291E+11,share.historic.comforted,Bihar
"Tata Motors Cars Showroom - Shankar Motors, Sabour Road",Ground Floor,Bhagalpur,9.17045E+11,bookmark.deluded.elect,Bihar
"Tata Motors Cars Showroom - Shankar Motors, Katoria Road",Ground Floor,Banka,9.18291E+11,waters.overdrive.destroyer,Bihar
"Tata Motors Cars Showroom - Magadh Motors, Gaya Bodhgaya Road","Ground Floor, NH 83",Gaya,9.17045E+11,appoints.president.scrolled,Bihar
"Tata Motors Cars Showroom - Magadh Motors, Sherghati","Imamganj More, Neta Ji Market",Gaya,9.19168E+11,leaky.bill.rating,Bihar
"Tata Motors Cars Showroom - Urmila Motors, Pachrukhi","Ground Floor, NH 85, Jasauli",Siwan,9.17045E+11,spaniel.retrial.trendiness,Bihar
"Tata Motors Cars Showroom - Urmila Motors, Chapra",Bikhari Thakur Chowk,Chhapra,9.18291E+11,scorched.dangerously.inspects,Bihar
"Tata Motors Cars Showroom - Urmila Motors, Manjhagarh","Bhojpurwa, Gopalganj",Gopalganj,9.18291E+11,unpopulated.meowing.decimation,Bihar
"Tata Motors Cars Showroom - Yashraj Motors, Bibi Ganj","Ground Floor, NH 28",Muzaffarpur,9.17045E+11,mainframe.timeless.valid,Bihar
"Tata Motors Cars Showroom - Yashraj Motors, Bariyarpur Chowk",Bypass Road,Sitamarhi,9.18291E+11,paid.windpipe.tolls,Bihar
"Tata Motors Cars Showroom - Ideal Dealer PV, Sheohar","Ground Floor, SH 48",Sheohar,9.18291E+11,repentance.view.stump,Bihar
"Tata Motors Cars Showroom - Ananya Auto Agency, NH 22",NH 22,Hajipur,9.18291E+11,shadowed.cowboy.trip,Bihar
"Tata Motors Cars Showroom - Ideal Dealer PV, Muzaffarpur","Ground Floor, NH 22, Kurhani, Turki",Muzaffarpur,9.1888E+11,upholding.slide.mattress,Bihar
"Tata Motors Cars Showroom - Nitiraj Motors, Bagaha","Sri Ram Building, Bagaha 1",Bagaha,9.18291E+11,chief.fetchingly.unseat,Bihar
"Tata Motors Cars Showroom - Nitiraj Motors, Chatauni Chowk","Ground Floor, NH 28, Bettiah Road",Motihari,9.17045E+11,punctual.plant.liberty,Bihar
"Tata Motors Cars Showroom - Nitiraj Motors, Bettiah","Ground Floor, NH 727, Bettiah Motihari Road",Bettiah,9.18291E+11,rushing.microfilm.transpose,Bihar
"Tata Motors Cars Showroom - Yashraj Motors, Darbangha",Ground Floor,Darbangha,9.19619E+11,denoting.liver.clerics,Bihar
"Tata Motors Cars Showroom - Yashraj Motors, Madhubani","Ground Floor, Ram Chowk",Madhubani,9.19619E+11,dismayed.getting.coiling,Bihar
"Tata Motors Cars Showroom - Yashraj Motors, Jhanjharpur",Madhepur Main Road,Jhanjharpur,9.18291E+11,daffodils.waged.mats,Bihar
"Tata Motors Cars Showroom - Ideal Dealer PV, Samastipur",Ground Floor,Samastipur,9.18291E+11,deform.symphonic.copper,Bihar
"Tata Motors Cars Showroom - Ideal Dealer PV, Dalsinghsarai","Ground Floor, NH 28, Pagra Chowk",Samastipur,9.18291E+11,vertical.elusiveness.selfless,Bihar
"Tata Motors Cars Showroom - Shankar Motors, Jajhat Sabaila",Ground Floor,Madhepura,9.19168E+11,fenced.provider.cortex,Bihar
"Tata Motors Cars Showroom - Shankar Motors, Tiwari Tola",NH 107,Saharsa,9.18291E+11,basher.boasted.motive,Bihar
"Tata Motors Cars Showroom - Shankar Motors, Shivpuri","BMP Camp, Katihar Purnia Road",Katihar,9.18291E+11,estimate.slacker.incurring,Bihar
"Tata Motors Cars Showroom - Shankar Motors, Rampur Chowk",Raniganj Road,Forbesganj,9.18291E+11,layers.dimension.poems,Bihar
"Tata Motors Cars Showroom - Shankar Motors, Damka","NH 31, Kishanganj Road",Purnia,9.17045E+11,wingman.wondrous.view,Bihar
"Tata Motors Cars Showroom - Nitiraj Motors Pvt Ltd, Chakia","Main Road, NH 28",East Champaran,9.19168E+11,receptions.hustling.yelling,Bihar
"Tata Motors Cars Showroom - Shankar Motors, Rampur",NH 31,Kishanganj,9.18291E+11,evasively.culprits.sponged,Bihar
"Tata Motors Cars Showroom - Berkeley Tata, Chandigarh","Plot No 42, Industrial Area",Chandigarh,9.19167E+11,clustered.grapevine.rested,Chandigarh
"Tata Motors Cars Showroom - Berkeley, Industrial Area Phase 1","Plot No 5, Phase 1",Chandigarh,9.19167E+11,proclaims.mason.mouse,Chandigarh
"Tata Motors Cars Showroom - PPS Motors, Phase I, Chandigarh","Plot No 52, Phase 1",Chandigarh,9.18291E+11,repeat.contain.bookings,Chandigarh
"Tata Motors Cars Showroom - Sairam Automobiles, Krishna Nagar","Ground Floor, GE Road, Supela, Durg",Bhilai,9.17045E+11,sleepers.myths.evoked,Chhattisgarh
"Tata Motors Cars Showroom - Sairam Automobiles, Sivani",Jhalmala Road,Balod,9.18291E+11,faintest.radish.corked,Chhattisgarh
"Tata Motors Cars Showroom - Sairam Automobiles, Bemetara","Nawagarh Chowk, Pikri",Bemetara,9.19168E+11,flight.vocalist.wove,Chhattisgarh
"Tata Motors Cars Showroom - Sairam Automobiles, Manki","Ground Floor, GE Road",Rajnandgaon,9.18291E+11,exorbitant.worthier.unmotivated,Chhattisgarh
"Tata Motors Cars Showroom - Sairam Automobiles, Joratal",Bilaspur Road,Kawardha,9.18291E+11,lingering.pile.combos,Chhattisgarh
"Tata Motors Cars Showroom - Bhasin Motors, Bhatagaon","Khasra No 1458/3, 1463/1, Ring Road No 01",Raipur,9.18879E+11,stray.livid.subsets,Chhattisgarh
"Tata Motors Cars Showroom - National Garage, Mowa","Vidhansabha Road, LIC Colony",Raipur,9.17045E+11,performed.peach.mergers,Chhattisgarh
"Tata Motors Cars Showroom - Bhasin Motors, Chhokra Nala Labhandi","Ground Floor, NH 6, Ravigram",Raipur,9.17045E+11,hillsides.snares.stalemate,Chhattisgarh
"Tata Motors Cars Showroom - Mahadeva Vehicles Pvt Ltd, Raipur",Dhamtari Road,Raipur,9.19167E+11,fuels.bundles.unguarded,Chhattisgarh
"Tata Motors Cars Showroom - National Garage, Tatibandh","Ground Floor, GE Road",Raipur,9.17045E+11,pursue.topped.coolest,Chhattisgarh
"Tata Motors Cars Showroom - Mahadeva Vehicles Pvt Ltd, Tilda",Tilda Kharora Road,Tilda,9.18291E+11,recoding.reproachful.voiced,Chhattisgarh
"Tata Motors Cars Showroom - Bhasin Motors Bhatapara, Vrindavn Colony",Tarenga Road,Bhatapara,9.18291E+11,beginning.wasps.planting,Chhattisgarh
"Tata Motors Cars Showroom - Bhasin Motors, Bamanmudi",Lawan Road,Baloda Bazar,9.18291E+11,vultures.conjecture.ending,Chhattisgarh
"Tata Motors Cars Showroom - Mahadeva Vehicles Pvt Ltd, Kasdol","Ward No 5, Ring Road",Kasdol,9.19619E+11,reciprocal.meanest.baselines,Chhattisgarh
"Tata Motors Cars Showroom - Bhasin Motors, Raipur Road",Ground Floor,Mahasamund,9.18291E+11,accession.sparrow.newsreels,Chhattisgarh
"Tata Motors Cars Showroom - Mahadeva Vehicles, Pithora","Ward No 5, Baar Chowk",Pithora,9.18879E+11,variety.clattered.recoup,Chhattisgarh
"Tata Motors Cars Showroom - Bhasin Motors, Saraipali","Ground Floor, Main Road",Saraipali,9.18291E+11,mutterings.adaptations.yearbook,Chhattisgarh
"Tata Motors Cars Showroom - National Garage, Sorid Nagar",Bastar Road,Dhamtari,9.18291E+11,tomorrow.marketing.glides,Chhattisgarh
"Tata Motors Cars Showroom - National Garage, Rajim",Kurra Nawapara,Raipur,9.18291E+11,headrests.revising.traders,Chhattisgarh
"Tata Motors Cars Showroom - Mahadeva Vehicles Pvt Ltd, Gariyabandh",Ward No 15,Gariyabandh,9.19619E+11,leeway.vacating.initiators,Chhattisgarh
"Tata Motors Cars Showroom - Jagdalpur Motors, Geedam Road","Pandripani, NH 16",Jagdalpur,9.17045E+11,greet.cabaret.enables,Chhattisgarh
"Tata Motors Cars Showroom - Jagdalpur Motors, Mardapal Road","Markam Complex, Main Road",Kondagaon,9.18291E+11,venues.support.named,Chhattisgarh
"Tata Motors Cars Showroom - National Garage, Tikrapara",Main Road,Kanker,9.18291E+11,radiating.expecting.army,Chhattisgarh
"Tata Motors Cars Showroom - Jagdalpur Motors, Bade Bacheli",Ground Floor,Dantewada,9.18291E+11,piggy.swinging.expend,Chhattisgarh
"Tata Motors Cars Showroom - J D Autonation, Bilaspur",Link Road,Bilaspur,9.19111E+11,irritated.ants.presses,Chhattisgarh
"Tata Motors Cars Showroom - JD Autonation, Parsada","Ground Floor, NH 130, Raipur Road",Bilaspur,9.17045E+11,brush.blacksmiths.integrate,Chhattisgarh
"Tata Motors Cars Showroom - J D Autonation, Bilaspur Road",Ground Floor,Mungeli,9.18291E+11,coached.tweeted.streaking,Chhattisgarh
"Tata Motors Cars Showroom - Shivam Automotive, Katghora",Jenjra Bypass Chowk,Korba,9.18291E+11,transcend.interdependency.mush,Chhattisgarh
"Tata Motors Cars Showroom - J D Autonation, Champa Road",Ground Floor,Naila Janjgir,9.18291E+11,congest.periscopes.hails,Chhattisgarh
"Tata Motors Cars Showroom - Shivam Automotive, TP Nagar","Plot No 392, Vijaya Talkies Road",Korba,9.17045E+11,thorax.flattery.cork,Chhattisgarh
"Tata Motors Cars Showroom - Jd Autonation, Sakti","Ward No 14, Chmpa Road",Sakti,9.18291E+11,processes.groaning.beads,Chhattisgarh
"Tata Motors Cars Showroom - Shri Salasar Automotives Private Limited, Bhagwanpur",Jindal Road,Raigarh,9.19168E+11,genetics.lawn.disarmed,Chhattisgarh
"Tata Motors Cars Showroom - Sunil Auto Cars, Pathalgaon",Palidih,Jashpur,9.18879E+11,improves.roadways.slope,Chhattisgarh
"Tata Motors Cars Showroom - SS Cars, Jashpur",Ground Floor,Jashpur,9.19168E+11,bunker.interpreter.aiding,Chhattisgarh
"Tata Motors Cars Showroom - SS Cars, Raigarh",Main Road,Raigarh,9.18292E+11,unfinished.flushing.churn,Chhattisgarh
"Tata Motors Cars Showroom - Shri Salasarautomotives Private Limited, Raigarh Road",Ground Floor,Raigarh,9.18291E+11,pushes.satin.nearing,Chhattisgarh
"Tata Motors Cars Showroom - Sunil Auto Cars, MG Road",1st Floor,Ambikapur,9.17045E+11,nuisances.studied.shocking,Chhattisgarh
"Tata Motors Cars Showroom - Sunil Auto Cars, Ramanujganj Road",Ground Floor,Balrampur,9.18291E+11,voting.tong.overreacted,Chhattisgarh
"Tata Motors Cars Showroom - Sunil Auto Cars, Surajpur","Baikunthpur Road, Chandarpur",Surguja,9.18291E+11,testifying.modifying.leading,Chhattisgarh
"Tata Motors Cars Showroom - Sunil Auto Cars, Manendragarh Road",Ground Floor,Baikunthpur,9.18291E+11,supportively.inhale.snakeskin,Chhattisgarh
"Tata Motors Cars Showroom - Sunil Auto Cars, Jhagrakhand Road",Ground Floor,Manendragarh,9.18291E+11,drainage.desiccation.forgives,Chhattisgarh
"Tata Motors Cars Showroom - Pramukh Tata, Silvassa","Survey No 14/1/1, Showroom 1, Naroli Road",Silvassa,9.19167E+11,stanza.dismissed.wobbly,Dadra-And-Nagar-Haveli
"Tata Motors Cars Showroom - Autovikas, Moti Nagar",No 26/3/4,New Delhi,9.17045E+11,plays.owls.unloads,Delhi
"Tata Motors Cars Showroom - Autovikas, Dwarka, Sector 5","No K1, Rajapuri",New Delhi,9.17045E+11,shred.pods.talkers,Delhi
"Tata Motors Cars Showroom - Autovikas, Wazirpur","Prop A/95/5, Wazirpur Industrial Area",New Delhi,9.17045E+11,sunk.proposals.panic,Delhi
"Tata Motors Cars Showroom - Autovikas Sales & Service Pvt Ltd, Dwarka, Sector 20",Plot No 62,New Delhi,9.19619E+11,worms.tools.voucher,Delhi
"Tata Motors Cars Showroom - Treo, Safdarjung Enclave","A 2/14, Lower Ground Floor, Main Africa Avenue Rd",New Delhi,9.17045E+11,sedated.conqueror.nooks,Delhi
"Tata Motors Cars Showroom - Treo, Okhla Industrial Area","No A231, Phase 1",New Delhi,9.17045E+11,dividers.passively.flows,Delhi
"Tata Motors Cars Showroom - Sagar Motors, Dilshad Garden",No ZB/43 487 & ZB/44 487,New Delhi,9.17045E+11,engaging.stammer.ambition,Delhi
"Tata Motors Cars Showroom - Sagar Motors, Patparganj",Plot No 83,New Delhi,9.17045E+11,roadblock.grace.outcasts,Delhi
"Tata Motors Cars Showroom - SAB Motors, Lajpat Nagar","Plot No 56, Ground Floor & Basement, Ring Road",New Delhi,9.17045E+11,season.contained.candidate,Delhi
"Tata Motors Cars Showroom - SAB Motors, Mathura Road","Mohan Cooperative Industrial Estate, No B1/F8",New Delhi,9.17045E+11,sunset.valuables.lived,Delhi
"Tata Motors Cars Showroom - SAB Motors, Gokulpuri","HCMR Complex, Main Wazirabad Road",New Delhi,9.19619E+11,gradually.plotter.tells,Delhi
"Tata Motors Cars Showroom - Arya Motors, Dariya Ganj","No 3535, Kalan Mahal, Netaji Subhash Marg",New Delhi,9.17045E+11,look.proves.universal,Delhi
"Tata Motors Cars Showroom - Cherish Cars, Rohini, Sector 10","No G1, No 3B1, Jackson Crown Heights",New Delhi,9.17039E+11,resides.walked.shoelaces,Delhi
"Tata Motors Cars Showroom - Malwa Automobiles, Rohini","No A1/16, Prashant Vihar",New Delhi,9.17045E+11,footballers.roses.stormed,Delhi
"Tata Motors Cars Showroom - Zedex Mobility LLP, Karol Bagh","No 7/56, DB Gupta Road",New Delhi,9.19619E+11,stretcher.quality.violin,Delhi
"Tata Motors Cars Showroom - DPS Cars, Kashmere Gate","Property No 12, Ground Floor",New Delhi,9.18692E+11,outbursts.kept.scrubbing,Delhi
"Tata Motors Cars Showroom - Zedex Mobility LLP, Gujranwala Town","No B 158, Model Town",New Delhi,9.18879E+11,uplifting.jump.encounter,Delhi
"Tata Motors Cars Showroom - Go Auto Pvt Ltd, Saket","Shop No 110, DSC, Saket DLF Mall",New Delhi,9.18879E+11,unhelpful.blip.path,Delhi
"Tata Motors Cars Showroom - Sparsh, Narela","Khasra No 42/12, Main Safiabad Road",New Delhi,9.19619E+11,taxed.test.quoted,Delhi
"Tata Motors Cars Showroom - Sparsh, Najafgarh","Plot No 8 to 11, Main Najafgarh Road",New Delhi,9.17045E+11,ripen.prayers.hill,Delhi
"Tata Motors Cars Showroom - Sparsh, Palam","RZ A70, Garg Plaza, Dabri Palam Road, Dashrathpuri",New Delhi,9.17045E+11,dynasties.recur.ghosts,Delhi
"Tata Motors Cars Showroom - Go Auto Pvt Ltd, Nehru Place","GF, 6, Devika Tower, Lala Lajpat Rai Road",New Delhi,9.18879E+11,spotty.crate.matchbox,Delhi
"Tata Motors Cars Showroom - Sparsh, Karol Bagh","Building No 44, Ground Floor, Rani Jhansi Road, MM Road",New Delhi,9.19619E+11,books.tributes.hairspray,Delhi
"Tata Motors Cars Showroom - Delight Motors, Janak Puri","No B/1/629, Najafgarh Road",New Delhi,9.19168E+11,sued.unwound.tube,Delhi
"Tata Motors Cars Showroom - Truenorth Automobiles, Mayapuri Industrial Area","A1/1, Phase 1",New Delhi,9.17045E+11,fitter.lists.flattens,Delhi
"Tata Motors Cars Showroom - Truenorth Automobiles, Peeragarhi","RR/24, Ground Floor, Main Rohtak Rd, Mianwali Nagar",New Delhi,9.19167E+11,lush.decency.stiletto,Delhi
"Tata Motors Cars Showroom - DPS Motors, Preet Vihar","Plot No 75, New Rajdhani Enclave, Vikas Marg",New Delhi,9.17046E+11,mailer.spinners.brownish,Delhi
"Tata Motors Cars Showroom - Princely Cars Pvt Ltd, Caculo Enclave","House No 23/110, Building A2, St Inez",Panaji,9.19167E+11,beast.monorail.udder,Goa
"Tata Motors Cars Showroom - Princely Cars, Ponda EMO","Shop No 3/6, Aguiar Building",Ponda,9.18291E+11,corals.youngest.blown,Goa
"Tata Motors Cars Showroom - Durga Motors, Bicholim",Near Chatrapati Shivaji Ground,Bicholim,9.18291E+11,helm.appear.trickled,Goa
"Tata Motors Cars Showroom - Durga Motors, Porvorim","Plot No 67/10, H No 416/13, Porvorim",Porvorim,9.17045E+11,paradise.oblige.disposing,Goa
"Tata Motors Cars Showroom - SP Cars, Margao","Shop No 5, Cross Roads, Arlem Junction, Fatorda",Margao,9.18291E+11,slab.repeats.ditching,Goa
"Tata Motors Cars Showroom - SP Cars, Nuvem","Survey No 229/1, H No 20/D/A, Sapana Symphony",South Goa,9.18292E+11,offerings.grabs.reserving,Goa
"Tata Motors Cars Showroom - Parin Motors, Gondal Highway","Survey No 149, Plot No 2, NH 8B",Rajkot,9.17506E+11,buzz.thrashed.vines,Gujarat
"Tata Motors Cars Showroom - Jai Ganesh, 150ft Ring Road",RK Empire,Rajkot,9.19619E+11,remember.visitors.upsetting,Gujarat
"Tata Motors Cars Showroom - Parin Motors, Rajkot","The Spire, 150 Ft Ring Road, Dharamnagar Society",Rajkot,9.19167E+11,passes.encroach.weeded,Gujarat
"Tata Motors Cars Showroom - Parin Motors, Jasdan",Ground Floor,Jasdan,9.19167E+11,eased.candy.paddock,Gujarat
"Tata Motors Cars Showroom - Jai Ganesh, Gondhal",Ground Floor,Gondal,9.19167E+11,patting.bonfires.prune,Gujarat
"Tata Motors Cars Showroom - Bhagvati Autolink, Jetpur Junagadh Highway",Ground Floor,Jetpur,9.18879E+11,tall.icebergs.triathlon,Gujarat
"Tata Motors Cars Showroom - Bhagvati Autolink, Porbandar","Plot No 284, GIDC, National Highway 8B",Porbandar,9.19167E+11,ingratitude.boarded.movement,Gujarat
"Tata Motors Cars Showroom - Bhagvati Autolink, Jamnagar",RS No 383/B & Paiki,Jamnagar,9.17506E+11,solicitor.sampling.agenda,Gujarat
"Tata Motors Cars Showroom - Bhagvati Autolink, Khambhalia",Ground Floor,Jamnagar,9.19167E+11,crystal.lamppost.sediment,Gujarat
"Tata Motors Cars Showroom - Bhagvati Autolink, Dolatpara","Plot No 7, 8 and 15, Rajkot Highway",Junagadh,9.17506E+11,spaceship.bluff.disbanded,Gujarat
"Tata Motors Cars Showroom - Bhagvati Autolink, Veraval Junagadh Highway",Ground Floor,Veraval,9.18879E+11,nozzle.less.departure,Gujarat
"Tata Motors Cars Showroom - Infinity Vehicles Pvt Ltd, Surendra Nagar",Wadhavan Road,Surendra Nagar,9.18879E+11,brands.slurred.ooze,Gujarat
"Tata Motors Cars Showroom - Infinity, Limbdi","Shop No 108, Metro Mall, Limdi Ahmedabad Highway, NH 8",Limbdi,9.1888E+11,famines.soundest.reprisal,Gujarat
"Tata Motors Cars Showroom - Jai Ganesh Auto, Morbi","Revenue Survey No 241/1P, Morbi Rajkot Highway",Morbi,9.19619E+11,dealership.breathless.skinfold,Gujarat
"Tata Motors Cars Showroom - Rajarshi Tata, Desainagar",Shanti Prastha,Bhavnagar,9.17045E+11,majoring.feels.reason,Gujarat
"Tata Motors Cars Showroom - Rajarshi Tata, Mahuva","Mahuva Bypass Road, Rajula Highway",Mahuva,9.18879E+11,regenerated.dimples.picture,Gujarat
"Tata Motors Cars Showroom - Rajarshi Tata, Paliyad Road",Arya Plaza,Botad,9.18879E+11,acids.burying.scraper,Gujarat
"Tata Motors Cars Showroom - Jai Ganesh, Rajula",Jafrabad Road,Amreli,9.19167E+11,tribal.nectarine.unprovable,Gujarat
"Tata Motors Cars Showroom - Jai Ganesh Auto Hub, Station Road",Ground Floor,Amreli,9.19167E+11,ebbs.mending.intangible,Gujarat
"Tata Motors Cars Showroom - Cargo, Bhuj","Plot No 92 to 95, Survey No 167/1/2, Sukhpar Road",Bhuj,9.18879E+11,maddest.flits.woodland,Gujarat
"Tata Motors Cars Showroom - Cargo, Rapar",Ground Floor,Kachchh,9.19167E+11,restrains.sedate.twirls,Gujarat
"Tata Motors Cars Showroom - Cargo, Gandhidham",NH 8A,Gandhidham,9.17045E+11,penned.searches.ivory,Gujarat
"Tata Motors Cars Showroom - Cargo Motors, Mundra","Shop No 7, Ground Floor, Plot No 3 & 4, Sy No 181/1, Mundra Bhuj Rd",Kachchh,9.18879E+11,ember.woodland.soldierly,Gujarat
"Tata Motors Cars Showroom - Cargo, Mandvi",Ground Floor,Kachchh,9.19167E+11,readable.manipulates.limping,Gujarat
"Tata Motors Cars Showroom - Progressive Cars Pvt Ltd, Ashram Road","4 & 5, Ground Floor, Videocon Arizona",Ahmedabad,9.18291E+11,pokes.makeup.smirks,Gujarat
"Tata Motors Cars Showroom - Cargo Motors Ahmedabad Private Limited, Maninagar","No G2, The Arena, Eka Club, Kankaria Lake, Kankaria",Ahmedabad,9.18291E+11,undertone.floating.bashed,Gujarat
"Tata Motors Cars Showroom - Progressive Cars, Chandkheda","2, 3 & 4, Setu Scarlet Complex, Visat Gandhinagar Highway",Ahmedabad,9.19167E+11,brimmed.nanny.headset,Gujarat
"Tata Motors Cars Showroom - Riya Autolink, Ambavadi","Ground Floor, Sanoma Plaza, Panchvati Cross Road",Ahmedabad,9.18291E+11,regarding.wobbles.copying,Gujarat
"Tata Motors Cars Showroom - Riya Autolink, Vijay Cross Road","Shop No A1 to A3, Ground Floor, The Link",Ahmedabad,9.18291E+11,roadways.blanks.contemplate,Gujarat
"Tata Motors Cars Showroom - Progressive Cars, SG Highway","No G9, Shapath 5",Ahmedabad,9.17045E+11,punctual.emphasis.pills,Gujarat
"Tata Motors Cars Showroom - Infinity Vehicles Pvt Ltd, Jivraj Park",132 Feet Ring Road,Ahmedabad,9.18292E+11,backyards.agreeing.doted,Gujarat
"Tata Motors Cars Showroom - Cargo, Thaltej","Shop No 2, Sumel 2, Sarkhej Gandhinagar Highway",Ahmedabad,9.17045E+11,shameless.scars.slyly,Gujarat
"Tata Motors Cars Showroom - Riya Autolink, Iscon Bopal Road",Ground Floor,Ahmedabad,9.18292E+11,maddening.entitle.collected,Gujarat
"Tata Motors Cars Showroom - Riya Autolink, Gota","Ground Floor, SG Business Hub, SG Road",Ahmedabad,9.18291E+11,boomer.width.provider,Gujarat
"Tata Motors Cars Showroom - Harsolia Brothers, Sector 28","Plot No 301, GIDC",Gandhinagar,9.17045E+11,exotic.hillsides.inserting,Gujarat
"Tata Motors Cars Showroom - Karnavati Motors, Sanand",Gibpura Sanand Road,Sanand,9.18879E+11,flute.fattening.trips,Gujarat
"Tata Motors Cars Showroom - Riya Autolink, Viramgam",Viramgam Road,Viramgam,9.19619E+11,grunt.assist.rare,Gujarat
"Tata Motors Cars Showroom - Riya Autolink, Bavla","Ground Floor, Business Square Complex",Ahmedabad,9.19167E+11,ticking.factored.pesky,Gujarat
"Tata Motors Cars Showroom - Karnavati Motors, Naroda","No 122/1/2, Plot No 683, NH 8",Ahmedabad,9.17045E+11,catching.tested.eyeliner,Gujarat
"Tata Motors Cars Showroom - Karnavati Motors, Vastral","GF/01, Rashmi Growth Hub, SP Ring Road Circle, Odhav",Ahmedabad,9.19167E+11,summaries.muffin.dragging,Gujarat
Tata Motors Cars Showroom - Progressive Cars,NH 8,Ahmedabad,9.19688E+11,vies.unfolds.lime,Gujarat
"Tata Motors Cars Showroom - Falcon Motors, Mevad","Plot No 176, Highway Road",Mehsana,9.17506E+11,throat.buns.bulky,Gujarat
"Tata Motors Cars Showroom - Falcon Motors, Kadi",Kadi Chhatral Road,Kadi,9.19167E+11,forest.intolerably.abacus,Gujarat
"Tata Motors Cars Showroom - Harsolia Brothers, Kalol",Royal Wheels,Gandhinagar,9.18291E+11,drops.refrained.edges,Gujarat
"Tata Motors Cars Showroom - Harsolia Brothers, Gandhinagar Highway Road",Mangal Murti Complex,Mansa,9.18879E+11,flawless.lifters.grunge,Gujarat
"Tata Motors Cars Showroom - Falcon, Vijapur",Himmatnagar Road,Mehsana,9.19167E+11,forest.intolerably.abacus,Gujarat
"Tata Motors Cars Showroom - SP Cars, Himatnagar","Plot No 1 & 8, GIDC Estate",Himmatnagar,9.17506E+11,barrage.occults.recurrences,Gujarat
"Tata Motors Cars Showroom - SP Cars, Idar",Amabaji Highway,Idar,9.19619E+11,mascara.clippers.sweater,Gujarat
"Tata Motors Cars Showroom - Falcon Motors, Unjha Siddhpur Road",S9 Complex,Unjha,9.19167E+11,gilding.compelled.index,Gujarat
"Tata Motors Cars Showroom - SP Cars, Patan","Plot No 36 & 37, Surbhi Tenament, Unjha Patan Road",Patan,9.19168E+11,waged.droplet.wasps,Gujarat
"Tata Motors Cars Showroom - Falcon Motors, Visnagar",Dwarkesh Complex,Visnagar,9.19167E+11,porch.relaxed.torso,Gujarat
"Tata Motors Cars Showroom - Gajanand Motors, Banaskantha","Ground Floor, Abu Highway",Palanpur,9.17506E+11,dreamer.blatantly.comical,Gujarat
"Tata Motors Cars Showroom - SP Cars, Radhanpur","No 104, Swagat Plaza",Patan,9.19167E+11,euphoric.briefer.incorrect,Gujarat
"Tata Motors Cars Showroom - Gajanand Motors, Deesa Palanpur Highway",Akhol Char Rasta,Deesa,9.18879E+11,hobby.recap.painters,Gujarat
"Tata Motors Cars Showroom - Gajanand, Tharad",Ground Floor,Banaskantha,9.19167E+11,dogfight.downwardly.assonance,Gujarat
"Tata Motors Cars Showroom - Progressive Cars, College Road",Ground Floor,Nadiad,9.18879E+11,bars.brew.advances,Gujarat
"Tata Motors Cars Showroom - Progressive Cars, Kapadvanj","No 3/4, Ground Floor, Modasa Road",Kheda,9.18879E+11,jobs.winters.bleaker,Gujarat
"Tata Motors Cars Showroom - Progressive Cars, Gamdi","No 8, NH 8, Chikhodara Crossing",Anand,9.17045E+11,junction.optimists.inefficient,Gujarat
"Tata Motors Cars Showroom - Progressive Cars, Vallabh Vidyanagar","Shop No 4 to 6, Svayam Sapphire, Anand Sojitra Road",Anand,9.1962E+11,farmed.oiled.coverings,Gujarat
"Tata Motors Cars Showroom - Progressive Cars, Petlad","Shop No 11 & 12, Tanmay Plaza Complex, Dharmaj Road",Anand,9.18291E+11,intolerable.distributor.impressing,Gujarat
"Tata Motors Cars Showroom - Progressive Cars, Borsad","GF 26, Shree Balaji Avenue Complex",Borsad,9.19167E+11,left.districts.dean,Gujarat
"Tata Motors Cars Showroom - Parth Autocars, Vavdi Buzarg","Plot no 1 and 13, Godhra Dahod Highway Road",Godhra,9.17045E+11,puppy.fluctuate.offstage,Gujarat
"Tata Motors Cars Showroom - Parth Autocars, Old Indore Road",Ground Floor,Dahod,9.19167E+11,rents.stick.reinvest,Gujarat
"Tata Motors Cars Showroom - Parth Autocars, Lunawada","4, Kosia Naka",Panch Mahals,9.19167E+11,paprika.windowpanes.persuading,Gujarat
"Tata Motors Cars Showroom - Parth Autocars, Vavdi Buzarg","A/8M, Asian Green Shopping Centre",Halol,9.19167E+11,forest.intolerably.abacus,Gujarat
"Tata Motors Cars Showroom - SP Vehicles, Fatehganj","No 13, Plot No 177, Paiki TP, Chhani Road",Vadodara,9.17506E+11,flap.bonfires.finer,Gujarat
"Tata Motors Cars Showroom - SP Vehicles, Makarpura","No C/1, 2 & 3, Ground Floor, Joyous Hubtown",Vadodara,9.19167E+11,shelved.upward.warm,Gujarat
"Tata Motors Cars Showroom - SP Vehicles, Munj Mahuda","F/11, Shayona Heights, Sahajanand Kutir Lane",Vadodara,9.19167E+11,hunt.dots.cashiers,Gujarat
"Tata Motors Cars Showroom - SP Vehicles, Waghodia","Shop No 11 to 13, Ground Floor, Sidhheshwar Plaza",Vadodara,9.1962E+11,soup.exulted.indicates,Gujarat
"Tata Motors Cars Showroom - SP Vehicles, Bodeli","Shop No 1 to 3, Samar Icon",Vadodara,9.19167E+11,tender.blown.scorched,Gujarat
"Tata Motors Cars Showroom - ABC Auto Link, Ranoli","No 1401, GIDC",Vadodara,9.17506E+11,hound.glitter.disgraced,Gujarat
"Tata Motors Cars Showroom - Shraddha Motors, Vadadla Patia","RS No 245, NH 8",Bharuch,9.17045E+11,levels.exonerate.pressing,Gujarat
"Tata Motors Cars Showroom - Shraddha Motors, Gadkhol Patia",Sahjanand Complex,Ankleshwar,9.18879E+11,niece.racer.refinishing,Gujarat
"Tata Motors Cars Showroom - Shraddha Motors, Rajpipla",Vadia,Rajpipla,9.19167E+11,poetic.gasping.ditching,Gujarat
"Tata Motors Cars Showroom - Shreeji Automart, Kim","Plot No 1/A, Blk No 457, High Bond Est",Kim,9.19619E+11,taunts.vast.dresses,Gujarat
"Tata Motors Cars Showroom - Pramukh Tata, Udhna Magdalla Road","Plot No 409/27A, Umiya Nagar Society",Surat,9.17506E+11,launched.emerald.competing,Gujarat
"Tata Motors Cars Showroom - Pragati Vehicles, Bardoli",Block No 258/1,Bardoli,9.18879E+11,powerful.caressed.banks,Gujarat
"Tata Motors Cars Showroom - Pramukh Tata, Tadkuwa","No D1/2, Arnav Point, Vyara Dhulia Road, Vyara",Vyara,9.18879E+11,dozen.drags.cowboy,Gujarat
"Tata Motors Cars Showroom - Shreeji Automart, Piplod","04A/B, Shreeji House, Dumas Road",Surat,9.17506E+11,binder.managed.inversely,Gujarat
"Tata Motors Cars Showroom - Pramukh Automotive, Varachha","No 25 to 27, Ground Floor, Skyview Bldg, Valak, Sarthana Road",Surat,9.1962E+11,rewriting.obstruction.playful,Gujarat
"Tata Motors Cars Showroom - Shreeji Automart Pvt Ltd, Adajan","No G5/6/7, Triumph Plaza, Gaurav Path Road",Surat,9.18291E+11,hunt.whistle.blunders,Gujarat
"Tata Motors Cars Showroom - Pragati Vehicles LLP, Parvat Patia","Orchid Tower, Surat Kadodara Road",Surat,9.18879E+11,differ.baroness.putts,Gujarat
"Tata Motors Cars Showroom - Pragati Vehicles LLP, Althan","Ground Floor, VIP Road",Surat,9.18879E+11,surging.royal.brimmed,Gujarat
"Tata Motors Cars Showroom - Stellar, Valsad","NH 48, Naik Arcade, Atak Pardi Road",Valsad,9.18291E+11,amplified.reclaimed.tuxedos,Gujarat
"Tata Motors Cars Showroom - Pramukh Tata, Parnera","Shop No 1 To 6, Suraj Mall, New Block No 1616/1627, Atul Road",Valsad,9.19167E+11,shelling.drainage.ruined,Gujarat
"Tata Motors Cars Showroom - Pramukh Tata, Vapi","Shop No 1 to 4, Anmol Complex, 54/2/B/4, Paikee 1",Vapi,9.17506E+11,privilege.battle.financed,Gujarat
"Tata Motors Cars Showroom - Stellar Autodrive, Vapi","Plot No 3 & 4, Vibrant Business Park",Vapi,9.18291E+11,overfed.instigation.gumdrops,Gujarat
"Tata Motors Cars Showroom - Pramukh Tata, Navsari","SN 1 & 2, Omkar Residency Wing A & B, NH 48",Navsari,9.19167E+11,deflection.enhance.initiations,Gujarat
"Tata Motors Cars Showroom - Stellar Autodrive Pvt Ltd, Sisodra",NH 48,Navsari,9.18291E+11,clinicians.python.gentleness,Gujarat
"Tata Motors Cars Showroom - Zedex, Sohna Road","26, NIHO Scotish Mall, Sohna Road",Gurugram,9.17045E+11,bulb.kilt.opinion,Haryana
"Tata Motors Cars Showroom - Arya Motors, Mehrauli Road","Plot No 17/1, Mehrauli Gurgaon Road",Gurugram,9.17045E+11,respect.date.blanking,Haryana
"Tata Motors Cars Showroom - Himgiri Automobiles, Hero Honda Chowk","Plot No 17, Pace City 1, Sector 37",Gurugram,9.19619E+11,sooner.musically.wants,Haryana
"Tata Motors Cars Showroom - Arya Motors, Golf Course","GF A27/62, DLF 1, Sector 28",Gurugram,9.17045E+11,peroxide.warrior.subject,Haryana
"Tata Motors Cars Showroom - Zedex Gurgaon, Golf Course Ext","AG 1, Tower A, Pioneer Urban Square, Golf Course Extension Road",Gurugram,9.19168E+11,minerals.super.argued,Haryana
"Tata Motors Cars Showroom - Himgiri Automobiles, Manesar","K No 759, NH 8",Manesar,9.1888E+11,tightrope.progress.heats,Haryana
"Tata Motors Cars Showroom - Himgiri, Pataudi",Pataudi Road,Gurugram,9.18879E+11,adhesive.neckline.appallingly,Haryana
"Tata Motors Cars Showroom - Himgiri, Wazirpur",Ground Floor,Gurugram,9.18879E+11,spud.instant.frock,Haryana
"Tata Motors Cars Showroom - Arya Motors, Sector 18","Plot No 34, Sarhol",Gurugram,9.18292E+11,crunches.duplicate.dose,Haryana
"Tata Motors Cars Showroom - Multitech Motors, Sector 81","No 002, Ground Floor, High Street, Puri",Faridabad,9.18291E+11,tidal.onwards.submitted,Haryana
"Tata Motors Cars Showroom - Multitech Motors, Faridabad","49A/NIT 5 Nissen Hut, Railway road, Tehsil Badhkal",Faridabad,9.18879E+11,unspoiled.plots.slanting,Haryana
"Tata Motors Cars Showroom - Multitech Motors, Faridabad","No 15/1, Main Mathura Road",Faridabad,9.17045E+11,banana.retract.maddening,Haryana
"Tata Motors Cars Showroom - Autovikas, Sector 5","Plot No 2, Northern India Compound, 20/3 Mile Stone, Mathura Road",Faridabad,9.1962E+11,rebirth.basics.landlords,Haryana
"Tata Motors Cars Showroom - Multitech Motors, Palwal","Property No 4, National Highway, Mathura Road",Palwal,9.19167E+11,unpaid.pining.sophistication,Haryana
"Tata Motors Cars Showroom - Multitech Motors LLP, New Anaj Mandi","NH 2, Godata Chowk",Hodal,9.19167E+11,noticed.unwise.sandals,Haryana
"TATA.ev Store - Sector 14, Gurugram","Plot No 5, Industrial Development Colony, Mehrauli Gurugram Road",Gurugram,9.18292E+11,earpiece.brain.sharpened,Haryana
"TATA.ev Store - Sohna Road, Gurugram","342, Spaze Edge, Tower B, Malibu Town",Gurugram,9.18292E+11,gashes.mastering.inspects,Haryana
"Tata Motors Cars Showroom - CSG, Sohna",Ground Floor,Sohna,9.19167E+11,snowy.held.listen,Haryana
"Tata Motors Cars Showroom - Csg Automobiles Pvt Ltd, Bhiwadi Road",Ground Floor,Tauru,9.18291E+11,praising.revisits.rebound,Haryana
"Tata Motors Cars Showroom - Csg Automobiles Pvt Ltd, Hodal Road",Ground Floor,Punhana,9.19023E+11,heyday.footfalls.housekeeping,Haryana
"Tata Motors Cars Showroom - Premium Motocorp, Narnaul",Ground Floor,Narnaul,9.18291E+11,tout.stalling.templates,Haryana
"Tata Motors Cars Showroom - Premium Motocorp India Pvt Ltd, Narnaul Road","SK Petrol Pump, Tula Ram Chowk",Mahendragarh,9.18879E+11,cemented.recliner.ships,Haryana
"Tata Motors Cars Showroom - Premium Motocorp, Delhi Road",Plot No 7685/15,Rewari,9.17045E+11,brisk.aquatics.sharper,Haryana
"Tata Motors Cars Showroom - Rama Auto Cars, Sukhpura Chowk","Ground Floor, Northern Bypass",Rohtak,9.17045E+11,awaited.dancer.insolvent,Haryana
"Tata Motors Cars Showroom - Raj Motors, Delhi Road",Raj Complex,Rohtak,9.17045E+11,inefficient.kneeled.hush,Haryana
"Tata Motors Cars Showroom - Raj Motors, Bank Road",Ground Floor,Jhajjar,9.18291E+11,hissing.heads.prepped,Haryana
"Tata Motors Cars Showroom - Raj Motors, Bahadurgarh","Rathi Complex, Tikri Border",Bahadurgarh,9.18291E+11,blacked.query.sharp,Haryana
"Tata Motors Cars Showroom - Telmos Automobiles, Vidyut Nagar","Ground Floor, Delhi Road",Hisar,9.17045E+11,nickname.flip.inventors,Haryana
"Tata Motors Cars Showroom - Telmos Automobiles, Barwala",Ground Floor,Hisar,9.19619E+11,unscramble.replicating.incriminate,Haryana
"Tata Motors Cars Showroom - Telmos Automobiles, GT Road",Jind Chungi,Hansi,9.18291E+11,technical.unzips.shins,Haryana
"Tata Motors Cars Showroom - Telmos Automobiles, Narnaund",Khanda Mod,Hisar,9.19619E+11,conductor.cherry.blown,Haryana
"Tata Motors Cars Showroom - Telmos Automobiles, Sirsa Delhi Road",Ground Floor,Fatehabad,9.18291E+11,eats.recorders.matrons,Haryana
"Tata Motors Cars Showroom - RP Jhunthra, Bajekan Chowk","Ground Floor, NH 9, Hisar Road",Sirsa,9.17045E+11,tenable.wholesome.shroud,Haryana
"Tata Motors Cars Showroom - RP Jhunthra, Sirsa Road",Ground Floor,Ellenabad,9.18291E+11,cracklings.optic.simpler,Haryana
"Tata Motors Cars Showroom - RP Jhunthra, Chautala Road",Ground Floor,Mandi Dabwali,9.18291E+11,huddle.slacker.shuffles,Haryana
"Tata Motors Cars Showroom - Telmos Automobiles, Tohana","H No 5, Ward No 10",Tohana,9.18291E+11,personal.ferrets.aquatics,Haryana
"Tata Motors Cars Showroom - Mahadev Motors, Rohtak Road",Ground Floor,Jind,9.18291E+11,sedative.products.snooty,Haryana
"Tata Motors Cars Showroom - Mahadev Motors, Hari Nagar",Kaithal Hissar Road,Narwana,9.18291E+11,display.replace.coasting,Haryana
"Tata Motors Cars Showroom - Mahadev Motors, Rohtak Road",Ground Floor,Bhiwani,9.17045E+11,bleak.admires.interests,Haryana
"Tata Motors Cars Showroom - Mahadev Motors, Loharu Road",Ground Floor,Charkhi Dadri,9.18291E+11,aunts.stew.lake,Haryana
"Tata Motors Cars Showroom - Swan Motors, Rohtak Road",Ground Floor,Sonipat,9.17045E+11,bronzed.confident.relay,Haryana
"Tata Motors Cars Showroom - Swan Motors, Kundli",31st Milestone,Sonipat,9.19619E+11,unhappily.supple.panthers,Haryana
"Tata Motors Cars Showroom - Swan Motors, Fowahara Chowk",Ground Floor,Gohana,9.18291E+11,uneconomic.subversive.ports,Haryana
"Tata Motors Cars Showroom - Metro Motors, Karnal","Kutail, GT road",Karnal,9.17045E+11,dusty.sulked.stretcher,Haryana
"Tata Motors Cars Showroom - Metro Motors Pvt Ltd, GT Road",No 117/118,Karnal,9.18291E+11,cocktail.speedy.annotated,Haryana
"Tata Motors Cars Showroom - Metro Motors, Assandh","Tractor Market, Kaithal Road",Assandh,9.19619E+11,novice.concoction.deadlock,Haryana
"Tata Motors Cars Showroom - Aaryaman Automobiles, Samalkha","Main GT Road, Samalkha",Panipat,9.1888E+11,hippo.marrow.whisking,Haryana
"Tata Motors Cars Showroom - Aaryaman Automobiles, Sector 25","Plot No 64, HUDA Industrial Area, Part 1",Panipat,9.17045E+11,hears.applies.shredder,Haryana
"Tata Motors Cars Showroom - Aaryaman Automobiles, Madlauda",Ground Floor,Madlauda,9.18292E+11,ticketholder.lights.amphibious,Haryana
"Tata Motors Cars Showroom - Metro Motors, Nilokheri","Village Tepla, GT Road",Nilokheri,9.19167E+11,subsided.paths.destitution,Haryana
"Tata Motors Cars Showroom - Metro Motors, Ambala Cantt","No 121, Railway Road",Ambala,9.17045E+11,bloomers.situated.senders,Haryana
"Tata Motors Cars Showroom - Metro Motors, Ambala","NH 44/A, Village Tepla",Ambala,9.19167E+11,overlay.triumphs.alloy,Haryana
"Tata Motors Cars Showroom - Panchkula Roller Flour Mills Ltd, Ram Nagar","SCO 8, Shiv Mandir",Ambala,9.18291E+11,lions.exclusivism.cartoonist,Haryana
"Tata Motors Cars Showroom - Metro Motors, Ambala City",Model Town,Ambala,9.1888E+11,speedily.comical.tone,Haryana
"Tata Motors Cars Showroom - Panchkula Automobiles, Industrial Area","Plot No 79, Phase 1",Panchkula,9.17045E+11,beads.devotion.swarm,Haryana
"Tata Motors Cars Showroom - Vision Tata, Phase 1","Plot No 167, Phase 1",Panchkula,9.19619E+11,loom.notebook.umpires,Haryana
"Tata Motors Cars Showroom - Metro Motors, Naraingarh",Ground Floor,Naraingarh,9.18291E+11,invertebrates.pervasively.dispensable,Haryana
"Tata Motors Cars Showroom - Metro Motors, Bhai Kanhaiya Saheb Chowk","Ground Floor, Main Road",Yamuna Nagar,9.17045E+11,pedicure.dragon.judge,Haryana
"Tata Motors Cars Showroom - Metro Motors, Bilaspur",Sandhu Car Bazar,Bilaspur,9.19619E+11,psychic.outdoor.inauthentic,Haryana
"Tata Motors Cars Showroom - Sahib Automotive Private Limited, Kaithal Road",Ground Floor,Kaithal,9.18291E+11,transmission.noisemakers.rucksack,Haryana
"Tata Motors Cars Showroom - Sahib Automotive, Ambala Road","Ground Floor, NH 72",Kaithal,9.17045E+11,crafted.commoner.nonresponse,Haryana
"Tata Motors Cars Showroom - Sahib Automotive, Cheeka",Ground Floor,Kaithal,9.19619E+11,tornado.saggy.biography,Haryana
"Tata Motors Cars Showroom - Sahib Automotive Private Limited, Narwana Road",Ground Floor,Kaithal,9.18291E+11,overused.weddings.slant,Haryana
"Tata Motors Cars Showroom - Metro Motors, Khanpur Kolian","VPS Square, GT Road",Kurukshetra,9.17039E+11,persevering.fangs.heighten,Haryana
"Tata Motors Cars Showroom - Metro Motors, Pehowa",Ambala Kaithal Road,Kurukshetra,9.18291E+11,unstated.wealth.tramps,Haryana
"Tata Motors Cars Showroom - Metro Motors, Ladwa",Pipli Ladwa Road,Ladwa,9.19167E+11,groom.unearthly.desire,Haryana
"Tata Motors Cars Showroom - J P Motors, Tuti Kandi",Ground Floor,Shimla,9.18291E+11,shepherds.soothing.parties,Himachal-Pradesh
"Tata Motors Cars Showroom - J P Motors, Theog",Village Nangal Devi,Theog,9.18879E+11,synergies.winked.monarchies,Himachal-Pradesh
"Tata Motors Cars Showroom - J P Motors, Rohru","Bhagwan Villa, Chirgaon Road",Shimla,9.18291E+11,fussing.thrillingly.tomb,Himachal-Pradesh
"Tata Motors Cars Showroom - J P Motors, Shingla",Dakholar,Rampur,9.18291E+11,doctor.ultramodern.commend,Himachal-Pradesh
"Tata Motors Cars Showroom - J P Motors, Nahan","Opposite GPG College Gate, Yashwant Vihar",Nahan,9.18292E+11,competes.undreamed.numb,Himachal-Pradesh
"Tata Motors Cars Showroom - J P Motors, Manpura",Baddi Nalagarh Highway,Baddi,9.18291E+11,delights.seers.outdoorsy,Himachal-Pradesh
"Tata Motors Cars Showroom - J P Motors, Shamsherpur","Ground Floor, Paonta Sahib",Paonta Sahib,9.18291E+11,linseed.lawful.unemotional,Himachal-Pradesh
"Tata Motors Cars Showroom - J P Motors, Anji","Ground Floor, Barog Bypass",Solan,9.17045E+11,outsmart.inflict.slept,Himachal-Pradesh
"Tata Motors Cars Showroom - Surya Automobiles, Chandpur","Kothi Chowk, Sardar",Bilaspur,9.18291E+11,swats.statute.cheeriness,Himachal-Pradesh
"Tata Motors Cars Showroom - JKR Motors, Una Nangal Road",Ground Floor,Una,9.18291E+11,finalist.tabloid.underaged,Himachal-Pradesh
"Tata Motors Cars Showroom - NG Automobiles Pvt Ltd, Karsog","Bhanthal, Karsog",Mandi,9.19619E+11,pills.loophole.flounces,Himachal-Pradesh
"Tata Motors Cars Showroom - Surya Automobiles, Mandi","Khasra No 733/247, NH 154",Mandi,9.19167E+11,flourished.edification.sundress,Himachal-Pradesh
"Tata Motors Cars Showroom - NG Automobiles Pvt Ltd, Sarkaghat","Barchwar, Surajpur Bari",Mandi,9.19619E+11,contributed.pacts.understandable,Himachal-Pradesh
"Tata Motors Cars Showroom - NG Automobiles Pvt Ltd, Joginder Nagar","Ladhruhin, Chauntra",Mandi,9.18291E+11,accommodate.nursemaid.tortilla,Himachal-Pradesh
"Tata Motors Cars Showroom - NG Automobiles Pvt Ltd, Kullu","Khasra No 590, Bashing",Kullu,9.18291E+11,sandblast.lacking.impersonate,Himachal-Pradesh
"Tata Motors Cars Showroom - JKR Motors, Ghurkari","Ground Floor, NH 20",Kangra,9.17045E+11,renaming.childish.station,Himachal-Pradesh
"Tata Motors Cars Showroom - JKR Motors, Baijnath Road",Ground Floor,Palampur,9.18291E+11,juror.overviews.shampooed,Himachal-Pradesh
"Tata Motors Cars Showroom - NG Automobiles Private Limited, Bhaleth",Darla,Hamirpur,9.18291E+11,connectivity.landfall.truant,Himachal-Pradesh
"Tata Motors Cars Showroom - JKR Motors, Jachh","Pathankot Road, Jachh",Kangra,9.18291E+11,overtones.danger.offhand,Himachal-Pradesh
"Tata Motors Cars Showroom - JKR Motors, Jwalaji Road","NH 20A, Jwalaji Road",Dharamshala,9.18291E+11,billings.reunions.interfaced,Himachal-Pradesh
"Tata Motors Cars Showroom - JKR Motors, Sultanpur",Parel,Chamba,9.18291E+11,specials.illuminated.ambulances,Himachal-Pradesh
"Tata Motors Cars Showroom - Surya Automobiles, Chattar","Khasra No 497/1, Bhira",Hamirpur,9.17045E+11,seasonality.fishlike.pampers,Himachal-Pradesh
"Tata Motors Cars Showroom - Surya Automobiles, Nadaun",Ground Floor,Hamirpur,9.18291E+11,spotty.crunching.panicked,Himachal-Pradesh
"Tata Motors Cars Showroom - AM Auto, Narwal","Ground Floor, NH 1A, Bypass Road",Jammu,9.17045E+11,heightens.helped.spoons,Jammu-And-Kashmir
"Tata Motors Cars Showroom - Fairdeal Motors, Kunjwani Bye Pass Road",Ground Floor,Jammu,9.17045E+11,twinkled.marathons.muddle,Jammu-And-Kashmir
"Tata Motors Cars Showroom - Fairdeal Motors, RS Pura",Main Road,Ranbir Singh Pura,9.18291E+11,extroverts.docile.hatchback,Jammu-And-Kashmir
"Tata Motors Cars Showroom - Fairdeal Motors & Workshop Pvt Ltd, Main Market",Ground Floor,Jammu,9.18291E+11,detonate.misjudged.pedagogies,Jammu-And-Kashmir
"Tata Motors Cars Showroom - Fairdeal Motors and Workshop, Shiv Nagar",NH 1A,Udhampur,9.18291E+11,chirps.vacated.sphinx,Jammu-And-Kashmir
"Tata Motors Cars Showroom - Fairdeal Motors, Doda",Nai Dangri,Doda,9.19167E+11,scrapbook.hornless.protracted,Jammu-And-Kashmir
"Tata Motors Cars Showroom - Fairdeal Motors & Workshop Pvt Ltd, Kishtwar",Ground Floor,Doda,9.18291E+11,blemishes.appetite.bibs,Jammu-And-Kashmir
"Tata Motors Cars Showroom - AM Auto, Kathua",NH 1,Kathua,9.18879E+11,diverse.blizzards.impacted,Jammu-And-Kashmir
"Tata Motors Cars Showroom - AM Auto, Samba",Ground Floor,Samba,9.18879E+11,crowbar.previews.tactics,Jammu-And-Kashmir
"Tata Motors Cars Showroom - Fairdeal Motors, Phinter","Gurha Kalyal, Dhar Udhampur Road",Kathua,9.19167E+11,recollects.carpools.thing,Jammu-And-Kashmir
"Tata Motors Cars Showroom - AM Auto, Poonch",Ground Floor,Poonch,9.18879E+11,rainwater.baseballs.dark,Jammu-And-Kashmir
"Tata Motors Cars Showroom - Fairdeal Motors and Workshop, Salani Bridge",Ward No 4,Rajauri,9.18291E+11,lobby.tearjerker.stinging,Jammu-And-Kashmir
"Tata Motors Cars Showroom - Himalayan Automobiles, Tengpora","No 1/A, Batamaloo By Pass",Srinagar,9.18879E+11,hence.flagged.handfuls,Jammu-And-Kashmir
"Tata Motors Cars Showroom - Fairdeal Motors and Workshop, Parimpora","Ground Floor, Srinagar Baramulla Bypass Road",Srinagar,9.17045E+11,fortunate.formless.snares,Jammu-And-Kashmir
"Tata Motors Cars Showroom - Fairdeal Motors & Workshop Pvt Ltd, Giraj",Ground Floor,Srinagar,9.18291E+11,panther.walls.beauty,Jammu-And-Kashmir
"Tata Motors Cars Showroom - Ky Auto Pvt Ltd, Harnag","Ground Floor, NH 1A",Anantnag,9.1993E+11,stunning.sprained.boosters,Jammu-And-Kashmir
"Tata Motors Cars Showroom - Fairdeal Motors, Pulwama",Ground Floor,Pulwama,9.19167E+11,forgot.ousted.scamp,Jammu-And-Kashmir
"Tata Motors Cars Showroom - Apex Motors, Khushal Pora","Ground Floor, Sangrama, NH 44",Baramulla,9.17045E+11,landlocked.outsize.hereditary,Jammu-And-Kashmir
"Tata Motors Cars Showroom - Tiwari Automobiles, Lakhikundi","Ground Floor, Airport Road",Dumka,9.17045E+11,whisks.behold.wherefore,Jharkhand
"Tata Motors Cars Showroom - Motogen, Aamgachhi",Dumka Road,Deoghar,9.18291E+11,intrigue.cropping.acclaim,Jharkhand
"Tata Motors Cars Showroom - Tiwari Automobiles, Asanbani",Plot No 176,Godda,9.18291E+11,sprayer.reshaping.chip,Jharkhand
"Tata Motors Cars Showroom - Motogen, Pachamba","Central Tower, Boro",Giridih,9.18291E+11,loitering.confusion.vitamins,Jharkhand
"Tata Motors Cars Showroom - Tiwari Automobiles, Jamtara",Ground Floor,Jamtara,9.18291E+11,painless.reluctance.thudding,Jharkhand
"Tata Motors Cars Showroom - Tiwari Automobiles, College Road",Ground Floor,Sahibganj,9.18291E+11,accrue.brambles.nomads,Jharkhand
"Tata Motors Cars Showroom - Tiwari Automobiles, Sharkol",Hiranpur Road,Pakur,9.18291E+11,upset.agreeable.hound,Jharkhand
"Tata Motors Cars Showroom - Sharda Automobiles, North Redma","Ground Floor, Ranchi Road",Daltonganj,9.17045E+11,bolsters.centrally.rely,Jharkhand
"Tata Motors Cars Showroom - Sharda Automobiles, Garhwa",Shahpur Road,Garhwa,9.18291E+11,demographics.confusedly.unruffled,Jharkhand
"Tata Motors Cars Showroom - Jaimaa Sharda Automibiles, Aurangabad Main Road","Tendua Kalan, Daltonganj",Palamau,9.19168E+11,plates.sorceress.duped,Jharkhand
"Tata Motors Cars Showroom - Basudeb Auto, Zulu Park Road",Ground Floor,Hazaribagh,9.17045E+11,outhouse.happen.preoccupied,Jharkhand
"Tata Motors Cars Showroom - Basudeb Auto, Nagwa College Road",SN Giri Complex,Chatra,9.19619E+11,retorted.mopping.immorally,Jharkhand
"Tata Motors Cars Showroom - Motogen, Lakhibagi","Ground Floor, CM Tower, Ranchi Patna Rd",Koderma,9.18291E+11,crest.plainness.resale,Jharkhand
"Tata Motors Cars Showroom - Motogen, Barwadda","NH 2, Kashitand, Nag Nagar",Dhanbad,9.17045E+11,nickname.built.octopus,Jharkhand
"Tata Motors Cars Showroom - Kraft Auto, Sector 4","Plot No A/18, City Centre",Bokaro,9.17045E+11,loungers.isolated.regained,Jharkhand
"Tata Motors Cars Showroom - Basudeb Auto, Ramgarh Cantt","Ground Floor, Bharech Nagar, NH 33, Mandu, Sandi, Kujju",Ramgarh,9.18291E+11,butch.provide.footstool,Jharkhand
"Tata Motors Cars Showroom - Rising Auto Wheels, Khalari",Ground Floor,Khalari,9.18291E+11,deliveries.confusingly.taxpayer,Jharkhand
"Tata Motors Cars Showroom - Sharda Automobiles, Karkat",NH 39,Latehar,9.18291E+11,prejudices.scoot.bundling,Jharkhand
"Tata Motors Cars Showroom - ASL Motors, Mango","Plot No 395 and 396, Pardih",Jamshedpur,9.17045E+11,talents.sprawls.tripods,Jharkhand
"Tata Motors Cars Showroom - ASL Motors, Adityapur Industrial Area","No A7, 2nd Phase",Jamshedpur,9.17045E+11,repaying.erupt.period,Jharkhand
"Tata Motors Cars Showroom - ASL Motors, Ghatsila","Fuldungari, NH 33",East Singhbhum,9.19619E+11,exonerate.sketches.fabric,Jharkhand
"Tata Motors Cars Showroom - ASL Motors, Bara Bazar",LIC Building,Chaibasa,9.18291E+11,ages.torso.quietly,Jharkhand
"Tata Motors Cars Showroom - ASL Motors, Noamundi","Plot No 1429, Khata No 402",Noamundi,9.18291E+11,dazzling.fuse.beads,Jharkhand
"Tata Motors Cars Showroom - Basudeb Auto Ltd, Station Road","Tiru Enclave, Siram Toli",Ranchi,9.19167E+11,selects.developed.radio,Jharkhand
"Tata Motors Cars Showroom - Motogen, Dibdih Bypass Road","Doranda, Dibdih",Ranchi,9.17045E+11,dummy.starred.tenses,Jharkhand
"Tata Motors Cars Showroom - Rising, Ranchi","Ground Floor, Plot No 70, Khata No 171, Ranchi Gumla Main Road",Ranchi,9.18879E+11,sprayer.fetch.bring,Jharkhand
"Tata Motors Cars Showroom - Basudeb Auto, Bariatu",Yash Height Building,Ranchi,9.17045E+11,wound.intro.greed,Jharkhand
"Tata Motors Cars Showroom - Rising Auto Wheels, Bundu",N/33,Bundu,9.19167E+11,unclassified.showcase.inaudibly,Jharkhand
"Tata Motors Cars Showroom - Basudeb Auto, Gumla","Dandariya, Lohardaga Road",Gumla,9.18291E+11,hardback.supportively.vendetta,Jharkhand
"Tata Motors Cars Showroom - Rising Auto Wheels, Khunti","Ground Floor, Main Road",Khunti,9.18879E+11,indicates.reframe.selling,Jharkhand
"Tata Motors Cars Showroom - Basudeb Auto Simdega, Simdega Ranchi Road",Sonar Toli,Simdega,9.19168E+11,spurring.timeless.creamed,Jharkhand
"Tata Motors Cars Showroom - SS Motogen Pvt Ltd, BID Gumla Road",JPS Complex,Lohardaga,9.18879E+11,migrants.booklets.papers,Jharkhand
"Tata Motors Cars Showroom - Kropex Auto Pvt Ltd, Mahadevpura","No 186/26/26A, Durga Waves, B Narayanpura",Bangalore,9.19167E+11,flock.tabs.fulfilled,Karnataka
"Tata Motors Cars Showroom - Prerana Motors, Lalbagh Road","No 116, Ground Floor, Pride Hulkul",Bangalore,9.17045E+11,foal.cattle.opposites,Karnataka
"Tata Motors Cars Showroom - Kropex Auto, Koramangala","Salarpuria Annexe 1, Luskar, Hosur Road, Chikku Lakshmaiah Layout",Bangalore,9.18879E+11,fiery.resemble.sundial,Karnataka
"Tata Motors Cars Showroom - Kropex Auto, Sarjapur Road","Ground Floor, Bren Mercury, Kaikondranhalli Junction",Bangalore,9.18879E+11,hologram.records.lollipop,Karnataka
"Tata Motors Cars Showroom - Key Motors, Mysore Road","Metro Pillar 483, No 17/1B, Halage Vaderahalli",Bangalore,9.18879E+11,aged.showrooms.decorated,Karnataka
"Tata Motors Cars Showroom - Adishakti Cars Pvt Ltd, Kalyanagar","No 109/1, Outer Ring Road",Bangalore,9.19167E+11,cleansed.drove.takeover,Karnataka
"Tata Motors Cars Showroom - Adishakti Cars, Hebbal",No 56,Bangalore,9.17045E+11,strides.adventure.vampire,Karnataka
"Tata Motors Cars Showroom - Cauvery Motors Pvt Ltd, KR Puram, Hoskote Taluk","Sy No 14, Avalahalli, Bidarahalli Hobli",Bangalore,9.19167E+11,tenders.hissing.zoos,Karnataka
"Tata Motors Cars Showroom - Adishakti Cars, Dasarahalli","No 7, 8, 23 AN, Ground Floor, NH 4, Tumkur Road",Bangalore,9.18291E+11,shark.piglet.buggy,Karnataka
"Tata Motors Cars Showroom - Urs Cars, Hinkal","No 198/1, Kasaba Hobli, Hunsur Road",Mysore,9.18879E+11,racked.permanent.machinery,Karnataka
"Tata Motors Cars Showroom - Prerana Motors, Yelahanka","Survey No 1A, Block 20, Jakkur Plantation Village",Bangalore,9.1962E+11,nimbly.unwell.drags,Karnataka
"Tata Motors Cars Showroom - KHT Motors, Whitefield","No 736, Vijayalakshmi Square",Bangalore,9.17045E+11,canyons.intruding.qualified,Karnataka
"Tata Motors Cars Showroom - Prerana Motors, BTM Layout","No 9, Sri Krishna Akshaya, 27th Main, 100 ft Rd, Phase 1",Bangalore,9.17045E+11,depth.stance.refrained,Karnataka
"Tata Motors Cars Showroom - Kropex Auto, Hosur Main Road",No 49/1,Bangalore,9.17045E+11,speeds.vowed.snowstorm,Karnataka
"Tata Motors Cars Showroom - KHT Motors, Domlur","Inner Ring Road, 100 Feet Road",Bangalore,9.17045E+11,deeds.soggy.custodian,Karnataka
"Tata Motors Cars Showroom - Key Motors, Bannerghatta Road","No 215/15, Arakere Gate",Bangalore,9.18879E+11,blown.eyepieces.sprain,Karnataka
"Tata Motors Cars Showroom - Key Motors, Kanakapura Main Road","No 71/1A & 71/7, Jaraganahalli",Bangalore,9.17045E+11,tone.womanly.firelight,Karnataka
"Tata Motors Cars Showroom - Prerana Motors, Rajajinagar","No 46, 2nd Stage, 10th Cross",Bangalore,9.17045E+11,muffin.whiplash.bakers,Karnataka
"Tata Motors Cars Showroom - Cauvery Motors, Aramane Nagar","No 3 Achiah, Chetty Layout, Mekhri Circle Junction",Bangalore,9.18292E+11,clues.bookings.blending,Karnataka
"Tata Motors Cars Showroom - Key Motor Ventures, Magadi Main Road","No 190/266, Gangadhariah Complex, Vishwaneedam, Magadi Main Rd",Bangalore,9.18291E+11,heartburn.flicked.toothpick,Karnataka
"Tata Motors Cars Showroom - Bellad Enterprises Pvt Ltd, Bommasandra","No 25/6, Industrial Area, Anekal",Bengaluru,9.19167E+11,marked.essays.announce,Karnataka
"Tata Motors Cars Showroom - Sree Auto, Chokkahalli",Industrial Area,Kolar,9.18879E+11,polluted.recover.evicts,Karnataka
"Tata Motors Cars Showroom - Cauvery Motors Pvt Ltd, Devanahalli","No 205/446/2/447/448/120/3, KMRP Ward, 27th Block",Bangalore,9.18879E+11,iterative.iron.dignity,Karnataka
"Tata Motors Cars Showroom - Key Motors, Kanakapura","Survey No 38/14, Hobli",Kanakapura,9.18879E+11,survivor.unsecured.district,Karnataka
"Tata Motors Cars Showroom - Key Motor Ventures, Nelamangala","No 172/4, Nelamangala Toll",Bangalore,9.18291E+11,ambient.vacancies.cleansed,Karnataka
"Tata Motors Cars Showroom - Sree Auto, Goppasandra","Sy No 34/2 & 34/4 & 33 & 34, Ullawadi",Chintamani,9.18292E+11,crabmeat.nuzzled.vacancies,Karnataka
"Tata Motors Cars Showroom - KHT Motors, Arabikothnur","37/2/A & 37/2/B & 37/1/B2, Madherahalli, GP Vokkaleri, Hobli",Kolar,9.18291E+11,braced.diplomat.weeknight,Karnataka
"Tata Motors Cars Showroom - Urs Kar, Krishnamurthy Puram","CH 11, New Kantharaj Urs Rd",Mysore,9.17045E+11,dominate.engaging.drawn,Karnataka
"Tata Motors Cars Showroom - Urs Kar, Madikeri","No 42/3, Block No 11",Madikeri,9.18879E+11,detective.snap.sketching,Karnataka
"Tata Motors Cars Showroom - Urs Kar, Gonikoppal",Ground Floor,Gonikoppal,9.18879E+11,prejudices.slippery.detachments,Karnataka
"Tata Motors Cars Showroom - Urs Kar, Kushal Nagar","Sy No 49/8, Madikeri Rd, Bollur, Somwarpet",Kushalnagar,9.19619E+11,humanity.trimming.eyeball,Karnataka
"Tata Motors Cars Showroom - Urs Kar, Ramasamudra","No 990/976, Ward No 27, Main Road",Chamarajanagar,9.19619E+11,afterglow.seasick.anode,Karnataka
"Tata Motors Cars Showroom - Urs Kar, Mandya",Ground Floor,Mandya,9.18879E+11,feuds.notebook.ripe,Karnataka
"Tata Motors Cars Showroom - Sree Auto, Tumkur",No 1,Tumkur,9.17045E+11,messaging.doll.jumbo,Karnataka
"Tata Motors Cars Showroom - Sree Auto, BM Road","BM Road, Gangadhareshwara Extension",Tumkur,9.18879E+11,pest.create.haystack,Karnataka
"Tata Motors Cars Showroom - Sree Auto, Tiptur",Bandi Hally Industrial Estate,Tiptur,9.18879E+11,forum.reward.hammocks,Karnataka
"Tata Motors Cars Showroom - Cauvery Motors, Channarayapattana","SVN complex, BM road",Hassan,9.19167E+11,gave.trainer.yummy,Karnataka
"Tata Motors Cars Showroom - Auto Matrix, Hassan","BM Road, NH 8",Hassan,9.18879E+11,trophy.umbrella.clear,Karnataka
"Tata Motors Cars Showroom - Cauvery Motors, Anekere","Ground floor, Door No 18/15, Bypass Road, Laxmi Devi Complex",Karkala,9.1888E+11,gobbles.informing.deviates,Karnataka
"Tata Motors Cars Showroom - Auto Matrix, Puttur",Ground Floor,Puttur,9.18879E+11,airlifted.polished.pacts,Karnataka
"Tata Motors Cars Showroom - Auto Matrix, B C Road","NH 75, B C Road",Dakshina Kannada,9.19167E+11,fairy.ticking.attaching,Karnataka
"Tata Motors Cars Showroom - Auto Matrix, Sullia",Ground Floor,Sullia,9.18879E+11,dream.puffed.stiffly,Karnataka
"Tata Motors Cars Showroom - Auto Matrix, Bejai",Manjusha Building,Mangalore,9.17045E+11,peroxide.success.departure,Karnataka
"Tata Motors Cars Showroom - Cauvery Motors, Mangalore","Alape, Padil, NH 73",Mangalore,9.18879E+11,provide.absorb.soaks,Karnataka
"Tata Motors Cars Showroom - Auto Matrix, Surathkal",NH 66,Dakshina Kannada,9.18879E+11,configures.wasabi.tong,Karnataka
"Tata Motors Cars Showroom - Auto Matrix, Udupi","Bhavani Complex, Kalsanka",Udupi,9.18879E+11,famous.kickbacks.motels,Karnataka
"Tata Motors Cars Showroom - Cauvery Motors, Kundapura","Ashiyana Crown, NH 66, Ankadakatte",Kundapura,9.18291E+11,gazed.crows.intrigued,Karnataka
"Tata Motors Cars Showroom - Auto Matrix, Chickmagalur",Belur Road,Chickmagalur,9.18291E+11,slumped.theory.violinist,Karnataka
"Tata Motors Cars Showroom - Cauvery Motors, Mudigere","Sri Ganesh Complex, KM Road",Mudigere,9.18291E+11,bubbly.worldwide.mantra,Karnataka
"Tata Motors Cars Showroom - Adishakti Cars, Shimoga","No 21, Shankarmutt Road",Shimoga,9.17045E+11,cyclones.ranking.stream,Karnataka
"Tata Motors Cars Showroom - Adishakti Cars, Davanagere","Property No 260, Ground Floor, Honnebagi, Kavalu, Machanayakanahalli",Davanagere,9.18879E+11,flickers.harvest.charts,Karnataka
"Tata Motors Cars Showroom - Adishakti Cars, Sagar",Survey No 61/1,Sagar,9.18879E+11,stalactite.temperatures.consequent,Karnataka
"Tata Motors Cars Showroom - Adishakti Cars, Shikaripura","No 13/03/151/A, Shimoga Shikaripura Road",Shimoga,9.19167E+11,questions.entire.loans,Karnataka
"Tata Motors Cars Showroom - Sree Auto, Chitradurga",Medahalli Road,Chitradurga,9.18879E+11,handover.shall.browsers,Karnataka
"Tata Motors Cars Showroom - Automatrix, Kadur",Ground Floor,Chikmagalur,9.19619E+11,departure.inherit.usage,Karnataka
"Tata Motors Cars Showroom - Manickbag Automobiles, Dharwad","Ground Floor, Enclave Apartment",Dharward,9.18879E+11,grownup.overhear.workroom,Karnataka
"Tata Motors Cars Showroom - Manickbag Automobiles, Hubli","Ground Floor, Dharwad Road",Hubli,9.17045E+11,blockading.panning.tethered,Karnataka
"Tata Motors Cars Showroom - Manickbag Automobiles, Haveri","PB Road, Uday Nagar",Haveri,9.18879E+11,strange.purse.unpainted,Karnataka
"Tata Motors Cars Showroom - Manickbag Automobiles, Ankola",Ground Floor,Ankola,9.18291E+11,indulging.costless.midstream,Karnataka
"Tata Motors Cars Showroom - Manickbag Automobiles, Uttara Kannada","No 901/B, Mavalli 01, NH 66",Uttara Kannada,9.18291E+11,frolics.excites.outbuilding,Karnataka
"Tata Motors Cars Showroom - Manickbag Automobiles, Sirsi",AK Groups Building,SIRSI,9.18879E+11,animated.mixing.limits,Karnataka
"Tata Motors Cars Showroom - Manickbag Automobiles, Gadag",Manvi Building,Gadag,9.18879E+11,basic.whirlpool.happy,Karnataka
"Tata Motors Cars Showroom - Bellad Enterprises, Bellary",Ground Floor,Bellary,9.17045E+11,cursing.beauty.ranged,Karnataka
"Tata Motors Cars Showroom - Bellad Enterprises, Dam Road",No 465/B/1/A/1,Hosapete,9.18879E+11,patting.bibs.racks,Karnataka
"Tata Motors Cars Showroom - Bellad Enterprises Pvt Ltd, Koppal","Plot No 2, Survey No 263/1 Extention",Koppal,9.18879E+11,growth.rosier.bangle,Karnataka
"Tata Motors Cars Showroom - Bellad Enterprises, Gangawati","Ground Floor, Malatesh Complex",Koppal,9.18291E+11,waltzed.zoom.pockets,Karnataka
"Tata Motors Cars Showroom - Bellad Enterprises, Raichur",Ground Floor,Raichur,9.18879E+11,inflict.analogy.interacts,Karnataka
"Tata Motors Cars Showroom - Bellad Enterprises, Sindhanur","Gangawati Road, Shivanappa Complex",Sindhanur,9.19619E+11,thin.baseless.bike,Karnataka
"Tata Motors Cars Showroom - Manickbag Automobiles, Gulbarga","1st Phase, Industrial Area, Humnabad Road, Kapnoor",Kalaburagi,9.18879E+11,snoozing.navy.tissue,Karnataka
"Tata Motors Cars Showroom - Manickbag Automobiles, Shahpur",Ground Floor,Gulbarga,9.19167E+11,tech.could.devalued,Karnataka
"Tata Motors Cars Showroom - Manickbag Automobiles, Bidar",Sai Nagar Gate,Bidar,9.19619E+11,poised.meddled.rotary,Karnataka
"Tata Motors Cars Showroom - Bijjargi Motors, Bijapur","NH 13, Bye Pass, Indi Road cross",Bijapur,9.17045E+11,gold.pegs.madder,Karnataka
"Tata Motors Cars Showroom - Bijjargi Motors, Bagalkot","Plot No 113/A, KIADB",Bagalkot,9.18291E+11,present.tester.grumbled,Karnataka
"Tata Motors Cars Showroom - Bijjargi Motors, Ilkal",Pattanshetty Building,Ilkal,9.18879E+11,celebrant.outstrips.stormy,Karnataka
"Tata Motors Cars Showroom - Bijjargi Motors, Jamakhandi","Plot No 5122/A & 5123D, Kudachi Road",Jamkhandi,9.18879E+11,additives.pardon.receive,Karnataka
"Tata Motors Cars Showroom - Manickbag Automobiles, Belgaum","No 691, Bemciel Industrial Estate, Khanapur Road, NH4 A",Belgaum,9.17045E+11,tricycle.madness.backs,Karnataka
"Tata Motors Cars Showroom - Manickbag Automobiles, Chikodi",Hakkare Building,Chikodi,9.18291E+11,lawns.storming.prowess,Karnataka
"Tata Motors Cars Showroom - Manickbag Automobiles, Athani",Sy No 605,Belgaum,9.18879E+11,modes.signature.districts,Karnataka
"Tata Motors Cars Showroom - Manickbag Automobiles, Gokak","RS No 104/19, Maruti Goudar Complex, Shivaji Circle",Gokak,9.18879E+11,buffoon.obliging.nibbles,Karnataka
"Tata Motors Cars Showroom - KVR Dream Vehicles, Nadal","Ground Floor, Kizhunna, Chirakku Thazhe",Kannur,9.17045E+11,newsreel.jams.chat,Kerala
"Tata Motors Cars Showroom - KVR Dream Vehicles, Jubilee Road",KVR Building,Thalassery,9.18879E+11,gained.evening.wager,Kerala
"Tata Motors Cars Showroom - KVR Dream Vehicles, Highway Taliparamba",Ground Floor,Taliparamba,9.18879E+11,arrow.winds.bookings,Kerala
"Tata Motors Cars Showroom - KVR Dream Vehicles, Payyannur","Ground Floor, NH Kandoth",Payyanur,9.18879E+11,dimes.coconuts.playfully,Kerala
"Tata Motors Cars Showroom - KVR Dream Vehicles, Cherupuzha","Edakkara Building, Payyanur Cherupuzha Road",Kannur,9.18879E+11,retaliated.lovebirds.concerto,Kerala
"Tata Motors Cars Showroom - KVR Dream Vehicles, Sreekandapuram",Ground floor,Kannur,9.18292E+11,innovate.swarming.blackout,Kerala
"Tata Motors Cars Showroom - Rotana Motor, Nalloornad","Ground Floor, Pastoral Centre",Mananthavady,9.18879E+11,deceived.capers.blotted,Kerala
"Tata Motors Cars Showroom - KVR Dream Vehicles, Panoor","Makoolpeedika, Mokeri",Kannur,9.19167E+11,rejuvenate.deadened.handouts,Kerala
"Tata Motors Cars Showroom - KVR Dream Vehicles, Payancheri Mukku","Ground Floor, Iritty Peravoor Road",Iritty,9.18879E+11,blip.confusingly.correlations,Kerala
"Tata Motors Cars Showroom - KVR Dream Vehicles, Alampady","Nainmarmoola, Vidya Nagar",Kasaragod,9.18879E+11,skater.split.fidgeting,Kerala
"Tata Motors Cars Showroom - KVR Dream Vehicles, Kovvalpally",Ground Floor,Kanhangad,9.18879E+11,quantity.action.lifetimes,Kerala
"Tata Motors Cars Showroom - KVR Dream Vehicles Pvt Ltd, Hidayath Nagar",Ground Floor,Kasaragod,9.18291E+11,provident.dedicates.offerings,Kerala
"Tata Motors Cars Showroom - Rotana Motor, Kannur Road",Building No 6/1026,Kozhikode,9.17045E+11,digestion.amending.rationing,Kerala
"Tata Motors Cars Showroom - Marina Motors, West Hill","Ground Floor, Crescent Building, Varackal Junction, Chungam",Kozhikode,9.17045E+11,insert.outline.initiated,Kerala
"Tata Motors Cars Showroom - Marina Motors, Bypass Road",Ground Floor,Kozhikode,9.17045E+11,odds.slung.clenching,Kerala
"Tata Motors Cars Showroom - Rotana Motor, Payyoli",Ground Floor,Kozhikode,9.18291E+11,nips.enumerating.groom,Kerala
"Tata Motors Cars Showroom - Rotana, Kozhikode","3/447 B, Areekkad Main Road, Byepass Junction",Kozhikode,9.19167E+11,entitle.unlimited.sulk,Kerala
"Tata Motors Cars Showroom - Marina Motors, NH Kannur Road","Nh Bypass Road, Kainatty, Vadakara",Vadakara,9.18879E+11,unpromising.inboxes.irritated,Kerala
"Tata Motors Cars Showroom - Marina Motors, Kalpetta","Kainatty, Bathery Road",Kalpetta,9.18879E+11,motifs.butterfly.arched,Kerala
"Tata Motors Cars Showroom - Marina Motors, kallachi","Sneha Aimel Shopping Complex, Kuttiyadi Road",Nadapuram,9.18879E+11,horn.swan.hacksaw,Kerala
"Tata Motors Cars Showroom - Rotana, Kuttiyadi","No 7/82/B/C, Wayanad Road, Thaliyil",Kozhikode,9.18879E+11,enthralling.glassful.mermaids,Kerala
"Tata Motors Cars Showroom - Rotana Motor, Kallode","GF, CKG Memorial Government College",Perambra,9.18879E+11,constructed.feature.tethered,Kerala
"Tata Motors Cars Showroom - Rotana Motor, Koduvally",Ground Floor,Kozhikode,9.19167E+11,boisterous.resuming.deregulated,Kerala
"Tata Motors Cars Showroom - Marina Motors, Karadi",Ground Floor,Thamarassery,9.18879E+11,glitches.picker.anyhow,Kerala
"Tata Motors Cars Showroom - Marina Motors, Bathery","Dottappankulam, Nh 766",Sultan Bathery,9.18879E+11,catacombs.keeps.bitterest,Kerala
"Tata Motors Cars Showroom - Marina Motors, Agastiamuzhi","Ulpurath Building, Kozhikode Road",Mukkam,9.18879E+11,nightingale.cabling.pretext,Kerala
"Tata Motors Cars Showroom - Marina Motors, Naduvannur",Ulliyery Perambra NH,Naduvannur,9.19167E+11,mannequin.openly.turtlenecks,Kerala
"Tata Motors Cars Showroom - KVR Automotive, Kondotty","Ground Floor, Kuruppath",Malappuram,9.18879E+11,givers.batted.resized,Kerala
"Tata Motors Cars Showroom - KVR Automotive, Naduvilangadi",AAK Tower,Tirur,9.18879E+11,giant.sneezing.items,Kerala
"Tata Motors Cars Showroom - KVR Automotive, Manjeri",Kozhikode Malappuram Bypass,Manjeri,9.18879E+11,lions.gobbles.episodes,Kerala
"Tata Motors Cars Showroom - Kvr Automotive Pvt Ltd, Malappuram","No 3/133A, Oorakam, Parappanagadi Road, Urakam",Malappuram,9.1888E+11,reinserted.shifted.sidebar,Kerala
"Tata Motors Cars Showroom - Luxon Motors, Chemmad","Survey No S 430/05, Ground Floor, Chemmad Thalappara Rd, Chemmad",Malappuram,9.1888E+11,amnesties.bulldozed.freeways,Kerala
"Tata Motors Cars Showroom - KVR Automotive, Kottakkal","Ground Floor, NH 66",Malappuram,9.18879E+11,poolside.interfacing.scrubbing,Kerala
"Tata Motors Cars Showroom - KVR Automotive, Palakkad",Junction Koppam,Palakkad,9.18291E+11,lift.covenants.isolating,Kerala
"Tata Motors Cars Showroom - KVR Automotive, Chittur","Yashodha Archade, Anikkode",Palakkad,9.17045E+11,crouching.neatness.performers,Kerala
"Tata Motors Cars Showroom - KVR Automotive, Mannarkkad","Building No 1/561, 1/562, 1/563",Palakkad,9.17045E+11,thunder.dancer.holiday,Kerala
"Tata Motors Cars Showroom - KVR Automotive, Pattambi",Koppan Trade Center,Palakkad,9.17045E+11,fevered.patrolman.stills,Kerala
"Tata Motors Cars Showroom - KVR Automotive, Veliyamthode",Ground Floor,Nilambur,9.18879E+11,encoder.agitated.unfriendly,Kerala
"Tata Motors Cars Showroom - Luxon Motors, Edakkara","Ground floor, Kalasagar",Malappuram,9.18292E+11,chambermaid.whereby.disband,Kerala
"Tata Motors Cars Showroom - KVR Automotive, Perinthalmanna","No 10/233A, Chola Tower, Tirurkad",Malappuram,9.17045E+11,intrusions.unaware.antibodies,Kerala
"Tata Motors Cars Showroom - KVR Automotive, Ottapalam","Building No 8/728, Chembak Vilas",Palakkad,9.17045E+11,reporters.learning.angel,Kerala
"Tata Motors Cars Showroom - KVR Automotive, Alathur","Building No 6/916, PMA Tower, NH 544",Akampadam,9.17045E+11,fruit.camps.speedway,Kerala
"Tata Motors Cars Showroom - KVR Automotive, Edappal","Kaladithara, Tirur Road",Malappuram,9.18879E+11,craggy.intricate.ribbing,Kerala
"Tata Motors Cars Showroom - KVR Tata, Ponnani","06/303A, Convent Road",Ponnani,9.1888E+11,game.register.situates,Kerala
"Tata Motors Cars Showroom - Luxon Motors, Kavil Padi",Ground Floor,Edappal,9.18291E+11,pills.infusing.abbreviation,Kerala
"Tata Motors Cars Showroom - Hyson Motors, Punkunnam","Puzhakkal Padam, Guruvayur Road",Thrissur,9.17045E+11,protrude.peanut.media,Kerala
"Tata Motors Cars Showroom - Hyson Motors, Irinjalakuda","Building No A/249, Vellookkara, Nadavaramba",Thrissur,9.19167E+11,postcard.words.movements,Kerala
"Tata Motors Cars Showroom - Hyson Motors, Marathakkara","No 19/280, 19/281, Kunjanampara, NH 47 Bye Pass",Thrissur,9.17045E+11,converged.buckling.angle,Kerala
"Tata Motors Cars Showroom - Hyson Motors, Potta","Ground Floor, Pamappilly College Junction",Chalakudi,9.18879E+11,instructions.activating.interlocks,Kerala
"Tata Motors Cars Showroom - Hyson Motors, Kunnamkulam Guruvayoor Road","Building No 227/A, Kottapadi Jn",Guruvayur,9.18879E+11,inhibitors.decommission.scandalous,Kerala
"Tata Motors Cars Showroom - Hyson Motors, Akkikavu",Door No 7/245G,Kunnamkulam,9.18879E+11,fees.quarterfinal.lipstick,Kerala
"Tata Motors Cars Showroom - Hyson, Wadakkanchery",Chelakkara Road,Wadakkanchery,9.18291E+11,diminish.transplant.inducted,Kerala
"Tata Motors Cars Showroom - Hyson Motors, Thiruvilwamala","No 1246/1, Baazamo Tower",Thrissur,9.18879E+11,newsmaker.unexpressed.crowding,Kerala
"Tata Motors Cars Showroom - Hyson Motors, Kottappuram","Door No 12/122 A and B, Methala, TKS Puram, NH 17",Kodungallur,9.18879E+11,unlocking.later.campsites,Kerala
"Tata Motors Cars Showroom - Hyson Motors, Chenthrapini","Building No 8/837B, 239 B, C & D, Edathiruthi",Thrissur,9.19167E+11,gyrate.replayed.browned,Kerala
"Tata Motors Cars Showroom - Luxon Motors, Mattancherry","No 9/3A, P M Arcade, Moulana Azad Rd, Mattancherry",Mattancherry,9.1888E+11,verb.hoops.denote,Kerala
"Tata Motors Cars Showroom - Sree Gokulam Motors, MG Road","Gokulam Towers, Jose Junction",Ernakulam,9.19167E+11,trio.freely.rucksack,Kerala
"Tata Motors Cars Showroom - Malayalam Vehicles, Vyttila","No 52/3171, 3172, Sharon Tower",Ernakulam,9.17045E+11,silly.gladiators.handyman,Kerala
"Tata Motors Cars Showroom - Luxon Motors Private Limited, Irumpanam",Kanathu Kadavu,Ernakulam,9.18879E+11,wounds.parenthesis.stretch,Kerala
"Tata Motors Cars Showroom - Malayalam Vehicles, Kakkanad","IFIL Tower, Seaport Airport Road",Ernakulam,9.19167E+11,undertone.reduction.manages,Kerala
"Tata Motors Cars Showroom - Sree Gokulam Motors, Edappally","Skyline Gateway Apartments, Pathadipalam",Ernakulam,9.19167E+11,task.stated.desk,Kerala
"Tata Motors Cars Showroom - Sree Gokulam Motors, Nettoor","Building No 30111/434 B, 434 B1, NH 66, Bye Pass",Ernakulam,9.17045E+11,bindings.luggage.tailored,Kerala
"Tata Motors Cars Showroom - Sree Gokulam Motors, Aikkaranadu South","No 4/681A, Puthencruz",Ernakulam,9.18291E+11,compendium.mitigating.editorially,Kerala
"Tata Motors Cars Showroom - Malayalam Vehicles, Aluva West","Building No 18/615/1, 615/2, Sy No 176/2, 176/3",Ernakulam,9.17045E+11,thwart.drizzle.snoozing,Kerala
"Tata Motors Cars Showroom - Malayalam Vehicles, Mannam",Building No 515/A,Paravur,9.18879E+11,chatters.hint.sprinkler,Kerala
"Tata Motors Cars Showroom - Sree Gokulam Motors, Vattakkattupady",MC Road,Perumbavoor,9.18879E+11,tiptoes.gear.saddens,Kerala
"Tata Motors Cars Showroom - Sree Gokulam Motors, Angamaly","Areeckal Junction, Karukutty PO",Angamaly,9.18879E+11,fizzing.pavements.dissection,Kerala
"Tata Motors Cars Showroom - Sree Gokulam Motors, Ambalakavala","Building No 29/264/D, Idukki Road",Kattappana,9.18879E+11,jokes.watchwords.plodded,Kerala
Tata Motors Cars Showroom - Luxon Motors Private Limited,"Ground Floor, Munnar Kumily Highway",Idukki,9.19619E+11,attired.reassembly.flaking,Kerala
"Tata Motors Cars Showroom - Sree Gokulam Motors, Thodupuzha","Ground Floor, Mangatukavala, 4 Line Bypass",Thodupuzha,9.18879E+11,work.walnuts.bedspread,Kerala
"Tata Motors Cars Showroom - Malayalam Vehicles, Muthalakodam","Athickal Arcade, Vengalloor, Vadakkummury",Thodupuzha,9.18879E+11,overture.gratitude.defrost,Kerala
"Tata Motors Cars Showroom - Luxon Motors, Perumbaikad","Ground Floor, Perumbaikkad",Kottayam,9.18291E+11,riverside.banks.blast,Kerala
"Tata Motors Cars Showroom - Malayalam Vehicles, MC Road","No 3/382, Edapputhusseril Building",Koothattukulam,9.18879E+11,gruesomely.anvil.clams,Kerala
"Tata Motors Cars Showroom - Malayalam Vehicles, Muvattupuzha","Door No 8/129, One Way Junction, Keecheripady",Muvattupuzha,9.19167E+11,sharp.rescue.glance,Kerala
"Tata Motors Cars Showroom - Malayalam Vehicles, Kuthukuzhi",No 16/269/D/E,Kothamangalam,9.18879E+11,yacht.rumbling.docking,Kerala
"Tata Motors Cars Showroom - NCS Automotives, South Aryad",Kanjiramchira Muriyil,Alappuzha,9.18879E+11,truces.warbled.bondsmen,Kerala
"Tata Motors Cars Showroom - NCS Automotives, NH 66","Ground Floor, 11th Mile",Cherthala,9.17045E+11,extractions.despising.flounced,Kerala
"Tata Motors Cars Showroom - NCS Automotives P Ltd, Aroor",Kattungalchira Building,Aroor,9.18879E+11,royalties.encapsulate.motorboat,Kerala
"Tata Motors Cars Showroom - NCS Automotives, Kallissery","St Thomas Orthodox Building, Umayattukkara Road",Chengannur,9.18879E+11,replayed.unwound.struck,Kerala
"Tata Motors Cars Showroom - Luxon Motors, Konni","Ground Floor, Mangaram, Mammood Junction",Pathanamthitta,9.18291E+11,cluttered.beards.miss,Kerala
"Tata Motors Cars Showroom - Luxon Motors, Pathanapuram","No 16/804, Pathanapuram",Malappuram,9.1888E+11,tortilla.trader.contested,Kerala
"Tata Motors Cars Showroom - NCS Automotives, Kunnam",Pynumoottil Building,Mavelikara,9.18879E+11,observable.calibrate.speedboat,Kerala
"Tata Motors Cars Showroom - NCS Automotives, Kallumoodu","Ground Floor, NH 66",Kayamkulam,9.17045E+11,fuss.loveliest.punctually,Kerala
"Tata Motors Cars Showroom - Luxon Motors, Bharanikavu","Ground Floor, Bharanikavu Chakuvally Road",Bharanikavu,9.1888E+11,voracity.walkway.investigate,Kerala
"Tata Motors Cars Showroom - Muthoot Automotive, Karunagapally","Ground Floor, NH 66",Karunagapally,9.19167E+11,stinging.overtaking.anomalies,Kerala
"Tata Motors Cars Showroom - Muthoot Automotive, Koickal","Ground Floor, Q S Road",Kollam,9.17045E+11,bikers.tennis.princely,Kerala
"Tata Motors Cars Showroom - Luxon Motors, Paravoor",Paravur Chathannoor Road,Kollam,9.18292E+11,subjunctive.nearly.stick,Kerala
"Tata Motors Cars Showroom - Muthoot Automotive, Punalur",Kayamkulam Punalur Road,Punalur,9.19167E+11,chins.cross.hiker,Kerala
"Tata Motors Cars Showroom - Luxon Motors, Anchal","1/1237 to 1239, 66/8, PKV Memorial Bldg, Blk No 35, NH 208, Alayamon Muri",Kollam,9.17511E+11,balsamic.rescued.bedposts,Kerala
"Tata Motors Cars Showroom - Muthoot Automotive, MC Road","Inchakkal Tower, Lower Karickom",Kottarakara,9.18879E+11,orbits.harvests.worriedly,Kerala
"Tata Motors Cars Showroom - Muthoot Automotive, Chadayamangalam","No 9/802, Dheeraj Arcade",Kollam,9.18879E+11,mallets.fraternity.redirect,Kerala
"Tata Motors Cars Showroom - Muthoot Automotive, Paripally","Ground Floor, NH 66",Paripally,9.19167E+11,sauced.violins.reasserts,Kerala
"Tata Motors Cars Showroom - Luxon Motors, Paruthipara, Trivandrum","Joshua Towers, Trivandrum, Nalanchira",Thiruvananthapuram,9.1888E+11,rooster.highlight.abode,Kerala
"Tata Motors Cars Showroom - Derik Motors, Neeramankara","Derik Plaza, Nagercoil Main Rd, Kaimanam",Thiruvananthapuram,9.17045E+11,husky.loitering.swanky,Kerala
"Tata Motors Cars Showroom - Trivandrum Motors, Poonthura",Enchakkal Kovalam Bypass Road,Thiruvananthapuram,9.17045E+11,booklets.responses.sounds,Kerala
"Tata Motors Cars Showroom - Trivandrum Motors, Anayara",Chackai Venpalavattom Bye Pass,Thiruvananthapuram,9.17045E+11,ulterior.disgraced.sung,Kerala
"Tata Motors Cars Showroom - Trivandrum Motors, Maruthur","NMC 5/455A, Sivapulari",Neyyattinkara,9.18879E+11,edits.comprehends.straightening,Kerala
"Tata Motors Cars Showroom - Trivandrum Motors, Palachira",Richman Tower,Varkala,9.18879E+11,containers.jitter.electrified,Kerala
"Tata Motors Cars Showroom - Derik, Parasala",Parasuvakkal,Thiruvananthapuram,9.18879E+11,incisional.shades.lengths,Kerala
"Tata Motors Cars Showroom - Derik Motors, Mancha","NMC 18/343 & 8, Subair Kunju Memorial Bldg",Nedumangad,9.18879E+11,micro.wants.unfilled,Kerala
"Tata Motors Cars Showroom - Trivandrum Motors, Etiruthy",Krishna Towers,Kattakkada,9.18879E+11,biscuit.starting.reinstall,Kerala
"Tata Motors Cars Showroom - Trivandrum Motors, Kilimanoor",Building No 1033/D,Kilimanoor,9.18879E+11,afternoons.packaged.nonsurgical,Kerala
"Tata Motors Cars Showroom - Derik Motors, Chathanpara","MP 6/754, Jazil Building",Attingal,9.18879E+11,ticketholder.shale.swigs,Kerala
"Tata Motors Cars Showroom - Ladakh Sindh Motors, Leh",Khan Complex,Leh,9.19619E+11,biggest.directors.dissuaded,Ladakh
"Tata Motors Cars Showroom - Varenyam Motor Car, Hoshangabad Road","Khasra No 360/1/1/1, Plot No 14C, Hoshangabad Road, Phase 3",Bhopal,9.17506E+11,forgives.survived.wonderful,Madhya-Pradesh
"Tata Motors Cars Showroom - Varenyam Motor Car, Jinsi Road",No 189,Bhopal,9.17506E+11,either.correctly.defaults,Madhya-Pradesh
"Tata Motors Cars Showroom - Varenyam Motor Car, Chuna Bhatti","C 11 and C 12, Janki Nagar",Bhopal,9.17554E+11,paler.offshore.empires,Madhya-Pradesh
"Tata Motors Cars Showroom - Varenyam Motor Car, JK Road","No 56/57, Govindpura Industrial Area",Bhopal,9.17506E+11,translate.treatment.reckoned,Madhya-Pradesh
"Tata Motors Cars Showroom - Prahlad Abhikaran, Bistan Road",Ground Floor,Khargone,9.17506E+11,quietly.recur.pictures,Madhya-Pradesh
"Tata Motors Cars Showroom - Shyam Automotive, Aditya Nagar","No 4, AB Road",Indore,9.17506E+11,surprised.exchanges.late,Madhya-Pradesh
"Tata Motors Cars Showroom - Jagdish Automotive, Airport Road","No S 8 & 9, Sita Shree Building",Indore,9.19167E+11,september.snooping.sample,Madhya-Pradesh
"Tata Motors Cars Showroom - Jagdish Automotive, Lasudiya Mori","Patwari Halka No 2, Survey No 6/2/2",Indore,9.1962E+11,plums.dusters.prime,Madhya-Pradesh
"Tata Motors Cars Showroom - Sanghi Brothers, Manorama Ganj","Plot No 6, AB Road",Indore,9.17506E+11,author.inserted.parkland,Madhya-Pradesh
"Tata Motors Cars Showroom - Bhagirath, AB Road","G1, G2, Sky Corporate",Indore,9.19619E+11,swaps.proclaims.cello,Madhya-Pradesh
"Tata Motors Cars Showroom - Jagdish Automotive Pvt Ltd, Depalpur","Ground Floor, Betma Road",Depalpur,9.18291E+11,button.cooks.enclosed,Madhya-Pradesh
"Tata Motors Cars Showroom - Bhagirath, Mhow",Hukma Khedi,Mhow,9.18291E+11,encodes.bike.luxury,Madhya-Pradesh
"Tata Motors Cars Showroom - Shyam Automotive, Main Road",Khasra No 236/9,Kukshi,9.18879E+11,integrally.cobalt.worlds,Madhya-Pradesh
"Tata Motors Cars Showroom - Shyam Automotive, Badnawar","Badnagar Road, 41 Badi Choupati",Dhar,9.18291E+11,coffeemaker.cufflinks.maturing,Madhya-Pradesh
"Tata Motors Cars Showroom - Jagdish Automotive, Dewas","Survey No 276/3, Ward No 15, A B Road",Dewas,9.19109E+11,sprouting.artichoke.rather,Madhya-Pradesh
"Tata Motors Cars Showroom - Jagdish Automotive, Nemawar Road",Ground Floor,Khategaon,9.18291E+11,lamps.professes.phones,Madhya-Pradesh
"Tata Motors Cars Showroom - Sugandh Automobiles, Ujjain","No 32, Dewas Road",Indore,9.19926E+11,wager.speaks.animated,Madhya-Pradesh
"Tata Motors Cars Showroom - Sanghi Brothers, Chak Kamed","No 111, Agar Road",Ujjain,9.17506E+11,showcases.dreamer.blaring,Madhya-Pradesh
"Tata Motors Cars Showroom - Sugandh Automobiles, Ratnakhedi Square","Ground Floor, Bypass Road",Nagda,9.19167E+11,takeaways.resale.continuation,Madhya-Pradesh
"Tata Motors Cars Showroom - Sugandh Automobiles, Mahidpur",Ground Floor,Ujjain,9.19619E+11,tended.newsreel.churning,Madhya-Pradesh
"Tata Motors Cars Showroom - Sanghi, Badnagar",Near Jain Warehouse,Badnagar,9.18879E+11,winds.viciousness.portfolio,Madhya-Pradesh
"Tata Motors Cars Showroom - Sugandh Automotive, Jaora Road",No 12/1,Ratlam,9.17506E+11,hurls.ticket.nicely,Madhya-Pradesh
"Tata Motors Cars Showroom - Sugandh Automotive, Jaora",Ratlam Naka,Jaora,9.19167E+11,regressing.sharer.abstracting,Madhya-Pradesh
"Tata Motors Cars Showroom - Sugandh Automotive, Jhabua","12155, Kalyanpura House",Jhabua,9.19619E+11,grins.commutes.tucked,Madhya-Pradesh
"Tata Motors Cars Showroom - Sugandh Automotive, Steel Nagar",Krishi Mandi Road,Mandsaur,9.18879E+11,builds.driving.landscape,Madhya-Pradesh
"Tata Motors Cars Showroom - Sugandh Automotive, Mhow Road",Ground Floor,Neemuch,9.18879E+11,upholding.ticking.tailwind,Madhya-Pradesh
"Tata Motors Cars Showroom - Sugandh Automotive, Shamgarh",Ground Floor,Shamgarh,9.18879E+11,cute.port.shelving,Madhya-Pradesh
"Tata Motors Cars Showroom - Sunil Automotives, Badora",Chhindwara Road,Betul,9.18879E+11,dabbing.providing.forest,Madhya-Pradesh
"Tata Motors Cars Showroom - Varenyam Motor Car, Rasuliya",Bhopal Tiraha,Narmadapuram,9.19167E+11,repelled.reactions.sleepless,Madhya-Pradesh
"Tata Motors Cars Showroom - Varenyam Motor Car, Bhopal Road",Ground Floor,Berasia,9.18879E+11,conflicting.enthralled.foliage,Madhya-Pradesh
"Tata Motors Cars Showroom - Varenyam Motor Car, Vidisha",Ground Floor,Vidisha,9.19167E+11,cases.crescendo.standards,Madhya-Pradesh
"Tata Motors Cars Showroom - Varenyam Motor Car, Bareat Road","Ground Floor, Lal Bag Colony",Ganj Basoda,9.18291E+11,crumb.applauded.harp,Madhya-Pradesh
"Tata Motors Cars Showroom - Varenyam Motor Car, Raisen",Patendev,Raisen,9.19167E+11,schematic.engage.shoebox,Madhya-Pradesh
"Tata Motors Cars Showroom - Sugandh Automobiles, Aditya Nagar","Ground Floor, Asian Highway 47, Vigneshwar Nagar, Lalghati",Shajapur,9.19619E+11,columnists.operative.trouser,Madhya-Pradesh
"Tata Motors Cars Showroom - Sanghi Brothers, Dhobi Chauraha",AB Road,Shujalpur,9.18879E+11,booth.reissued.herbs,Madhya-Pradesh
"Tata Motors Cars Showroom - Sanghi Brothers, Bus Stand Road",Ground Floor,Agar,9.18879E+11,selves.ruin.bandwagon,Madhya-Pradesh
"Tata Motors Cars Showroom - Varenyam Motor Car, Bhopal Bypass",Old AB Road,Biaora,9.18879E+11,shallowest.stinging.flirting,Madhya-Pradesh
"Tata Motors Cars Showroom - Varenyam Motor Car, Secra Kheri Road",Ground Floor,Sehore,9.18879E+11,priced.pushed.passports,Madhya-Pradesh
"Tata Motors Cars Showroom - Varenyam Motor Car, Purana Bhopal Road",Ground Floor,Ashta,9.18291E+11,comedies.recessions.dentists,Madhya-Pradesh
"Tata Motors Cars Showroom - Anand Motoren, Chhatarpur Road","NH 86, Makronia",Sagar,9.17506E+11,stricter.inconstant.green,Madhya-Pradesh
"Tata Motors Cars Showroom - Anand Motoren, Bina",Ground Floor,Bina,9.19167E+11,fall.comedy.songbirds,Madhya-Pradesh
"Tata Motors Cars Showroom - Anand Motoren, Damoh",Sagar Bypass,Damoh,9.19167E+11,hoarding.animation.withdrawing,Madhya-Pradesh
"Tata Motors Cars Showroom - Anand Motoren, Chhatarpur",Panna Road,Chhatarpur,9.19167E+11,helpfully.resolved.vessel,Madhya-Pradesh
"Tata Motors Cars Showroom - Anand Motoren, Tikamgarh",Ground Floor,Tikamgarh,9.19167E+11,formidably.refunded.journeyed,Madhya-Pradesh
"Tata Motors Cars Showroom - Seth And Sons, AB Road",Ground Floor,Guna,9.17506E+11,slot.remaking.longingly,Madhya-Pradesh
"Tata Motors Cars Showroom - Seth And Sons, Station Road",Ground Floor,Ashok Nagar,9.18879E+11,indistinct.retakes.customer,Madhya-Pradesh
"Tata Motors Cars Showroom - Samarth Cars, Saraswati Nagar",Shriram Colony,Shivpuri,9.18879E+11,shape.beaten.spill,Madhya-Pradesh
"Tata Motors Cars Showroom - Samarth Cars, Shivpuri Link Road",Ground Floor,Gwalior,9.17506E+11,lunching.pencils.dabble,Madhya-Pradesh
"Tata Motors Cars Showroom - Velocity, Gwalior","Ground Floor, Bhind Road",Gwalior,9.19619E+11,edgy.limped.advancing,Madhya-Pradesh
Tata Motors Cars Showroom - Velocity Automobiles Pvt Ltd,"Ground Floor, Shivaji Marg, Chapparwala Pull Rd,Jayendraganj",Gwalior,9.19619E+11,crunched.whisker.alert,Madhya-Pradesh
"Tata Motors Cars Showroom - Velocity Tata, Dabra","Ground Floor, Gwalior Road, Pichhore Tiraha",Gwalior,9.18879E+11,grips.minute.sunblock,Madhya-Pradesh
"Tata Motors Cars Showroom - Samarth Cars, Maharajpur","Sadar Bazar, Jaura Road, Shiksha Nagar",Morena,9.18879E+11,picnic.hiding.gadgets,Madhya-Pradesh
"Tata Motors Cars Showroom - Velocity Tata, Bhind","Ground Floor, Daboha Mod",Bhind,9.18292E+11,winked.tiptoe.permissive,Madhya-Pradesh
"Tata Motors Cars Showroom - Sunil Automotives, Gram Sarra","Ground Floor, Nagpur Road",Chhindwara,9.18292E+11,friend.condense.book,Madhya-Pradesh
"Tata Motors Cars Showroom - Sunil Automotives, Jabalpur Road",Jaharat Naka,Seoni,9.18879E+11,routines.shiver.squaring,Madhya-Pradesh
"Tata Motors Cars Showroom - Sunil Automotives, Gondia Road","RM City, Navegaon",Balaghat,9.18879E+11,shops.reopened.noose,Madhya-Pradesh
"Tata Motors Cars Showroom - Sunil Automotives, Mandla",Binjhiya,Mandla,9.19167E+11,branched.prop.parks,Madhya-Pradesh
"Tata Motors Cars Showroom - Frontier Motocorp, Dindori","Property No 33/3/1, Ward No 1",Dindori,9.19167E+11,before.duos.whistled,Madhya-Pradesh
"Tata Motors Cars Showroom - Commercial Automobiles, Napier Town","No 124, Shastri Bridge",Jabalpur,9.17506E+11,annotated.cover.ants,Madhya-Pradesh
"Tata Motors Cars Showroom - Frontier Motocorp, Karmeta","No 242/2, Frontier Logistics Park, Katangi Road",Jabalpur,9.1888E+11,headboard.broccoli.crumples,Madhya-Pradesh
"Tata Motors Cars Showroom - Frontier Motocorp, Madan Mahal",Nagpur Road,Jabalpur,9.17506E+11,marzipan.imply.wage,Madhya-Pradesh
"Tata Motors Cars Showroom - Commercial Automobiles, Madhav Nagar",Ground Floor,Katni,9.18879E+11,movies.nectarine.envoy,Madhya-Pradesh
"Tata Motors Cars Showroom - Frontier Motocorp, Gortara Road","Plot No 7, Kh No 338/7",Shahdol,9.17771E+11,embarking.leathery.multitask,Madhya-Pradesh
"Tata Motors Cars Showroom - Frontier Motocorp, Anuppur",Ground Floor,Anuppur,9.18291E+11,taste.wackiness.readout,Madhya-Pradesh
"Tata Motors Cars Showroom - Frontier Motocorp, Kotma","Ward No 1, Manendragarh Road",Anuppur,9.18879E+11,waltzing.converts.flail,Madhya-Pradesh
"Tata Motors Cars Showroom - RR Automobiles, Virat Nagar","Panna Road, Pateri",Satna,9.19619E+11,grinning.trips.utensil,Madhya-Pradesh
"Tata Motors Cars Showroom - Frontleaf Motors Pvt Ltd, Chorahata","Ward No 4, Satna Road",Rewa,9.18291E+11,scooters.resonate.substitution,Madhya-Pradesh
"Tata Motors Cars Showroom - RR Automobiles, Sidhi",Ground Floor,Sidhi,9.18292E+11,harshest.even.avowal,Madhya-Pradesh
"Tata Motors Cars Showroom - RR Automobiles, Waidhan","Vindhya Nagar Road, Dhoti",Singrauli,9.18879E+11,bars.geese.delay,Madhya-Pradesh
"Tata Motors Cars Showroom - Frontier Motocorp, Narsimhapur",Hemraj Complex,Narsinghpur,9.19167E+11,horn.shop.crossings,Madhya-Pradesh
"Tata Motors Cars Showroom - RR Automobiles, Chhatarpur Road","Ground Floor, Chhatarpur Road",Panna,9.19619E+11,finding.shabbiness.disposable,Madhya-Pradesh
"Tata Motors Cars Showroom - Inderjit Cars, Boisar","Atithi Hall, Betegaon Maan Road",Palghar,9.18879E+11,cheer.incisively.requirements,Maharashtra
"Tata Motors Cars Showroom - Wasan Motors, Marine Lines","No 3 & 4, Pearl Mansion, 91 Maharshri Karve Marg",Mumbai,9.17039E+11,ballpoint.multiply.boarding,Maharashtra
"Tata Motors Cars Showroom - Puneet Cars, Prabhadevi","Lloyds Centre Point, Appasaheb Marathe Marg",Mumbai,9.17039E+11,professed.wants.foster,Maharashtra
"Tata Motors Cars Showroom - Wasan Motors, Bandra West","Plot No 565, Kailash Enclave, 32nd National College Road",Mumbai,9.18879E+11,romantics.strut.gliding,Maharashtra
"Tata Motors Cars Showroom - Trident Motors, Andheri West","CTS 5 & 6, 812/813, Nasar Residency, CD Barfiwala Road, Juhu Lane",Mumbai,9.17039E+11,cake.steadier.jiffy,Maharashtra
"Tata Motors Cars Showroom - Wasan Motors, Borivali East","Unit 3 & 4, Blue Rose Industrial Estate, Western Express Highway",Mumbai,9.17045E+11,spirit.crabmeat.gamer,Maharashtra
"Tata Motors Cars Showroom - Wasan Motors, Kandivali","No 3, Mahatma Gandhi Cross Road No 1, Sai Ngr, BMC Industrial Estate",Mumbai,9.1962E+11,compelled.shapes.outsiders,Maharashtra
"Tata Motors Cars Showroom - Puneet Cars, Malad","Charmurthy Compound, Link Road, Chincholi Bunder",Mumbai,9.19619E+11,lollipop.tricks.dreamer,Maharashtra
"Tata Motors Cars Showroom - Wasan Motors, Chembur","No 4, Wasan House, Swastik Park, Sion Trombay Road",Mumbai,9.17045E+11,polishing.slipping.pinging,Maharashtra
"Tata Motors Cars Showroom - Puneet Cars Pvt Ltd, Andheri","No 1A to 1C, T Square CHS, Saki Vihar Road",Mumbai,9.19168E+11,march.elder.incursion,Maharashtra
"Tata Motors Cars Showroom - Trident, Vikhroli West","96, LBS Marg",Mumbai,9.18879E+11,proclaims.liberty.anguished,Maharashtra
"Tata Motors Cars Showroom - Keshva Motors, Mulund","Shop No 10/11, Marathon Max CHS, Mulund Goregaon Link Rd",Mumbai,9.17045E+11,flap.stiletto.crescendo,Maharashtra
"Tata Motors Cars Showroom - Inderjit Cars, Andheri West","A/7,41,Gujarati Samaj Bhavan,Adarsh Ngr, Oshiwara New Link Rd",Mumbai,9.18879E+11,pushover.allies.winter,Maharashtra
"Tata Motors Cars Showroom - Heritage Motors, Panchpakhadi","Office No 1 to 4, Meena Apartment, EE Highway",Thane,9.17045E+11,robe.loopholes.truckload,Maharashtra
"Tata Motors Cars Showroom - Heritage Motors, Ghodbunder Road","Shop No 1, Ghodbandar Road, Kavesar",Thane,9.17045E+11,wades.removed.twitching,Maharashtra
"Tata Motors Cars Showroom - Fortune Cars, Vashi","No 10 Satra Plaza, Palm Beach Road",Navi Mumbai,9.18291E+11,shackles.unsecured.belong,Maharashtra
"Tata Motors Cars Showroom - Fortune Cars, Nerul","Plot No D 232, TTC Industrial Area, MIDC",Navi Mumbai,9.17045E+11,cried.reunion.compress,Maharashtra
"Tata Motors Cars Showroom - Well Wisher Cars, Airoli","Plot No KX14, Krishna Business Park, Dighe",Navi Mumbai,9.18879E+11,hindered.puff.spits,Maharashtra
"Tata Motors Cars Showroom - Inderjit Cars, Mira Road","Ground Floor, Platinum Building",Thane,9.17045E+11,disbanded.hawks.wizard,Maharashtra
"Tata Motors Cars Showroom - Suryoday Auto, Vasai","Building No 6, Gala No 3 & 4, Raj Prabha",Vasai,9.17045E+11,thinks.sunk.perusing,Maharashtra
"Tata Motors Cars Showroom - Suryoday Auto, Virar","Shop No 12, GF, Krishna Kutir CHS Ltd, Old Viva College Road",Virar,9.18879E+11,bookcases.skis.shorter,Maharashtra
"Tata Motors Cars Showroom - Suryoday Auto, Palghar","Shop No 1 to 3, Ground Floor, Fortune Solitaire",Palghar,9.18879E+11,geologist.verge.forget,Maharashtra
"Tata Motors Cars Showroom - Suryoday Auto, Dahanu","Gala No 3, BK 106/43, Ground Floor, Rani Minnat Enclave",Thane,9.18879E+11,stealthier.twice.asset,Maharashtra
"Tata Motors Cars Showroom - Suryoday Auto, Talasari",3/4 Dwarka Enclave,Talasari,9.18292E+11,accost.flexes.puppetry,Maharashtra
"Tata Motors Cars Showroom - Heritage, Alibagh",Veshvi,Alibaug,9.19167E+11,outsiders.airbase.carver,Maharashtra
"Tata Motors Cars Showroom - Heritage Motors, Panvel","Plot No 41, Panvel Ind Cooperative Estate Ltd",Panvel,9.17045E+11,qualifier.poetry.seagull,Maharashtra
"Tata Motors Cars Showroom - Heritage, Karjat",Old Mumbai Pune Highway,Panvel,9.19167E+11,overcomes.probing.diagram,Maharashtra
"Tata Motors Cars Showroom - Sridha Motors, Chakan","Gat No 143/3, Pune Nashik Highway",Pune,9.17045E+11,surgeons.sadness.uncarpeted,Maharashtra
"Tata Motors Cars Showroom - Sridha Motors, Manchar","Ground floor, Pune Nashik Highway, Manchar",Pune,9.18291E+11,monologue.megaphones.browbeaten,Maharashtra
"Tata Motors Cars Showroom - Sridha Motors, Junnar Phata",Pune Nashik Highway,Narayangaon,9.18879E+11,embodied.evolve.antinuclear,Maharashtra
"Tata Motors Cars Showroom - Garve, Wakdewadi","SN 3, Mayfair Towers, Sphurti Society, Old Mumbai Pune Highway",Pune,9.19167E+11,drops.arranges.dubbing,Maharashtra
"Tata Motors Cars Showroom - Rudra Motors, Viman Nagar","Sr No 198/1B/B, GF, 24K World Residences, SN 3A & 3B, Nagar Road",Pune,9.19167E+11,starch.describe.handicaps,Maharashtra
"Tata Motors Cars Showroom - Dev Motors, SB Road","CTS 968/969, Business Centre Apartment, SB Road",Pune,9.19619E+11,radiates.domain.giggled,Maharashtra
Tata Motors Cars Showroom - MP Automotors Private Limited,"No A/12, Plot No 58, F2 Block, Gr Flr, Yashashree Ind Premises",Pimpri Chinchwad,9.18291E+11,fillings.provider.interacts,Maharashtra
"Tata Motors Cars Showroom - Sai Baba Autowheels, Hadapsar","Shop No 9, Futura Building, Magarpatta Road",Pune,9.19167E+11,luring.fear.emeralds,Maharashtra
"Tata Motors Cars Showroom - Garve, Tathawade",S No 129/23/1,Pune,9.18291E+11,forgives.planting.onion,Maharashtra
"Tata Motors Cars Showroom - Sai Baba Autowheels, Kalewadi","No 5/4, Kalewadi Main Rd, Nakhate Nagar",Pune,9.17045E+11,abstracts.order.apartment,Maharashtra
"Tata Motors Cars Showroom - Dev Motors, Bibwewadi",Sr No 691/A/1/B,Pune,9.1888E+11,flotation.tools.flute,Maharashtra
"Tata Motors Cars Showroom - Panchjanya Automobiles, Bhosri","No 688/2B, Shri Sai Venkata Trade Center, Pune Nashik Highway",Pune,9.17045E+11,swooned.aboard.breezes,Maharashtra
"Tata Motors Cars Showroom - Garve, Baner","Showroom No 3, Supreme Head Quarter, Sr No 36/2",Pune,9.18291E+11,composes.postcard.vowing,Maharashtra
"Tata Motors Cars Showroom - MP Automotors, Katraj","Shop No 6 to 9, Gr Floor, Excella Plazzo, Katraj Bypass Rd",Pune,9.1888E+11,ropes.mills.villager,Maharashtra
"Tata Motors Cars Showroom - Panchajanya Automobile, Warje","Survey No 130, GF, Audambar Building",Pune,9.19167E+11,tallest.orbited.thumps,Maharashtra
"Tata Motors Cars Showroom - Panchjanya Automobiles, Talegaon","Gate No 111, Chakan Fata, Old Pune Mumbai Highway",Pune,9.18879E+11,entertained.types.iconic,Maharashtra
"Tata Motors Cars Showroom - Panchjanya Automobile, Pirangut Road","Gat No 138/1, Balaji Krupa, Lavelle Phata",Pune,9.18292E+11,adjust.barrel.slides,Maharashtra
"Tata Motors Cars Showroom - Rudra Motors, Uruli Kanchan",Ground Floor,Pune,9.18292E+11,oaks.tracks.condoning,Maharashtra
"Tata Motors Cars Showroom - Jay Automotive, Kedgaon",Pune Solapur Highway,Pune,9.18879E+11,soberly.nominate.taverns,Maharashtra
"Tata Motors Cars Showroom - Panchjanya Automobile, Khed Shivapur","Gat No. 785/A, Satara Road",Khed Shivapur,9.18879E+11,scenery.estuaries.grapefruits,Maharashtra
"Tata Motors Cars Showroom - Dev Motors, Bhor","924, Utroli Rambag",Bhor,9.18291E+11,duets.railed.informing,Maharashtra
"Tata Motors Cars Showroom - Rudra Motors, Wagholi",Gat No 1343/A,Pune,9.17045E+11,reporters.branded.stolen,Maharashtra
"Tata Motors Cars Showroom - Sridha Motors, Shirur","Gat No 315, Pune Nagar Highway",Pune,9.19167E+11,mime.naps.uninspiring,Maharashtra
"Tata Motors Cars Showroom - Devaki Motors Llp, Saswad","No 601/7, Chandan Tekadi",Pune,9.18291E+11,littering.writings.lopsided,Maharashtra
"Tata Motors Cars Showroom - Sai Baba Autowheels Pvt Ltd, Hadapsar","S No 281, Shree Capital, Laxmi Colony, Solapur Road",Pune,9.18291E+11,vocals.whom.gambles,Maharashtra
"Tata Motors Cars Showroom - Sterling Motors, Bale Pune Road",No 74/3,Solapur,9.17045E+11,melts.airship.gloom,Maharashtra
"Tata Motors Cars Showroom - Jay Automotive, Kasaba","No 48/345/19, Phaltan Road",Baramati,9.17045E+11,airfields.insulated.inches,Maharashtra
"Tata Motors Cars Showroom - Jay Automotive, Indapur","Pandurang Complex, Old Akluj Naka",Indapur,9.18879E+11,proclaims.colder.decompose,Maharashtra
"Tata Motors Cars Showroom - Padmaja, Solapur Dhule Highway","No W/14, MIDC",Osmanabad,9.19167E+11,skies.fright.rosary,Maharashtra
"Tata Motors Cars Showroom - Padmaja, Latur",Ground Floor,Latur,9.18291E+11,hogs.publisher.iceberg,Maharashtra
"Tata Motors Cars Showroom - Padmaja Motors, Kolpa","Gate No 125/126, Nanded Road",Latur,9.1888E+11,prowling.defended.punctuate,Maharashtra
"Tata Motors Cars Showroom - Padmaja, Udgir",Ground Floor,Udgir,9.18879E+11,wiping.rich.crispier,Maharashtra
"Tata Motors Cars Showroom - Padmaja, Umarga","Near Reliance Petrol Pump, Jakekur Chowrasta",Umarga,9.1888E+11,chart.melts.remove,Maharashtra
"Tata Motors Cars Showroom - Sterling Motors, Kedgaon","Ground Floor, Nagar Pune Highway",Ahmednagar,9.17045E+11,climber.typically.streaking,Maharashtra
"Tata Motors Cars Showroom - Max Motors, MIDC","No E2/2, Nagar Manmad Rd",Ahmednagar,9.17045E+11,conspired.dwarf.engine,Maharashtra
"Tata Motors Cars Showroom - Jay Automotive, Dhangarwadi",Plot No A/1/B,Satara,9.18292E+11,trash.asserts.matchbox,Maharashtra
"Tata Motors Cars Showroom - J V Motors, Vita","Ground floor, Sangli Vita Road, 80 ft Road Corner, Vita",Sangli,9.18108E+11,weakening.rotary.surgically,Maharashtra
"Tata Motors Cars Showroom - J V Motors, Islampur",More Colony Corner,Sangli,9.19167E+11,implicitly.decreased.legitimated,Maharashtra
"Tata Motors Cars Showroom - Jay Automotive, Pune Banglore Highway",Plot No 421/3,Karad,9.17039E+11,haircuts.obtain.mount,Maharashtra
"Tata Motors Cars Showroom - SP Cars, Chiplun",Hissa No 41B3,Chiplun,9.18291E+11,clocking.warbler.speedy,Maharashtra
"Tata Motors Cars Showroom - Sp Autohub, Ratnagiri","Plot No A31/1, Midc",Ratnagiri,9.19728E+11,harvest.extent.sediment,Maharashtra
"Tata Motors Cars Showroom - Unity Motors Pvt Ltd, Kolhapur",Udhyam Chambers,Kolhapur,9.19167E+11,shampoo.inversely.jars,Maharashtra
"Tata Motors Cars Showroom - Unity Motors, Ichalkaranji",Magdhum Colony,Ichalkaranji,9.18879E+11,lied.teaches.keyboards,Maharashtra
"Tata Motors Cars Showroom - Unity Motors, Shiroli","Plot No 2/1, Hind Gear Compound, Pune Bangalore Highway",Kolhapur,9.18292E+11,yacht.colleague.engrossed,Maharashtra
"Tata Motors Cars Showroom - Unity Motors, Mudhal Titta","Dwarka Multipurpose Hall, Admapur Road",Mudhal Titta,9.18291E+11,mistletoe.foster.tutored,Maharashtra
"Tata Motors Cars Showroom - Unity Motors, Gokul Shirgaon","Plot No 170/176, NH 4, Pune Bangalore Hwy",Kolhapur,9.17045E+11,nests.scouts.dusters,Maharashtra
"Tata Motors Cars Showroom - J V Motors, Sangli Kolhapur Road","Plot No 534, 3K/535, 2D",Sangli,9.17045E+11,lasted.pilots.skippers,Maharashtra
"Tata Motors Cars Showroom - Unity Motors, Gandhinglaj",Shiv Service,Gadhinglaj,9.18879E+11,ports.pickles.preheated,Maharashtra
"Tata Motors Cars Showroom - SP Cars, Kankavli","H No 526, Ground Floor, Janavali",Kankavli,9.19619E+11,uppermost.darling.trimmer,Maharashtra
"Tata Motors Cars Showroom - Sudarshan Motors, Dombivali","Shop No 1 to 5, Kalyan Shil Road",Thane,9.18879E+11,gentle.tolerable.chew,Maharashtra
"Tata Motors Cars Showroom - Sudarshan Motors, Kalyan","Shop 8/9, Harmony Arcade, Bhiwandi Kalyan Road",Kalyan,9.17045E+11,else.presumes.overtime,Maharashtra
"Tata Motors Cars Showroom - Sudarshan Motors, Ambarnath","Plot No 30, Globe Bussiness Park, Kalyan Badlapur Road",Thane,9.18879E+11,surveyed.obey.factoring,Maharashtra
"Tata Motors Cars Showroom - Sudarshan Motors, Shahpur",Near Traffic Police Station,Shahpur,9.19167E+11,rebuts.mops.rarity,Maharashtra
"Tata Motors Cars Showroom - Sterling Motors, Gadkari Chowk","PB No 033, Old Agra Road",Nashik,9.17045E+11,trending.weeds.stocks,Maharashtra
"Tata Motors Cars Showroom - Max Motors,MIDC, Nashik","Plot No P/11/1 & 2, MIDC",Nashik,9.18292E+11,chosen.arching.describes,Maharashtra
"Tata Motors Cars Showroom - Max Motors, Sinnar","Plot No A/81, MIDC Area",Nashik,9.18292E+11,pickup.career.makeup,Maharashtra
"Tata Motors Cars Showroom - Max Motors, Sangamner","Plot No. 184, Pune Nasik Highway",Sangamner,9.1888E+11,reconnected.maddest.apprentice,Maharashtra
"Tata Motors Cars Showroom - Max Motors, Shirdi",Nagar Manmad Road,Shirdi,9.18879E+11,pardoned.eastward.scholars,Maharashtra
"Tata Motors Cars Showroom - Sterling Motors, Malegaon",Old Agra Road,Malegaon,9.18879E+11,sundial.sobered.pull,Maharashtra
"Tata Motors Cars Showroom - Max Motors, Yeola","Shop No 1 & 2, Plot No 6, Survey No 116, Nagar Manmad Road",Nashik,9.18879E+11,gift.flagpole.establish,Maharashtra
"Tata Motors Cars Showroom - Sanya Motors, Vijapur",Plot No 11/1/1/2506,Vaijapur,9.18291E+11,snacking.collected.chaos,Maharashtra
"Tata Motors Cars Showroom - Ujwal Automotives, Chalisgaon","Maharana Pratap Colony, Captain Corner",Jalgaon,9.19167E+11,bounding.begins.unfolds,Maharashtra
"Tata Motors Cars Showroom - Ujwal Automotives, Awdhan",Mumbai Agra Road,Dhule,9.17045E+11,strongman.digitally.videos,Maharashtra
"Tata Motors Cars Showroom - Ujwal Automotives, Auto Nagar","No 146, Bhusawal Road, NH 6",Jalgaon,9.17045E+11,honing.tortoise.donations,Maharashtra
"Tata Motors Cars Showroom - Ujwal Automotives, Nandurbar","No 1, Neha Park",Nandurbar,9.18879E+11,rice.spending.cupboards,Maharashtra
"Tata Motors Cars Showroom - Mutha, Aurangabad",Opp Mhaske Petrol Pump,Aurangabad,9.18291E+11,forkful.froth.contrived,Maharashtra
"Tata Motors Cars Showroom - Satish Motors, Gajanan Maharaj Mandir Road","Room No 1 and 2, SMS Arcade, Seven Hills",Aurangabad,9.17045E+11,lately.agreement.clusters,Maharashtra
"Tata Motors Cars Showroom - Govind, Jalna Road",Shri Shivajirao Kadam,Beed,9.18292E+11,homeruns.trout.stickers,Maharashtra
"Tata Motors Cars Showroom - Mutha Motors, Aditya Nagar","Aurangabad Jalna Higway, Chandanjira",Jalna,9.1962E+11,destroyer.casual.crabmeat,Maharashtra
"Tata Motors Cars Showroom - Sanya Motors, Chikalthana","P72/1, API Compound, Jalna Road, MIDC",Aurangabad,9.17045E+11,merely.forest.locals,Maharashtra
"Tata Motors Cars Showroom - Govind, Parbhani",Ground Floor,Parbhani,9.19167E+11,purified.prowl.sunbeam,Maharashtra
"Tata Motors Cars Showroom - Govind Cars, Hingoli",Ground Floor,Hingoli,9.1888E+11,celebrate.whistle.shuffle,Maharashtra
"Tata Motors Cars Showroom - Govind, Parli",Ground Floor,Parli,9.19167E+11,bicker.reputable.burst,Maharashtra
"Tata Motors Cars Showroom - Padmaja Motors, Sangavi","Gut No 18/105, Airport Road",Nanded,9.18292E+11,host.universe.bitter,Maharashtra
"Tata Motors Cars Showroom - Padmaja, Degloor","Ambedkar Nagar, Jijau Chowk",Degloor,9.19619E+11,overturned.fairgoers.whimsically,Maharashtra
"Tata Motors Cars Showroom - Padmaja, Kinwat",Ground Floor,Kinwat,9.1888E+11,meatballs.clapping.elongating,Maharashtra
"Tata Motors Cars Showroom - Jaika Motors, Civil lines","PB No 1, Commercial Road 1",Nagpur,9.17045E+11,pointed.agency.headlines,Maharashtra
"Tata Motors Cars Showroom - Jaika Motors, Jalaram Nagar",Old Bhandara Road,Nagpur,9.1993E+11,seashell.sage.relishes,Maharashtra
"Tata Motors Cars Showroom - Aditya Cars, Dhantoli","Ground Floor, Humpyard Road",Nagpur,9.19167E+11,robe.surprised.funnels,Maharashtra
"Tata Motors Cars Showroom - Aditya Cars, Hingna","No C/6, MIDC",Nagpur,9.19619E+11,about.traps.intrigues,Maharashtra
"Tata Motors Cars Showroom - Aditya Cars, Nari Ring Road",Nari Ring Road,Nagpur,9.19167E+11,gazette.testers.oxidation,Maharashtra
"Tata Motors Cars Showroom - Aditya Cars, Katol","Ground Floor, Paradsinga Road",Katol,9.19619E+11,blip.carnation.plastics,Maharashtra
"Tata Motors Cars Showroom - Jaika Motors, Umred",Ground Floor,Umred,9.1888E+11,regaining.stuffy.advising,Maharashtra
"Tata Motors Cars Showroom - Aditya Cars, Gondiya",Bhatiya Complex,Gondiya,9.19167E+11,pothole.scoring.dreading,Maharashtra
"Tata Motors Cars Showroom - Jaika Motors, Bhandara",New Bharat Saw Mill,Bhandara,9.18879E+11,takers.scanty.brittle,Maharashtra
"Tata Motors Cars Showroom - Jaika Motors, Yavatmal Road","House No 1591, Plot No 8, Salod, Hirapur",Wardha,9.18879E+11,ballooned.bloomers.depended,Maharashtra
"Tata Motors Cars Showroom - Jaika Motors, Bapat Nagar","Plot No 3, Nagpur Road",Chandrapur,9.17045E+11,pigtails.deodorant.likeminded,Maharashtra
"Tata Motors Cars Showroom - Jaika Motors, Navegaon",Chandrapur Road,Chandrapur,9.18291E+11,typewritten.algae.stunned,Maharashtra
"Tata Motors Cars Showroom - Mutha Motors, Buldhana","Ground Floor, Circular Road",Buldhana,9.1888E+11,melts.belly.dusters,Maharashtra
"Tata Motors Cars Showroom - Mac Vehicles Private Limited, Akola","Survey No 8, Tapalabad, Balapur Road",Akola,9.18292E+11,talker.comedians.headlight,Maharashtra
"Tata Motors Cars Showroom - Mac Vehicles, Akot",Gokul Colony,Akot,9.1888E+11,sampled.shoppers.branching,Maharashtra
"Tata Motors Cars Showroom - Mac Vehicles, Karanja",Mangrulpir Road Bypass,Karanja,9.17039E+11,goggle.coasters.beefed,Maharashtra
"Tata Motors Cars Showroom - Mutha, Khamgaon","Plot No. 4/8, Layout No.7, Vitthal Nagar",Khamgaon,9.19167E+11,midsection.cabin.leaves,Maharashtra
"Tata Motors Cars Showroom - Mac Vehicles, Washim",Washim Naka,Washim,9.19167E+11,awoke.spite.repeats,Maharashtra
"Tata Motors Cars Showroom - Jaika Motors, Badnera Road",Ground Floor,Amravati,9.17045E+11,tablet.stocky.purchaser,Maharashtra
"Tata Motors Cars Showroom - Jaika Motors, Warud","Indira Chowk, Rajura Road",Amravati,9.18292E+11,float.spires.rebounder,Maharashtra
"Tata Motors Cars Showroom - Mac Vehicles, Lohara","Plot No B 3, Midc",Yavatmal,9.17045E+11,piper.bottled.disarmed,Maharashtra
"Tata Motors Cars Showroom - Mac Vehicles, Mahur Phata","Ground Floor, Pusad",Pusad,9.18879E+11,disposed.reinvesting.unopened,Maharashtra
"Tata Motors Cars Showroom - Mac Vehicles, Wani",Ground Floor,Wani,9.18879E+11,delay.waters.disco,Maharashtra
"Tata Motors Cars Showroom - Tiddim Motors, Kwakeithel","Ground Floor, Airport Road",Imphal,9.17045E+11,observes.branded.clef,Manipur
"Tata Motors Cars Showroom - Tiddim Motors, Leikai",Moirang Konjengbam,Bishnupur,9.19619E+11,mudslides.iniquity.convene,Manipur
"Tata Motors Cars Showroom - Tiddim Motors, Pukhao",Ground Floor,Thoubal,9.18291E+11,naps.typist.caking,Manipur
"Tata Motors Cars Showroom - Frank Motors, Laitkor Rngi Road",House No 15,East Khasi Hills,9.19167E+11,workflow.swung.half,Meghalaya
"Tata Motors Cars Showroom - Frank Motors, Mawiong Rim","No 47, Mawlai, GS Road",East Khasi Hills,9.18291E+11,ebbed.aground.undulating,Meghalaya
"Tata Motors Cars Showroom - Frank Motors, Nongpoh","Ground Floor, Lum Sohdanei",Ri Bhoi,9.16033E+11,admit.lonely.tentacles,Meghalaya
"Tata Motors Cars Showroom - Frank Motors, Jowai","Near Marian Higher Secondary School, Marian Hill",Jowai,9.18291E+11,spans.mammoth.sunset,Meghalaya
"Tata Motors Cars Showroom - National Business Enterprises, Khatla","No E 1, Johnson Estate, Peter Street",Aizawl,9.17045E+11,marked.envoy.whirlpool,Mizoram
"Tata Motors Cars Showroom - National Business Enterprises, Lunglei",Ground Floor,Lunglei,9.18879E+11,exams.spooned.supported,Mizoram
"Tata Motors Cars Showroom - Nili Motors, New Secretariat Road",Ground Floor,Kohima,9.18291E+11,expensive.galaxy.haggis,Nagaland
"Tata Motors Cars Showroom - Nili Motors, Purana Bazaar","House No 1201, NH 29",Dimapur,9.17045E+11,reclined.gala.swells,Nagaland
"Tata Motors Cars Showroom - Nili Motors, Dimapur","Kohima Road, NH 29",Dimapur,9.18292E+11,cheers.acquainted.psyches,Nagaland
Tata Motors Cars Showroom - Shreekhetra Automotives Pvt Ltd,"Plot No 86/88, Ground Floor, AH 45, NH 16, Johal, Khordha",Bhubaneswar,9.18291E+11,digesting.worlds.resources,Odisha
"Tata Motors Cars Showroom - Dion Automotives, Samantarapur","Plot No 2175/3766, Old Town",Bhubaneswar,9.17045E+11,alike.amicably.atlas,Odisha
"Tata Motors Cars Showroom - Trupti Enterprises, Baramunda","Plot No M/15, NH 16",Bhubaneswar,9.17045E+11,window.confusion.deranged,Odisha
"Tata Motors Cars Showroom - Gugnani Autocars, Mancheswar Industrial Estate","Plot No S3/23, Mancheswar Industrial Estate",Bhubaneswar,9.1888E+11,budgeted.reefs.axed,Odisha
"Tata Motors Cars Showroom - Trupti Enterprises, Patrapada","No 16/17/32/33, Khordha, Bhagabanpur Industrial Area",Bhubaneswar,9.18292E+11,move.prepared.uplifting,Odisha
"Tata Motors Cars Showroom - Trupti Enterprises, Patia","Plot No 66 & 72, Khordha, Chandaka Industrial Estate",Bhubaneswar,9.18292E+11,connects.available.mammoths,Odisha
"Tata Motors Cars Showroom - Dion Automotives, Puri",Main Road,Puri,9.19619E+11,headliner.husband.headache,Odisha
"Tata Motors Cars Showroom - Dion Automotives, Balugaon","Plot No 625/872, Khatiyan 179/389",Balugaon,9.19619E+11,pelvis.reappearing.stampede,Odisha
"Tata Motors Cars Showroom - Trupti Enterprises, Khorda",Plot No 985,Khorda,9.18291E+11,aliens.supposed.streamers,Odisha
"Tata Motors Cars Showroom - Trupti Enterprises, Durga Prasad Main Road",Ground Floor,Nayagarh,9.18291E+11,freeborn.insomnia.peppercorns,Odisha
"Tata Motors Cars Showroom - Shreekhetra Automotives, Khamarsahi","Plot No 158/1494, Chakradharpur, Daspalla",Nayagarh,9.18291E+11,delicacy.hereby.divots,Odisha
"Tata Motors Cars Showroom - Gugnani Autocars, Pratap Nagari","Plot No 785, NH 16",Cuttack,9.17045E+11,closings.friendships.inky,Odisha
"Tata Motors Cars Showroom - Dion Automotives, Sector 11 CDA",Plot No 11/3B/1326,Cuttack,9.1888E+11,barmaid.twit.tricky,Odisha
Tata Motors Cars Showroom - Shreekhetra Automotives,"Ground Floor, Punanga",Jagatsinghpur,9.18879E+11,ants.decking.madder,Odisha
"Tata Motors Cars Showroom - Trupti Enterprises, Udayabata",Udayabata,Paradeep,9.18291E+11,saved.latitudes.gadget,Odisha
"Tata Motors Cars Showroom - Trupti Enterprises Pvt Ltd, Gualsingh",Ground Floor,Kendrapara,9.18291E+11,preview.agitating.increments,Odisha
"Tata Motors Cars Showroom - Gugnani Autocars, Jahana Chowk",Jajpur Road,Jajpur,9.18291E+11,blotting.snooping.ordeals,Odisha
"Tata Motors Cars Showroom - Gugnani Autocars, Chandikhole","SK Kalim Colony, Sungada",Jajpur,9.18291E+11,exerts.sturdier.units,Odisha
"Tata Motors Cars Showroom - Premier Motors, Bampada","Ground Floor, NH 5",Balasore,9.17045E+11,factory.groomed.whiplash,Odisha
"Tata Motors Cars Showroom - Premier Motors, Bhadrak",Ground Floor,Bhadrak,9.18291E+11,exploring.unsurprised.relieves,Odisha
"Tata Motors Cars Showroom - Premier Motors, NH 18",Bypass Palabani,Baripada,9.18291E+11,meteorites.purveyors.retainer,Odisha
"Tata Motors Cars Showroom - Gugnani Autocars, Kendujhar",Ghutur,Kendujhar,9.18292E+11,successive.deafening.seedless,Odisha
"Tata Motors Cars Showroom - Monalisha Motors, Dhenkanal",Dakhinakali Road,Dhenkanal,9.19619E+11,duet.reissued.conga,Odisha
"Tata Motors Cars Showroom - Monalisha Motors, Nalco Nagar","Ground Floor, Kandasar",Angul,9.17045E+11,jitter.manifesto.choppy,Odisha
"Tata Motors Cars Showroom - Dion Automotives, Kamapalli Main Road",Tata Benz Square,Brahmapur,9.18291E+11,drums.shippers.shins,Odisha
Tata Motors Cars Showroom - Shreekhetra Automotives Pvt Ltd,"Ground Floor, Kashinagar Road",Parakhamundi,9.18879E+11,disconnects.respected.packaged,Odisha
"Tata Motors Cars Showroom - Dion Automotives, Phulbani","C/o Aaniska Resorts Pvt Ltd, FCI Chhak",Phulbani,9.19619E+11,musician.alley.diver,Odisha
"Tata Motors Cars Showroom - Lankeswari Motors, Hatpada","Plot No 576, 1378 and 3792",Jeypore,9.17045E+11,tasty.farmer.tint,Odisha
"Tata Motors Cars Showroom - Lankeswari Motors Pvt Ltd, Jeypiria Guda",Ground Floor,Malkangiri,9.18292E+11,limitless.publisher.burglars,Odisha
"Tata Motors Cars Showroom - Lankeswari Motors, Kothapeta",Ground Floor,Rayagada,9.18291E+11,revved.stalling.margarine,Odisha
"Tata Motors Cars Showroom - Lankeswari Motors, Permanandapur",Kesinga Road,Bhawanipatna,9.18291E+11,prominent.laces.prosper,Odisha
"Tata Motors Cars Showroom - Lankeswari Motors Pvt Ltd, Main Road",NH 353,Nuapada,9.18291E+11,flouts.calendars.ecstatic,Odisha
"Tata Motors Cars Showroom - Lankeswari Motors, Balangir","NH 26, Madhiapali",Balangir,9.18879E+11,storage.embellish.chat,Odisha
"Tata Motors Cars Showroom - Lankeswari Motors, Sonepur",Plot No 11/2671,Sonapur,9.18291E+11,breathing.targeted.painting,Odisha
"Tata Motors Cars Showroom - Lankeswari Motors, NH 6",Remed,Sambalpur,9.17045E+11,foiled.scout.shortens,Odisha
"Tata Motors Cars Showroom - Lankeswari Motors, Bargarh",Haldipali Chowk,Bargarh,9.18879E+11,lambing.impartially.extroverts,Odisha
"Tata Motors Cars Showroom - Lankeswari Motors, Jharsuguda",Sambalpur Rourkela Highway,Jharsuguda,9.18291E+11,slept.ground.worldwide,Odisha
"Tata Motors Cars Showroom - Balram Motors, Dandiapalli",Ground Floor,Rourkela,9.17045E+11,satellite.zodiac.gaskets,Odisha
"Tata Motors Cars Showroom - Balram Motors, Sankra",Ground Floor,Sundergarh,9.18291E+11,reporter.readings.responded,Odisha
"Tata Motors Cars Showroom - Schakralaya Motors Pvt Ltd, Murungabakkam","No 431, Cuddalore Main Road, Nainarmandapam",Puducherry,9.18879E+11,chop.words.beaks,Puducherry
"Tata Motors Cars Showroom - Schakralaya Motors Pvt Ltd, Pravin Nagar","No 28, Nagore Main Road",Karaikal,9.18879E+11,hothouse.spray.tonight,Puducherry
"Tata Motors Cars Showroom - Aspire Motors, GT Road","No 29, No 535, Railway Station",Ludhiana,9.1962E+11,says.decorator.stew,Punjab
"Tata Motors Cars Showroom - Mohali Automobiles, Ropar Kurali Road",Showroom No 5066,Rupnagar,9.18291E+11,tenure.behind.worth,Punjab
"Tata Motors Cars Showroom - Joshi, Morinda",Ward No 15,Morinda,9.19619E+11,roomful.inks.trendsetter,Punjab
"Tata Motors Cars Showroom - Joshi, Anandpur Sahib",Ward No 1,Anandpur Sahib,9.19619E+11,grandiosity.monsoons.extravagant,Punjab
"Tata Motors Cars Showroom - Mohali Automobiles Pvt Ltd, Rly Road",No 18,Nangal,9.18291E+11,fingerprint.saucy.burger,Punjab
"Tata Motors Cars Showroom - Mohali Automobiles, Sector 82","Plot No 1273, JLPL Ind Area, Airport Rd",Mohali,9.17045E+11,mourner.certified.tentacles,Punjab
"Tata Motors Cars Showroom - Sahib Automotive, Rajpura","Ground Floor, NH 44, Ambala Road",Patiala,9.1888E+11,unicorns.cornering.suffer,Punjab
"Tata Motors Cars Showroom - Mohali Automobiles Pvt Ltd, Ambala Highway",SCO 14,Dera Bassi,9.18291E+11,reformation.conserves.gloved,Punjab
"Tata Motors Cars Showroom - Rsa Dynamic Motors LLP, Zirakpur Patiala Road","Ground Floor, Tricity Trade Tower, NAC",Zirakpur,9.19168E+11,vitals.breath.hazelnuts,Punjab
"Tata Motors Cars Showroom - Berkeley, Mullanpur",Khasra No 86/1/0,Mullanpur,9.19619E+11,awaited.shock.advancing,Punjab
"Tata Motors Cars Showroom - Dada Motors, Dholewal chowk","Savitri 1, GT Road",Ludhiana,9.17045E+11,commander.joyously.bookings,Punjab
"Tata Motors Cars Showroom - PPS Motors, Ferozepur Road, Ludhiana","Main Ferozpur Road, Avtar Nagar, Ayali Chowk, Threekay",Ludhiana,9.1888E+11,sofas.quack.belonging,Punjab
"Tata Motors Cars Showroom - ASPIRE, Samrala","IKOM Avenue, Chandigarh Road",Samrala,9.19167E+11,suffix.spinning.dozens,Punjab
"Tata Motors Cars Showroom - Dada Motors, GT Road",Ground Floor,Khanna,9.18291E+11,mandarins.marinas.musically,Punjab
"Tata Motors Cars Showroom - Dada Motors, Bughipura Chowk",Ground Floor,Moga,9.18291E+11,lilt.evidencing.impeding,Punjab
"Tata Motors Cars Showroom - Dada Motors, Jagraon",Sherpur Chowk,Jagraon,9.18292E+11,leaderships.spaniels.reliving,Punjab
"Tata Motors Cars Showroom - Deep Auto, Zira",Amritsar Road,Zira,9.1888E+11,wifely.footstool.bravo,Punjab
"Tata Motors Cars Showroom - Novelty Tata, New Amritsar","Ground Floor, New Amritsar Colony",Amritsar,9.17045E+11,disarmed.button.focal,Punjab
"Tata Motors Cars Showroom - Novelty Tata, Amritsar",Ground Floor,Amritsar,9.18292E+11,commuted.quirky.mutual,Punjab
"Tata Motors Cars Showroom - Novelty Tata, Tarn Taran",Sarhali Road T Point,Tarn Taran,9.17039E+11,confining.trusts.pets,Punjab
"Tata Motors Cars Showroom - Novelty Tata, Batala","Khewat No 206, Punjab National Bank, No 384, Hadbast 288",Batala,9.1888E+11,barstool.fizzy.voltages,Punjab
"Tata Motors Cars Showroom - Novelty Tata, Gurdaspur",Vill Jiwan Wal Babri,Gurdaspur,9.1888E+11,rational.submerged.skippers,Punjab
"Tata Motors Cars Showroom - Kosmo, Jalandhar","AH 1, Jalandhar Amritsar By Pass, Suchi Pind",Jalandhar,9.1888E+11,derailed.snippet.cube,Punjab
"Tata Motors Cars Showroom - Kosmo Vehicles, GT Road",Ground Floor,Jalandhar,9.17045E+11,glove.heightens.smudges,Punjab
"Tata Motors Cars Showroom - Kosmo Vehicles Pvt Ltd, Kapurthala Road",Bawa Khel,Jalandhar,9.18291E+11,strategy.openly.goods,Punjab
"Tata Motors Cars Showroom - Kosmo, Dasuya",GT Road,Dasuya,9.19167E+11,pigtails.writings.accusing,Punjab
"Tata Motors Cars Showroom - Kosmo, Phagwara",AT 63,Phagwara,9.1888E+11,recently.void.thrashed,Punjab
"Tata Motors Cars Showroom - Dada Motors, Chandigarh Road",Ground Floor,Nawanshahr,9.17045E+11,wired.mental.punctual,Punjab
"Tata Motors Cars Showroom - Kosmo Vehicles, Circular Road",Bypass Chowk,Kapurthala,9.18291E+11,promotion.vocally.sulked,Punjab
"Tata Motors Cars Showroom - Novelty Tata, Simbal Chowk","AB College Road, Near Railway Crossing",Pathankot,9.1888E+11,unable.rephrase.toggle,Punjab
"Tata Motors Cars Showroom - Kosmo, Singriwal","No 245, Main Jalandhar Road",Hoshiarpur,9.19168E+11,chaps.metaphysic.reckon,Punjab
"Tata Motors Cars Showroom - Sahib Automotive, Rajpura Patiala Road","Khewat No 44, Khatoni No 82",Patiala,9.17045E+11,inhaling.scrubbers.affair,Punjab
"Tata Motors Cars Showroom - Sahib, Nabha",Patiala Road,Nabha,9.1888E+11,doll.shipwrecked.saddens,Punjab
"Tata Motors Cars Showroom - Sahib Automotive, Sangrur",1st Floor,Sangrur,9.18291E+11,speaker.swanky.built,Punjab
"Tata Motors Cars Showroom - Sahib Automotive, Barnala","Ground Floor, Bajakhana Road",Barnala,9.1888E+11,sectors.interrupt.pinches,Punjab
"Tata Motors Cars Showroom - Sidham Motors, Bathinda",Z8/01436,Bathinda,9.19619E+11,stacks.sands.universal,Punjab
"Tata Motors Cars Showroom - Deep Auto, Faridkot","Kotakpura Byepass Road, Near Baba Farid Law College",Faridkot,9.19619E+11,generator.expositions.positioning,Punjab
"Tata Motors Cars Showroom - Deep Auto, Kotakapura",Bhatinda Road,Kotakpura,9.19619E+11,segregated.sparring.anticipating,Punjab
"Tata Motors Cars Showroom - Sidham Motors, Mansa","Near HP Pump, Kenchiyan",Mansa,9.1888E+11,bridges.prove.scribe,Punjab
"Tata Motors Cars Showroom - Deep Auto, Ferozepur","Moga Road, Vill Satyewala",Ferozpur,9.18879E+11,officials.steroids.single,Punjab
"Tata Motors Cars Showroom - Sidham Motors, Muktsar",Ground Floor,Muktsar,9.1888E+11,unites.repaying.fastening,Punjab
"Tata Motors Cars Showroom - Dada Motors, Malout Bypass",Ground Floor,Abohar,9.18291E+11,mills.purple.relocated,Punjab
"Tata Motors Cars Showroom - Joshi Autotech, Mohali",Plot No C/118,Mohali,9.1888E+11,tonal.acre.morphing,Punjab
"Tata Motors Cars Showroom - SP Automotive, Madri","No E110, Mewar Industrial Area, Main Bypass Road",Udaipur,9.18879E+11,sharpness.riverbed.saints,Rajasthan
"Tata Motors Cars Showroom - Autoprime Tata, Pratap Nagar","A/18, TSF Plaza, Aakhaliya Vikas Yojana",Jodhpur,9.17045E+11,saturate.acute.shifts,Rajasthan
"Tata Motors Cars Showroom - Chambal Motocorp, Surajpole","Plot No 3 and 4, Panchsheel Marg",Udaipur,9.17045E+11,smothered.kindness.tripled,Rajasthan
"Tata Motors Cars Showroom - Marudhara Motors, Light Industrial Area",No 29/2,Jodhpur,9.17045E+11,defers.curbed.mills,Rajasthan
"Tata Motors Cars Showroom - Classic Motors, Delhi Road",Nagina Plaza,Alwar,9.17045E+11,stones.novel.clouding,Rajasthan
"Tata Motors Cars Showroom - Classic Motors, Bhagat Singh Colony","Ground Floor, UIT",Bhiwadi,9.18291E+11,shrieked.burn.mitigation,Rajasthan
"Tata Motors Cars Showroom - Classic, Thanagazhi",Main Road,Alwar,9.18879E+11,gloss.rheumatoid.trusting,Rajasthan
"Tata Motors Cars Showroom - Classic Motors, Kishangarh Khairthal Road",Khasra No 3763,Alwar,9.17045E+11,overshadows.incomer.pristine,Rajasthan
"Tata Motors Cars Showroom - Classic Motors, Rajgarh",Digawda Branch,Alwar,9.19619E+11,increased.refurbish.extenuating,Rajasthan
"Tata Motors Cars Showroom - Classic Motors, Ricco Industrial Area","No A15B, Chiller Complex, NH 8",Behror,9.18291E+11,munching.reflexology.hawks,Rajasthan
"Tata Motors Cars Showroom - Classic Motors, Alwar","Plot No G48, Industrial Area",Alwar,9.19167E+11,locating.restrains.flamboyant,Rajasthan
"Tata Motors Cars Showroom - Roshan Motors, Raja Park","No B 7, Govind Marg",Jaipur,9.17045E+11,elbowing.belonging.shielding,Rajasthan
"Tata Motors Cars Showroom - Roshan Motors, Ajmer Road","Ground Floor, Ajmer Pulia",Jaipur,9.17045E+11,fermented.oppose.civic,Rajasthan
"Tata Motors Cars Showroom - Autoplex AV, Tonk Road",No 783/84,Jaipur,9.17045E+11,storyline.spires.firmer,Rajasthan
"Tata Motors Cars Showroom - Shree Shyam Motors, VKI Area","KH No 52 and 53, Kukar Khera, Road No 3",Jaipur,9.17045E+11,trumpet.coconuts.elbowed,Rajasthan
"Tata Motors Cars Showroom - Pratap Nexgen Cars, Tonk Road, Jaipur",City Square Mall,Jaipur,9.19167E+11,overpower.lived.linked,Rajasthan
"Tata Motors Cars Showroom - Akar Fourwheel, Queens Road","Plot No 309, 310",Jaipur,9.17045E+11,duplicate.locate.hoot,Rajasthan
"Tata Motors Cars Showroom - Tech Wheels , Gajsinghpura","Plot No 6/7, Kamla Nehru Nagar, B2 Bypass",Jaipur,9.1888E+11,still.sampling.inflates,Rajasthan
"Tata Motors Cars Showroom - Tech Wheels, Jagatpura","No 17 and 18, Purushath Nagar, Vistar Mehal Road",Jaipur,9.17045E+11,credited.scarred.retrieves,Rajasthan
"Tata Motors Cars Showroom - Roshan Motors, Ajmer Road","NH 8, Lamba Market",Bagru,9.18291E+11,shoelaces.swing.fail,Rajasthan
"Tata Motors Cars Showroom - Autoplex AV, Dudu","Kumawat Restaurant, NH 8",Jaipur,9.19619E+11,dosage.appearing.trumpeter,Rajasthan
"Tata Motors Cars Showroom - Tech Wheels, NH 8",Ground Floor,Shahpura,9.18291E+11,courted.tiptoeing.flat,Rajasthan
"Tata Motors Cars Showroom - Tech Wheels, Paota","Ground Floor, NH 8",Jaipur,9.17045E+11,undermines.pandered.flatly,Rajasthan
"Tata Motors Cars Showroom - Shree Shyam Motors, Dabla Road",Ward No 12,Kotputli,9.18291E+11,smoother.assures.muffles,Rajasthan
"Tata Motors Cars Showroom - Autoplex AV, Bassi","Saran Tiraha, Chak Road",Jaipur,9.19619E+11,wedlock.inclining.banishing,Rajasthan
"Tata Motors Cars Showroom - Akar Fourwheel, Tiraha Agra Road",Jaipur Bypass,Dausa,9.18291E+11,emulating.popping.familiar,Rajasthan
"Tata Motors Cars Showroom - Akar Fourwheel, Bandikui",Ground Floor,Dausa,9.18291E+11,growled.grieve.mandatory,Rajasthan
"Tata Motors Cars Showroom - Akar Fourwheel Private Limited, Lalsot",Gangapur Road,Dausa,9.18879E+11,coarser.acrobatic.paid,Rajasthan
"Tata Motors Cars Showroom - Autoplex, Renwal","Royal City, Kishangarh Renwal",Renwal,9.19619E+11,flowing.drivel.previews,Rajasthan
"Tata Motors Cars Showroom - Shree Shyam Motors, Chomu","Jaitpura, Jaipur Road",Jaipur,9.18291E+11,combines.lend.shadowed,Rajasthan
"Tata Motors Cars Showroom - Roshan Motors, Chaksu","No B/4, Arihant Kunj Vihar, Tonk Road",Jaipur,9.17039E+11,distancing.fastening.blinding,Rajasthan
"Tata Motors Cars Showroom - Tech Wheels, Tonk",Plot No 10,Tonk,9.17045E+11,moved.formless.digital,Rajasthan
"Tata Motors Cars Showroom - Autoplex AV, Malpura",Ground Floor,Tonk,9.19619E+11,petulantly.prolong.trustworthy,Rajasthan
"Tata Motors Cars Showroom - Yash Motors, Deoli","3KM Stone, Kota Road",Tonk,9.1962E+11,blanking.starry.incriminate,Rajasthan
"Tata Motors Cars Showroom - Mudgal Motors, Jaipur Road","Ground Floor, Parbatpura Bypass, NH 8",Ajmer,9.17045E+11,belly.gala.baker,Rajasthan
"Tata Motors Cars Showroom - Mudgal Motors, Kekri",Main Road,Kekri,9.19619E+11,reduce.blackbird.awaiting,Rajasthan
"Tata Motors Cars Showroom - Mudgal Motors, Baral",Bijainagar,Ajmer,9.18879E+11,yawned.defeated.unpromising,Rajasthan
"Tata Motors Cars Showroom - Mudgal Motors, Kishangarh",Madanganj,Ajmer,9.18879E+11,swarm.weep.star,Rajasthan
"Tata Motors Cars Showroom - Mudgal Motors, Beawar",Ajmer Road,Beawar,9.18879E+11,blotting.sudden.cracks,Rajasthan
"Tata Motors Cars Showroom - Dhoot Auto Private Limited, Jodhpur Road",Chimanpura Area,Pali,9.17045E+11,bells.forgiven.straying,Rajasthan
"Tata Motors Cars Showroom - SP Automotive, Ambaji Industrial Area","No E/17/A, Kothi Marble, Abu Road",Sirohi,9.1888E+11,suspect.wound.soldiers,Rajasthan
"Tata Motors Cars Showroom - Yash Motors, Ajmer Road","3 KM Stone, Jodhras Chouraha, Gaurav Path",Bhilwara,9.17045E+11,orbit.shuttered.blurred,Rajasthan
"Tata Motors Cars Showroom - Yash Motors, Ochari",Nimbahera Road,Chittorgarh,9.18291E+11,snapped.assembles.passwords,Rajasthan
"Tata Motors Cars Showroom - Yash Motors, Pratapgarh",Ground Floor,Pratapgarh,9.19167E+11,refuses.universal.yachting,Rajasthan
"Tata Motors Cars Showroom - SP Automotive, Udaipur","Plot No 126, Ground Floor, ABC Hiran Margi",Udaipur,9.19619E+11,piglet.eagles.spruced,Rajasthan
"Tata Motors Cars Showroom - Yash Motors, Kankroli",Nathdwara Road,Rajsamand,9.18291E+11,educative.detriment.prohibition,Rajasthan
"Tata Motors Cars Showroom - Chambal Motocorp, Sagwara Road",Biidi School,Dungarpur,9.18291E+11,guidebook.mallets.cars,Rajasthan
"Tata Motors Cars Showroom - Chambal Motocorp, Sagwara",Ground Floor,Dungarpur,9.19619E+11,pigpen.vineyard.biomedical,Rajasthan
"Tata Motors Cars Showroom - Brijwheel Automobiles Private Limited, Anah","Plot No 1, Sewar Road",Bharatpur,9.19619E+11,huddling.sprain.booster,Rajasthan
"Tata Motors Cars Showroom - Brijwheel Automobiles Pvt Ltd, Deeg",Nagar Road,Bharatpur,9.19167E+11,pumpkin.unloading.plump,Rajasthan
"Tata Motors Cars Showroom - Brijwheel Automobiles Pvt Ltd, Nagar",Nagar Sikari Road,Bharatpur,9.19167E+11,blemishes.reboot.nimbly,Rajasthan
"Tata Motors Cars Showroom - Kamal Passenger Vehicle Private Limited, Karmoda","No 1, Khasra No 2316/1022/2318/1048, Lalsaut Road",Sawai Madhopur,9.17045E+11,undiscovered.shivering.successors,Rajasthan
"Tata Motors Cars Showroom - Kamal Passenger Vehicle, Dosa Road Bypass",Ground Floor,Sawai Madhopur,9.1962E+11,inched.fluxes.trumpeted,Rajasthan
"Tata Motors Cars Showroom - Brijwheel Automobiles Pvt Ltd, Hindaun","No 220, Mahwa Road",Karauli,9.1888E+11,dusters.startles.squish,Rajasthan
"Tata Motors Cars Showroom - Chambal Motors, Silore Road Bypass Road","Ground Floor, NH 12",Bundi,9.18291E+11,broken.tailwind.eggshell,Rajasthan
"Tata Motors Cars Showroom - Kamal Auto Tata, Rawatbhata","Ground Floor, Rawatbhata Main Rd",Rawatbhata,9.19167E+11,spare.denim.battle,Rajasthan
"Tata Motors Cars Showroom - Chambal Motors, Indraprastha Industrial Area","G7 and 8, Automobile Zone",Kota,9.17045E+11,trailers.dogs.unimpeded,Rajasthan
"Tata Motors Cars Showroom - Kamal Passenger Vehicle, Jhalawar Road",Plot No 5,Kota,9.17045E+11,spires.reworked.resettle,Rajasthan
"Tata Motors Cars Showroom - Chambal Motors Pvt Ltd, Khatoli Road",Ground Floor,Itawa,9.17045E+11,polyglot.association.choosing,Rajasthan
"Tata Motors Cars Showroom - Kamal Auto, Antah",Opposite Brajwasi Restrurant,Antah,9.19167E+11,climber.jeering.crumb,Rajasthan
"Tata Motors Cars Showroom - Chambal Motors, Kota Road",Ground Floor,Baran,9.18291E+11,eyeglass.pumping.clammy,Rajasthan
"Tata Motors Cars Showroom - Chambal Motors, Kota Road",Ground Floor,Jhalawar,9.18291E+11,bridges.succumbs.hopes,Rajasthan
"Tata Motors Cars Showroom - Chambal Motors, Khanpur",Jhalawar Baran Highway,Jhalawar,9.1888E+11,connected.sparkling.protracted,Rajasthan
"Tata Motors Cars Showroom - Chambal Motors, Bhawani Mandi",Ramnagar,Baran,9.19619E+11,mayfly.homefront.microfilm,Rajasthan
"Tata Motors Cars Showroom - Kamal Passenger Vehicle Private Limited, Kherabad",Ground Floor,Baran,9.17045E+11,reclined.unrealistic.technical,Rajasthan
"Tata Motors Cars Showroom - Chambal Motocorp, Dungarpur Link Road",Ground Floor,Banswara,9.18291E+11,singing.proposals.emailed,Rajasthan
"Tata Motors Cars Showroom - Brijwheel Automobiles Pvt Ltd, GT Road",Ground Floor,Dholpur,9.18879E+11,traders.tomorrow.buying,Rajasthan
"Tata Motors Cars Showroom - Shri Krishna Four Wheels, Jaipur Road",Ground Floor,Churu,9.18291E+11,doped.irony.tiredness,Rajasthan
"Tata Motors Cars Showroom - Shri Krishna Four Wheels, Ratangarh","Ground Floor, T Point, Sardarshar Road",Ratangarh,9.19167E+11,pickles.ears.spans,Rajasthan
"Tata Motors Cars Showroom - Shri Krishna Four Wheels, Rajghar","Ground Floor, Bhagat Singh Chowk, Taranagarh road",Rajghar,9.19167E+11,loser.seamless.spotlessly,Rajasthan
"Tata Motors Cars Showroom - Shri Krishna Four Wheels, Sujangarh",Chhapar Road,Churu,9.18879E+11,underline.solving.budding,Rajasthan
"Tata Motors Cars Showroom - Shri Krishna Four Wheels, Jaipur Road","Ward No 15, Khicharo ka Bass",Sikar,9.17045E+11,pokes.joke.yappy,Rajasthan
"Tata Motors Cars Showroom - Shri Krishna Four Wheels, Neem Ka Thana",Ground Floor,Sikar,9.19167E+11,smokescreen.cloned.napped,Rajasthan
"Tata Motors Cars Showroom - Shri Krishna Four Wheels, Sri Madhopur",Jalpali Mode,Sikar,9.18879E+11,stock.trophies.overstating,Rajasthan
"Tata Motors Cars Showroom - Shri Krishna Four Wheels, Piru Singh Circle",Road No 3,Jhunjhunu,9.18291E+11,subtlety.bind.contriving,Rajasthan
"Tata Motors Cars Showroom - Shri Krishna Raj Four Wheels Pvt Ltd, Khidarsar",Khasra No 312,Jhunjhunu,9.18291E+11,reinstall.headstart.corrects,Rajasthan
"Tata Motors Cars Showroom - Shri Krishna Four Wheels, Surajgarh Bypass Road",Ground Floor,Chirawa,9.18291E+11,vocab.pass.redefined,Rajasthan
"Tata Motors Cars Showroom - Dunac Cars and Commercials, Jaisalmer Road",Ground Floor,Bikaner,9.17045E+11,bucket.unusually.launcher,Rajasthan
"Tata Motors Cars Showroom - Dunac Cars and Commercials, Tilak Nagar",Jaipur Bikaner Road,Bikaner,9.18291E+11,perused.canines.mothering,Rajasthan
"Tata Motors Cars Showroom - Dunac Cars & Commercials, Nokha",Station Road,Bikaner,9.17045E+11,standards.advertisements.uniformed,Rajasthan
"Tata Motors Cars Showroom - Dunac Cars & Commercials, Nohar",Tehsil Road,Bikaner,9.17045E+11,twirls.mouth.zaps,Rajasthan
"Tata Motors Cars Showroom - Dunac Cars and Commercials, Hanumangarh Bypass Road",No 3 ML,Sriganganagar,9.17045E+11,bulges.connected.protect,Rajasthan
"Tata Motors Cars Showroom - Dunac Cars and Commercials, Town & Junction Road",Ground Floor,Hanumangarh,9.18291E+11,alone.airbase.happening,Rajasthan
"Tata Motors Cars Showroom - Dunac Cars and Commercials, Vidhut Vibhag Road",Priti Palace,Anupgarh,9.18291E+11,coverings.ruling.infringe,Rajasthan
"Tata Motors Cars Showroom - Dunac Cars and Commercials, Suratgarh",Ground Floor,Suratgarh,9.19619E+11,ascendant.closets.punctual,Rajasthan
"Tata Motors Cars Showroom - Daksh Cars, Bikaner Road","Ground Floor, NH 89",Nagaur,9.17045E+11,launcher.imperious.indicates,Rajasthan
"Tata Motors Cars Showroom - Daksh Cars, Kuchaman Road",Ground Floor,Didwana,9.18291E+11,fame.dreadlocked.makeable,Rajasthan
"Tata Motors Cars Showroom - Shree Charbhuja Automobiles, Ajmer Road",KUM Teraya,Degana,9.18291E+11,onscreen.tilted.complain,Rajasthan
"Tata Motors Cars Showroom - Daksh Cars, Kuchaman",Bypass,Kuchaman,9.19619E+11,headsets.sailed.relocated,Rajasthan
"Tata Motors Cars Showroom - Shree Charbhuja Automobiles, Raj Nagar B","NH 89, Nagaur Road Bypass",Merta,9.17045E+11,haying.sprawls.womankind,Rajasthan
"Tata Motors Cars Showroom - Autoprime, New Pali Road","No 5, Bhagat Ki Kothi Extension, New Pali Road",Jodhpur,9.18291E+11,blatantly.marinated.sandbags,Rajasthan
"Tata Motors Cars Showroom - Autoprime, Jalore","CP/V2, Phase3, RIICO Industrial Area",Jalore,9.1962E+11,donate.compelled.peddling,Rajasthan
"Tata Motors Cars Showroom - Autoprime Tata, Barmer",Pachpadra Road,Barmer,9.18879E+11,overwhelming.inoperative.hushes,Rajasthan
"Tata Motors Cars Showroom - Rangeet Auto Private Ltd, 6th Mile",Ground Floor,Gangtok,9.18291E+11,tiling.universes.offerings,Sikkim
"Tata Motors Cars Showroom - Rangeet Auto, Jorethang",Jorethang Bazar,South Sikkim,9.19168E+11,windstorms.splats.lawless,Sikkim
"Tata Motors Cars Showroom - Tafe Access, Anna Salai","No 803, Addisons Building",Chennai,9.17045E+11,suitcase.famines.crank,Tamil-Nadu
"Tata Motors Cars Showroom - PPS Motors, Balfour Road","Old D No 20, D No 31, Balfour Road",Chennai,9.19619E+11,lessening.unites.dozen,Tamil-Nadu
"Tata Motors Cars Showroom - Gurudev Motors LLP, Chennai","No 69, Jagadambal Colony, Sri Krishnapuram St, Ajantha",Chennai,9.1888E+11,starting.depending.wizards,Tamil-Nadu
"Tata Motors Cars Showroom - Sree Gokulam Motors, T Nagar","Door No 1, Ground Floor, Apsaras, Sambandam Street",Chennai,9.18879E+11,amplifier.drifter.juror,Tamil-Nadu
"Tata Motors Cars Showroom - PPS Motors, Chennai","No 1, Malaviya Avenue, LB Road, Near to Adyar Bus depot",Chennai,9.19619E+11,overruns.cushy.clumped,Tamil-Nadu
"Tata Motors Cars Showroom - Lakshmi, Ekkatuthangal","TS No 130/1 Kundhavi, 14/1, Jawaharlal Nehru Road",Chennai,9.18879E+11,pulled.activity.informer,Tamil-Nadu
"Tata Motors Cars Showroom - Lakshmi, Guindy","No 42, Velachery Road",Chennai,9.18292E+11,journey.catchers.shipyards,Tamil-Nadu
"Tata Motors Cars Showroom - Sree Gokulam Motors, Anna Nagar","Showroom No T 101, Yesesi Building, 2nd Floor, 3rd Avenue",Chennai,9.18292E+11,dress.relief.oddly,Tamil-Nadu
"Tata Motors Cars Showroom - PPS Motors Pvt Ltd, Kottivakkam","Survey No 278/7/8/10/12, East Coast Road",Chennai,9.18291E+11,gifted.smoothly.quietest,Tamil-Nadu
"Tata Motors Cars Showroom - Sree Gokulam Motors, Chrompet","No 322, GST Road",Chennai,9.17045E+11,prove.firepower.prouder,Tamil-Nadu
"Tata Motors Cars Showroom - PPS Motors, Red Hills","Door No 126, Bypass Road",Chennai,9.18879E+11,directors.dishes.clerk,Tamil-Nadu
"Tata Motors Cars Showroom - Lakshmi, Avadi",No 5,Tiruvallur,9.18291E+11,automate.pity.locker,Tamil-Nadu
"Tata Motors Cars Showroom - Sree Gokulam Motors, Kattupakkam","2/232, Mount Poonamallee Rd, Audco Nagar, Jeeva Ngr, Murugapillai Ngr",Chennai,9.19167E+11,simmer.rise.succumbs,Tamil-Nadu
"Tata Motors Cars Showroom - Lakshmi, Ambattur","No 67 & 68, South Phase",Chennai,9.18879E+11,headrest.partners.steadier,Tamil-Nadu
"Tata Motors Cars Showroom - FPL eAuto, Korattur","Plot No 4, 200 Feet Ring Road, 100 Feet Road",Chennai,9.18291E+11,enjoy.oatmeal.computers,Tamil-Nadu
"Tata Motors Cars Showroom - Lakshmi, OMR","No 118, Okkiam, Annai Indira Nagar",Chennai,9.18292E+11,fidgeting.respond.depravity,Tamil-Nadu
"Tata Motors Cars Showroom - Gurudev Motors, Arumbakkam","Old No 90, New No 1090, EVR Periyar High Rd",Chennai,9.19619E+11,quits.handbags.engraving,Tamil-Nadu
"Tata Motors Cars Showroom - FPL TATA, Semmancheri","No 190/2A1A, 1F, Rajiv Gandhi Salai, IT highway",Chennai,9.18291E+11,galleries.contracts.sounding,Tamil-Nadu
"Tata Motors Cars Showroom - PPS Motors Pvt Ltd, Viduthalai Nagar","No 12/75, S Kolathur, Radial Road",Kanchipuram,9.18291E+11,summer.zebra.duties,Tamil-Nadu
"Tata Motors Cars Showroom - Lakshmi, Gummidipoondi","No 29, GNT Road",Tiruvallur,9.19167E+11,refinery.shipmate.mislaid,Tamil-Nadu
"Tata Motors Cars Showroom - PPS Motors Pvt Ltd, Vengathuru","Plot No 9, Shanmuga Padmavathy Nagar, Ondikuppam",Tiruvallur,9.18291E+11,bloodshot.scarecrow.amended,Tamil-Nadu
"Tata Motors Cars Showroom - PPS Motors, Sriperumbudur","Survey No 345/13, Nemili",Kanchipuram,9.18879E+11,vocab.childcare.oddly,Tamil-Nadu
"Tata Motors Cars Showroom - Sree Gokulam Motors, Chengelpet","No 102/3A1, D No 18, GST Road, Pulipakkam Main Road",Kanchipuram,9.18879E+11,filed.hurricane.jeeps,Tamil-Nadu
"Tata Motors Cars Showroom - Tafe Access, Padur","No 181/26, OMR, Padur",Kanchipuram,9.19167E+11,gurgling.polite.themes,Tamil-Nadu
"Tata Motors Cars Showroom - PPS Motors, Guduvancheri","No 117/3, Plot No 22/A & 22/B",Kanchipuram,9.19619E+11,moats.dude.vandalism,Tamil-Nadu
"Tata Motors Cars Showroom - Sayar Aautomotive, Indira Nagar",No 219,Kanchipuram,9.18879E+11,expecting.sands.expiring,Tamil-Nadu
"Tata Motors Cars Showroom - Schakralaya, Gingee","No 227, Karnika Complex, Singavaram Road",Villupuram,9.19167E+11,skit.renaming.litigator,Tamil-Nadu
"Tata Motors Cars Showroom - Schakralaya Motors Pvt Ltd, RG Nagar","No 304/1, Trichy Main Road",Villupuram,9.18879E+11,speedboat.spraying.foil,Tamil-Nadu
"Tata Motors Cars Showroom - Schakralaya Motors Pvt Ltd, Durgam Main Road",No 88,Kallakurichi,9.18879E+11,bordering.cupcake.blazers,Tamil-Nadu
"Tata Motors Cars Showroom - Sayar Aautomotive, Chengam Road",No 24,Tiruvannamalai,9.18879E+11,caps.directive.recipient,Tamil-Nadu
"Tata Motors Cars Showroom - Schakralaya Motors Pvt Ltd, Imperial Road",No 69,Cuddalore,9.19619E+11,centuries.examples.adopts,Tamil-Nadu
"Tata Motors Cars Showroom - Schakralaya Motors Pvt Ltd, Periyakurichi","No 87/A, Cuddalore Main Road",Neyveli,9.18879E+11,beginning.tingled.reefs,Tamil-Nadu
"Tata Motors Cars Showroom - Schakralaya Motors Pvt Ltd, Bazaar Street",No 154/153,Chidambaram,9.18879E+11,drifting.enchanted.composers,Tamil-Nadu
"Tata Motors Cars Showroom - Jayaraj Karz, Mayiladuthurai","Door No 40, TS No 149/2, Sirkali Main Road",Mayiladuthurai,9.19167E+11,tamed.bloggers.tilted,Tamil-Nadu
"Tata Motors Cars Showroom - Jayaraj Karz, Vijayapuram","No 2/8, Nagai Bypass Road",Thiruvarur,9.18879E+11,paradoxical.sundresses.cotton,Tamil-Nadu
"Tata Motors Cars Showroom - Jayaraj Karz, Kumbakonam","No 799/T, Femina Complex, Karaikal Rd, Muthupillai Mandapam",Kumbakonam,9.18879E+11,stylists.messed.lonely,Tamil-Nadu
"Tata Motors Cars Showroom - Jayaraj Karz, Vallam Pudur Sethi","No D3/1, Vallam Byepass Rd",Thanjavur,9.18292E+11,respectably.boils.ideologies,Tamil-Nadu
"Tata Motors Cars Showroom - Kaveri Garage, Tiruchirapalli","Survey No 253/2C, Chennai Byepass Road",Tiruchirappalli,9.18879E+11,prickly.midwinter.enclosing,Tamil-Nadu
"Tata Motors Cars Showroom - Kaveri Garage, Piratiyur","No 27/5, Dheeran Nagar, Dindigul Main Rd",Tiruchirappalli,9.17045E+11,workbench.fails.storm,Tamil-Nadu
"Tata Motors Cars Showroom - Kaveri Garage, Sungu Pettai","No 375/7B1, NH Service Road, Trichy Chennai Highway",Perambalur,9.18879E+11,selection.tested.educative,Tamil-Nadu
"Tata Motors Cars Showroom - Kaveri Garage, Perambalur","No 9/49/F/8, Manamadurai Road, Roundana",Ariyalur,9.18292E+11,stricter.slathering.passport,Tamil-Nadu
"Tata Motors Cars Showroom - Jayaraj Karz, Kalif Nagar","No 5915/1, Thirumayam Road",Pudukkottai,9.18879E+11,chimney.monetarily.pirouetted,Tamil-Nadu
"Tata Motors Cars Showroom - Chima Cars, Madurai Road","No 2/211, Madurai Road",Ramanathapuram,9.18879E+11,summons.bruisers.fielding,Tamil-Nadu
"Tata Motors Cars Showroom - Paramakudi EM, Madurai Rameswaram Bypass Road","227/4A, Four Lane Junction, Vendhoni",Ramanathapuram,9.18879E+11,mops.desks.situation,Tamil-Nadu
"Tata Motors Cars Showroom - Kaveri Garage, Seelapadi","No 478/1A2, Trichy Bypass",Dindigul,9.18879E+11,punt.frown.modern,Tamil-Nadu
"Tata Motors Cars Showroom - Kaveri Garage, Dindigul Road",No 190/2,Palani,9.18879E+11,midfield.forms.explorer,Tamil-Nadu
"Tata Motors Cars Showroom - Chima Cars, Kappalur","H14 and H14A, SIDCO Industrial Estate, Ucchapatti",Madurai,9.17045E+11,rust.clear.agreement,Tamil-Nadu
"Tata Motors Cars Showroom - Kaveri Garage, Dindigul Road","D No 18/1, Survey Ward No 203/1, New Vilangudi",Madurai,9.18292E+11,september.discusses.waged,Tamil-Nadu
"Tata Motors Cars Showroom - Chima Cars, KK Nagar","No 171, Lake View Rd, LIG Colony",Madurai,9.19167E+11,lawns.mats.reviewed,Tamil-Nadu
"Tata Motors Cars Showroom - Chima Cars, Rathinam Nagar","Door No 158/3, Periyakulam Road",Theni,9.18879E+11,headache.acclaimed.glove,Tamil-Nadu
"Tata Motors Cars Showroom - Kaveri Garage, Theni","No 6, Bypass Road",Theni,9.18292E+11,bolsters.lollipop.sourcing,Tamil-Nadu
"Tata Motors Cars Showroom - Kaveri Garage, Madurai Road",No 114,Virudhunagar,9.18292E+11,brick.woke.dumplings,Tamil-Nadu
"Tata Motors Cars Showroom - Chima Cars, Rajapalayam",No 1A,Rajapalayam,9.18879E+11,wing.satin.commutes,Tamil-Nadu
"Tata Motors Cars Showroom - Chima Cars, Thiruthangal","Door No 360A6, Virudhunagar Road",Sivakasi,9.18879E+11,fruit.backpacks.supporter,Tamil-Nadu
"Tata Motors Cars Showroom - Derik Motors, Vanarpetai","No 106 & 107, Bypass Road, Palayamkottai",Tirunelveli,9.18292E+11,haunt.explores.confused,Tamil-Nadu
"Tata Motors Cars Showroom - Derik Motors Private Limited, Therkku",No 625,Valliyoor,9.18879E+11,enduringly.impersonated.insulated,Tamil-Nadu
"Tata Motors Cars Showroom - Derik, Kuthukalvalasai","No 5/5, Thirumalai Kovil Street",Tenkasi,9.18292E+11,reclusive.food.prickly,Tamil-Nadu
"Tata Motors Cars Showroom - Derik, Millerpuram","No 16B/2A/1, Palayam Kottai Road",Tuticorin,9.18879E+11,essay.songbook.koala,Tamil-Nadu
"Tata Motors Cars Showroom - Derik, Tiruchendur",No 357/3A1,Tiruchendur,9.19619E+11,bravely.introductions.terminals,Tamil-Nadu
"Tata Motors Cars Showroom - Derik, Maniyachi Junction",No 3/542 H & I,Kovilpatti,9.18292E+11,paler.orbited.redeemed,Tamil-Nadu
"Tata Motors Cars Showroom - Derik Motors, Nagercoil",No 681/981,Nagercoil,9.19619E+11,dealing.importing.away,Tamil-Nadu
"Tata Motors Cars Showroom - Derik Motors, Marthandam",Kattathurai,Marthandam,9.18879E+11,defined.entrants.amuses,Tamil-Nadu
"Tata Motors Cars Showroom - Chima Cars, Duraisinga Nagar","No 11/1A, Karaikudi Main Road, Managiri",Karaikudi,9.18879E+11,mazelike.dishwater.conditional,Tamil-Nadu
"Tata Motors Cars Showroom - Chima Cars, Tirupathur Road",No 12/2,Sivaganga,9.18879E+11,glares.ripen.denote,Tamil-Nadu
"Tata Motors Cars Showroom - Sayar Aautomotive, Perumugai","No 31/2A, Bangalore Chennai Highway",Vellore,9.18292E+11,graced.pulses.champions,Tamil-Nadu
"Tata Motors Cars Showroom - Sayar Aautomotive, Sevoor","No 1887 and A/3, Vellore Bypass Road",Arani,9.18879E+11,tonic.baked.showrooms,Tamil-Nadu
"Tata Motors Cars Showroom - True Sai Works, Pethanapalli","No 417A/1A, Krishnagiri Chennai Highway",Krishnagiri,9.18879E+11,match.amazed.frock,Tamil-Nadu
"Tata Motors Cars Showroom - True Sai Works, Thorapalli Agraharam",Survey No 46/ 1A and 47/1A,Hosur,9.18292E+11,definitive.intellectual.unpolished,Tamil-Nadu
"Tata Motors Cars Showroom - Sayar Aautomotive, Hayath Nagar","No 177/1, Vaniyambadi Main Road",Tirupathur,9.18879E+11,intolerable.magnificent.crowded,Tamil-Nadu
"Tata Motors Cars Showroom - Sayar Aautomotive Pvt Ltd, MC Road",No 10/A,Vellore,9.18291E+11,donation.dries.crisis,Tamil-Nadu
"Tata Motors Cars Showroom - True Sai Works, Narasothipatti","No 73, Salem Omalur Highway",Salem,9.18292E+11,removals.prongs.soggy,Tamil-Nadu
"Tata Motors Cars Showroom - True Sai Works, Lakkiampatty","No 5/515, Salem Road",Dharmapuri,9.18879E+11,blanks.meaning.removers,Tamil-Nadu
"Tata Motors Cars Showroom - True Sai Works, Salem Main Road","No 134/B5, NSR Building",Namakkal,9.18879E+11,vision.corrosive.prowess,Tamil-Nadu
"Tata Motors Cars Showroom - Tafe Access, Perundurai Main Road","No 140, P and C Towers",Erode,9.18292E+11,touring.performers.locates,Tamil-Nadu
"Tata Motors Cars Showroom - True Sai Works, Periya Kulathu Palayam",Salem Byepass Road,Karur,9.18879E+11,thrushes.disappears.warrantless,Tamil-Nadu
"Tata Motors Cars Showroom - KUN Cars Pvt Ltd, Avinashi Road","No 787, Sowripalayam, Peelamedu",Coimbatore,9.19619E+11,indicated.nightfall.waggled,Tamil-Nadu
"Tata Motors Cars Showroom - SGA Motors, Singanallur","SF No 413/2, Trichy Road",Coimbatore,9.18879E+11,suspended.objective.shield,Tamil-Nadu
"Tata Motors Cars Showroom - Tafe Access, Race Course Road",No 27C,Coimbatore,9.18292E+11,enrolling.aged.guarded,Tamil-Nadu
"Tata Motors Cars Showroom - Tafe Access, Mettupalayam","No 138/4, Coffee Works Building, Annur Road, Mettupalayam",Mettupalayam,9.19167E+11,dined.enclosing.boom,Tamil-Nadu
"Tata Motors Cars Showroom - KUN Tata, Sulur","No 135/7, FAV Plaza, Trichy Road, Kannampalayam",Coimbatore,9.19619E+11,earmuffs.subtlety.decimation,Tamil-Nadu
"Tata Motors Cars Showroom - SGA Motors, Udumalpet","No 5/B, Palani Road, Periyakottai Pirivu",Coimbatore,9.18879E+11,insert.closets.driveways,Tamil-Nadu
"Tata Motors Cars Showroom - Sga Motors, Ooty",No 258/B,Nilgiris,9.19619E+11,degree.swung.riverside,Tamil-Nadu
"Tata Motors Cars Showroom - Jasper Industries, Chandrayangutta","GHMC No 8/4/70/5, Plot No 5 & 10, Mahamood Ngr, Bandlaguda",Hyderabad,9.18291E+11,luck.riverbed.rosier,Telangana
"Tata Motors Cars Showroom - Tejaswi, Tolichowki","No 8/1/523/262, Main Road, Brundavan Colony",Hyderabad,9.1962E+11,latest.watches.cabs,Telangana
"Tata Motors Cars Showroom - Malik Autoworld, Old Bowenpally","Survey No 33, NH Road No 7",Hyderabad,9.17045E+11,greet.echo.reflector,Telangana
"Tata Motors Cars Showroom - Jasper Industries, Dundigal","No 1/145/1/2, Sy No 96/E, GDM, Kompally",Rangareddy,9.1962E+11,wash.thumb.securing,Telangana
"Tata Motors Cars Showroom - Orange Auto, Kharkana","Plot No 54, Gayatri Westend, Kakaguda",Secunderabad,9.17045E+11,snack.plod.embellish,Telangana
"Tata Motors Cars Showroom - Select Cars, Begumpet","Snehalatha Building, Greenlands Road",Hyderabad,9.17045E+11,drawn.torches.snowy,Telangana
"Tata Motors Cars Showroom - Orange Auto, Erragadda","No 8/3/164/2, Shankaramma Towers",Hyderabad,9.17045E+11,physical.settle.waged,Telangana
"Tata Motors Cars Showroom - Jasper Industries, Secunderabad","No 10/3/162, Gr & 1st Floor, NCL Pearl, Sarojini Devi Road",Secunderabad,9.19619E+11,toast.shrub.multiple,Telangana
"Tata Motors Cars Showroom - Orange Auto Pvt Ltd, Attapur","Municipal No 13/6/432/33 & 13/6/432/33/A, Gudimalkapur",Hyderabad,9.19168E+11,depths.wider.choppy,Telangana
"Tata Motors Cars Showroom - Malik Autoworld, Himayatnagar","No 3/6/422 and 422/A, Street No 3, Main Road",Hyderabad,9.17045E+11,meatball.tinsel.pages,Telangana
"Tata Motors Cars Showroom - Venkataramana Motors, Jubilee Hills","Aruna Arcade, Road No 1",Hyderabad,9.19619E+11,invested.brotherly.proofs,Telangana
"Tata Motors Cars Showroom - Prathammalik Auto Matrix, Banjarahills","No 6/3/248/1, Indralok Complex, Road No 1",Hyderabad,9.18879E+11,unstable.hack.native,Telangana
"Tata Motors Cars Showroom - Select Cars, Nagole Colony","H No 2/3/457/3/1, Rd No 3, Alkapuri Cross Rd",Hyderabad,9.17045E+11,parts.chatters.scout,Telangana
"Tata Motors Cars Showroom - Malik Autoworld, Malakpet","Door No 16/2/704, Hanuman Towers, Main Road",Hyderabad,9.17045E+11,panoramic.cobbled.inviting,Telangana
"Tata Motors Cars Showroom - Prathammalik Auto Matrix, Serilingampally","No 36/A/9, Pr Greenview, Gopana Palli, Rangareddy",Hyderabad,9.19167E+11,vent.vowed.divider,Telangana
"Tata Motors Cars Showroom - Select Cars, Chandanagar","Plot No 98 and 99, Ground Floor",Hyderabad,9.17045E+11,crossings.procures.restrict,Telangana
"Tata Motors Cars Showroom - Venkataramana Motors, ECIL Cross Road","Plot No 11, Victory Plaza",Hyderabad,9.17045E+11,honey.museum.hazelnuts,Telangana
"Tata Motors Cars Showroom - Venkataramana Motors, Vanasthalipuram","Plot No 9 and 10, Panama Cross Road",Hyderabad,9.17045E+11,corrosive.shorten.highly,Telangana
"Tata Motors Cars Showroom - Venkataramana Motors, Kukatpally","2/25/1 & 2/25/B, Survey No 128/2",Hyderabad,9.19167E+11,usage.whizzed.meatball,Telangana
"Tata Motors Cars Showroom - Jasper Industries, Narsingi","Plot No 5, Sy No 316, 317 & 321, 322, Merva Township",Hyderabad,9.1888E+11,conqueror.lightly.amaze,Telangana
"Tata Motors Cars Showroom - Select Cars, Karmanghat","Plot No 3, 5, Survey No 28, 29 & 72 Part, Bairamalguda Road",Hyderabad,9.19866E+11,sake.stream.fermented,Telangana
"Tata Motors Cars Showroom - Venkataramana Motors, Gachibowli",H No 1/26/1/42,Hyderabad,9.17045E+11,catching.pavilions.hubcaps,Telangana
"Tata Motors Cars Showroom - Tejaswi Automobiles, Madhapur","Plot No 4/14, KPHB Road",Hyderabad,9.17045E+11,seemingly.unloading.machine,Telangana
"Tata Motors Cars Showroom - Select Cars, Bachupally","Sy No 1/44/6, Sy No 59 C",Bachupally,9.19167E+11,boards.spoken.greyhound,Telangana
"Tata Motors Cars Showroom - Prathammalik Auto, Boduppal","Sy No 33 to 35, Pillar No 116, Medipally",Hyderabad,9.1888E+11,obstruction.penny.homecare,Telangana
"Tata Motors Cars Showroom - Venkataramana Motors, Vikarabad","No 3/2/46, Hyderabad Road",Vikarabad,9.18291E+11,picturing.editor.truly,Telangana
"Tata Motors Cars Showroom - Venkataramana Motors, Tandur","Sy No 51, Plot No 24",Tandur,9.18291E+11,administer.updating.angry,Telangana
"Tata Motors Cars Showroom - Orange Auto, Malkajgiri",Srini Developers,Rangareddy,9.18879E+11,subject.hound.idea,Telangana
"Tata Motors Cars Showroom - Tejaswi Automobiles, Kandi","NH 65, Main Road",Sangareddy,9.18879E+11,amplified.behaving.advances,Telangana
"Tata Motors Cars Showroom - Orange, Medak","1321/A, Beside Sri Sai Balaji Garden",Medak,9.18291E+11,initiates.jeep.clots,Telangana
"Tata Motors Cars Showroom - Tejaswi Automobiles, Pastapur","Plot No 7, Survey No 96/A/7",Zaheerabad,9.18879E+11,elevates.smirking.gaps,Telangana
"Tata Motors Cars Showroom - Tejaswi Automobiles, Ponnala","Survey No 198/3, Siddhipet X Road, Hyderabad Road",Siddipet,9.18879E+11,plant.afterschool.victimless,Telangana
"Tata Motors Cars Showroom - Sree Venkateswara Motors, NH 7",House No 5/5/215,Kamareddy,9.18879E+11,uncut.doers.flask,Telangana
"Tata Motors Cars Showroom - Sree Venkateswara Motors, Gunj Road",House No 1/3/450,Bodhan,9.18879E+11,rattler.suffix.mermaids,Telangana
"Tata Motors Cars Showroom - Sree Venkateswara Motors, Perkit Road",No 1/25/3/D,Armoor,9.18879E+11,silverware.instruct.suspect,Telangana
"Tata Motors Cars Showroom - Sree Venkateswara Motors, Hyderabad Road","No 1/4/1A, Borgaon",Nizamabad,9.17045E+11,packages.starred.saved,Telangana
"Tata Motors Cars Showroom - Sree Venkateswara Motors, Manchiryal Road",Ground Floor,Nirmal,9.18879E+11,sagging.justifies.racked,Telangana
"Tata Motors Cars Showroom - Select Motors, Bellam Pall Cross Road","No 12/123, Main Road",Mancherial,9.19167E+11,innovate.credit.insisting,Telangana
"Tata Motors Cars Showroom - Sree Venkateswara Motors, Dasnapoor","Shed No 9, Industrial Area",Adilabad,9.18879E+11,type.system.uncouth,Telangana
"Tata Motors Cars Showroom - Select Motors, Kothirampur",No 8/6/0430,Karimnagar,9.17045E+11,closet.wand.slimming,Telangana
"Tata Motors Cars Showroom - Select Motors, Jothynagar","House No 5/6/54/55/56, CI Cross Road",Ramagundam,9.19167E+11,acorns.eyepatch.underdog,Telangana
"Tata Motors Cars Showroom - Select Motors, Jagityal Road","No 1/5/103/1 and 2, Ward No 13",Metpally,9.19167E+11,hypnotist.patrolled.post,Telangana
"Tata Motors Cars Showroom - Select Motors, Karimnagar Road",No 1/5/176/1,Jagtial,9.19167E+11,overreacted.kevlar.honk,Telangana
"Tata Motors Cars Showroom - Select Motors, SVP Road",No 15/1/422/A and B,Warangal,9.17045E+11,overcomes.chaos.boats,Telangana
"Tata Motors Cars Showroom - Select Motors, Yellandu Road","Gilada Modern Dal and Oil Mill Complex, No 1/4/112/J",Mahabubabad,9.19167E+11,hippy.exploring.aimed,Telangana
"Tata Motors Cars Showroom - Select Motors, Jangaon Hyderabad Road",Plot No 6/2/4/5,Jangaon,9.18879E+11,inhibitor.anaerobic.pigments,Telangana
"Tata Motors Cars Showroom - Select Motors, Bhupalpally","No 21/10/74/8, TNGO's Bhavan, Main Road",Bhupalpally,9.18879E+11,eager.wielding.antenna,Telangana
"Tata Motors Cars Showroom - Venkata Automobiles, Mamatha Hospital Road","No 6/1/16/100, VVC Gardens",Khammam,9.18292E+11,scoring.costumed.processes,Telangana
"Tata Motors Cars Showroom - Venkata Automobiles, Lakshmidevipally",Veeraiah Chowdary Complex,Kothagudem,9.19167E+11,sigh.stupidly.broadcast,Telangana
"Tata Motors Cars Showroom - Venkatramana Motors, Bhadrachalam","Ground Floor, Cherla Road",Bhadrachalam,9.19167E+11,racetrack.tour.prance,Telangana
"Tata Motors Cars Showroom - Venkata Automobiles, Main Road",Ground Floor,Sathupally,9.19167E+11,lightest.info.indigo,Telangana
"Tata Motors Cars Showroom - Venkataramana Motors, Nalgonda","Sy No 500, Cheralapally Village, Nalgonda Town",Nalgonda,9.18879E+11,microwave.escalate.testing,Telangana
"Tata Motors Cars Showroom - Venkataramana Motors, Bhuvanagiri","VVC Complex, Bhongiri Bye Pass Road",Bhuvanagiri,9.18879E+11,saturate.divorcing.expert,Telangana
"Tata Motors Cars Showroom - Venkataramana Motors, Miryalaguda","Miryalguda Industrial Area, Sagar Road",Miryalaguda,9.19167E+11,ironclad.ripples.food,Telangana
"Tata Motors Cars Showroom - Venkataramana Motors, Suryapet",H No 1/6/141/29/A1,Suryapet,9.18879E+11,pepper.firewall.splints,Telangana
"Tata Motors Cars Showroom - Venkataramana Motors, Appanapally","D No 11/4/9/6, Survey No 180A, Yedire Shivar",Mahbubnagar,9.19121E+11,navigate.entering.urgently,Telangana
"Tata Motors Cars Showroom - Venkataramana Motors, Wanaparthy","H No 7/22/3, Srinivasapur, Pebbair Road",Wanaparthy,9.18291E+11,moguls.kinder.tributes,Telangana
"Tata Motors Cars Showroom - Venkataramana Motors, Nagarkurnool","Sy No 41, Uyyalawada Road",Nagarkurnool,9.18291E+11,piping.occupies.assume,Telangana
"Tata Motors Cars Showroom - Progressive Automobiles, Kalyani",AA Road,Agartala,9.17045E+11,bitter.stylists.guitars,Tripura
"Tata Motors Cars Showroom - Progressive Automobiles, Gomati","Matabari Road, PS Radhakishorepur, NH 8",South Tripura,9.19167E+11,perceptibly.bureau.adjudicator,Tripura
"Tata Motors Cars Showroom - Progressive Automobiles, North Tripura",Rajbari,North Tripura,9.18292E+11,panels.crunched.seasons,Tripura
"Tata Motors Cars Showroom - Progressive Automobiles, Ambassa",Ground Floor,Dhalai,9.18879E+11,stroller.invitees.entrusted,Tripura
"Tata Motors Cars Showroom - SAB Motors, Patel Nagar",No G94,Ghaziabad,9.17045E+11,homing.roses.flamingo,Uttar-Pradesh
"Tata Motors Cars Showroom - SAB Motors, Mohan Nagar","CF 1/1/1 to 1/5, Harsha Compound, Site 2, Loni Road Industrial Area",Ghaziabad,9.17045E+11,reclined.speakers.sparkle,Uttar-Pradesh
"Tata Motors Cars Showroom - SAB Motors, Sahibabad","Plot No S/3, Sahibabad, Site 4 Industrial Area",Ghaziabad,9.19619E+11,vacancies.migrate.clearly,Uttar-Pradesh
"Tata Motors Cars Showroom - SAB Motors, Modinagar","Khasra No 680, Delhi Meerut Road",Modinagar,9.18291E+11,notch.logged.pylon,Uttar-Pradesh
"Tata Motors Cars Showroom - Sagar Motors, Sector 63","D 48, Gautam Budh Nagar",Noida,9.19168E+11,hedgehog.smoothly.rekindle,Uttar-Pradesh
"Tata Motors Cars Showroom - Sagar Motors, Sector 5",Plot No B 123,Noida,9.17045E+11,tadpoles.ticket.arranger,Uttar-Pradesh
"Tata Motors Cars Showroom - Sagar Motors, Greater Noida","No E36, Site 4, UDSIDC",Greater Noida,9.17045E+11,husbands.envisage.expansion,Uttar-Pradesh
"Tata Motors Cars Showroom - Mascot Motors Pvt Ltd, Delhi GT Road",5th Kms Stone,Aligarh,9.17045E+11,immune.buzzards.tennis,Uttar-Pradesh
"Tata Motors Cars Showroom - Mascot Motors, Khair",Khair Palwal Road,Aligarh,9.18291E+11,feathers.ogre.ozone,Uttar-Pradesh
"Tata Motors Cars Showroom - Mascot Motors, Atrauli",Ramghat Road,Aligarh,9.19167E+11,routine.paddlers.gushes,Uttar-Pradesh
"Tata Motors Cars Showroom - Mascot Motors Pvt Ltd, Dibai","Prakash Complex, Railway Road",Bulandshahr,9.19619E+11,exacted.mailboxes.cookie,Uttar-Pradesh
"Tata Motors Cars Showroom - Mascot Motors Pvt Ltd, Bulandshahr",Ground Floor,Bulandshahr,9.18291E+11,dozens.ranches.shelved,Uttar-Pradesh
"Tata Motors Cars Showroom - Mascot Motors Pvt Ltd, Khurja","Plot No 20, Teachers Colony, Junction Road",Bulandshahr,9.18292E+11,thread.blossom.hurtles,Uttar-Pradesh
"Tata Motors Cars Showroom - Sagar Motors, Gautam Buddha Nagar","Plot No 1724, Jewar Tappal Road",Noida,9.18291E+11,face.presented.fires,Uttar-Pradesh
"Tata Motors Cars Showroom - Mascot Motors, Sikandrabad",SDM Court,Bulandshahr,9.19167E+11,frost.submerge.grudging,Uttar-Pradesh
"Tata Motors Cars Showroom - Mascot Motors, Siyana",Ground Floor,Bulandshahr,9.18291E+11,clicking.shampooing.disliked,Uttar-Pradesh
"Tata Motors Cars Showroom - Mascot Motors, Agra Road",Ground Floor,Hathras,9.18291E+11,package.employers.teacher,Uttar-Pradesh
"Tata Motors Cars Showroom - Mascot Motors, Sikandarao",Aligarh Etha Road,Sikandarao,9.19167E+11,subcontract.velodrome.ushered,Uttar-Pradesh
"Tata Motors Cars Showroom - L R P Motors, Karhal Chauraha",Ground Floor,Mainpuri,9.18291E+11,toddler.hotspots.laugh,Uttar-Pradesh
"Tata Motors Cars Showroom - LRP Motors, Ghiror","Shop No 552, Agra Road",Firozabad,9.16399E+11,judges.averts.intolerably,Uttar-Pradesh
"Tata Motors Cars Showroom - L.R.P. Motors, Ashokpur","Ground Floor, Swastik Bhawan, Gt Road",Kurawali,9.18292E+11,exposed.shaming.jokingly,Uttar-Pradesh
"Tata Motors Cars Showroom - LRP Motors, Bewar","GT Road, Bewar Agra Road",Bewar,9.19168E+11,delude.tailing.stallion,Uttar-Pradesh
"Tata Motors Cars Showroom - L R P Motors, Pilkar","Plot No 211, 212, NH 2, Kanpur Road",Etawah,9.17045E+11,vital.curvy.remarking,Uttar-Pradesh
"Tata Motors Cars Showroom - Society Motors, Dibiyapur Road",Kakhawatoo Bamba,Auraiya,9.18291E+11,stilted.cure.spud,Uttar-Pradesh
"Tata Motors Cars Showroom - RA Motors, Kasganj Road",Ground Floor,Etah,9.17045E+11,political.prickly.checked,Uttar-Pradesh
"Tata Motors Cars Showroom - R A Motors, Main Market Road",Nadrai Gate,Kasganj,9.18291E+11,chainsaw.cookies.vague,Uttar-Pradesh
"Tata Motors Cars Showroom - RA Motors, Aliganj","Ground Floor, Nagla Padav, Kayamganj Road",Etah,9.18291E+11,napkins.expanded.openly,Uttar-Pradesh
"Tata Motors Cars Showroom - Society Motors, Macrobert Ganj",No 12/483,Kanpur,9.17045E+11,used.price.finishers,Uttar-Pradesh
"Tata Motors Cars Showroom - Sai Motors, Fazalganj","No 119/505, Kalpi Road",Kanpur,9.17045E+11,dusted.wing.flexibly,Uttar-Pradesh
"Tata Motors Cars Showroom - Society Motors, GT Road","No 87/8, Gunjan Cinema Complex",Kanpur,9.17045E+11,petted.search.straying,Uttar-Pradesh
"Tata Motors Cars Showroom - Sai Motors, Ruma","No 225/2, Allahabad Road",Kanpur,9.17045E+11,face.splendid.eruptions,Uttar-Pradesh
"Tata Motors Cars Showroom - Standard, Saket Nagar","No 127/182, W/1, Juhi Kalan",Kanpur,9.18292E+11,gasp.speared.lifeguard,Uttar-Pradesh
"Tata Motors Cars Showroom - Icon Cars Kanpur Private Limited, Kalyanpur","H 43, Scheme No 1, Awas Vikas Keshavpuram",Kanpur Nagar,9.18292E+11,stirs.tummy.jungle,Uttar-Pradesh
"Tata Motors Cars Showroom - Standard, Akbarpur",NH 2,Akbarpur,9.19619E+11,shrugging.larvae.ever,Uttar-Pradesh
"Tata Motors Cars Showroom - RA Motors, Kaimganj","Zubair Market, Infront of Khan Petrol Pump",Kaimganj,9.19168E+11,conscripted.outlooks.impasses,Uttar-Pradesh
"Tata Motors Cars Showroom - R A Motors, Thandi Sadak",Lal Darwaja,Farrukhabad,9.18291E+11,fully.inflation.magazines,Uttar-Pradesh
"Tata Motors Cars Showroom - Society Motors Ltd, Chhibramau","Ground Floor, Shaurikh Road",Kannauj,9.18292E+11,disjunctive.undertone.longitudes,Uttar-Pradesh
"Tata Motors Cars Showroom - Society Motors, Tirwa Road",Ground Floor,Kannauj,9.18291E+11,cadence.philosophers.untrue,Uttar-Pradesh
"Tata Motors Cars Showroom - Society Motors, Tulsi Puram","Plot No 1, Gadan Khera Bypass Road",Unnao,9.18291E+11,officials.bothered.florists,Uttar-Pradesh
"Tata Motors Cars Showroom - JMK Motors, Aliganj",Banda Atarra Road,Banda,9.18291E+11,deluded.everybody.stables,Uttar-Pradesh
"Tata Motors Cars Showroom - G P Motors, Amanpur",Bedi Pulia,Karwi,9.18291E+11,powers.timetable.incongruent,Uttar-Pradesh
"Tata Motors Cars Showroom - JMK Motors, Gandhi Nagar",Ground Floor,Mahoba,9.18291E+11,decisive.portfolio.mouse,Uttar-Pradesh
"Tata Motors Cars Showroom - G P Motors, Civil Lines","No 31, MG Marg",Prayagraj,9.17045E+11,fussed.starfish.hidden,Uttar-Pradesh
"Tata Motors Cars Showroom - G P Motors, Osa","Ground Floor, Manjhanpur Road",Manjhanpur,9.18291E+11,curdled.databases.sentry,Uttar-Pradesh
"Tata Motors Cars Showroom - GP Motors Pvt Ltd, Meja Road",Meja Road Chauraha,Prayagraj,9.19619E+11,conserved.parasols.breadcrumb,Uttar-Pradesh
"Tata Motors Cars Showroom - Society Motors Ltd, GT Road","Ground Floor, Nauwa Bag",Fatehpur,9.18291E+11,watchers.alas.remind,Uttar-Pradesh
"Tata Motors Cars Showroom - Brijlax Motors, Ganeshpur","Araji No 542, Airport Road",Varanasi,9.19168E+11,wipe.fizzy.shapeless,Uttar-Pradesh
"Tata Motors Cars Showroom - Brijlax Motors, Sigra","D 58/19, Church Compound",Varanasi,9.17045E+11,bedding.crowns.obstinate,Uttar-Pradesh
"Tata Motors Cars Showroom - GP Motors Pvt Ltd, Handia","Lala Bazar Market, Pillar No 1",Prayagraj,9.18879E+11,vocab.transacted.disproved,Uttar-Pradesh
"Tata Motors Cars Showroom - Puneet Auto, Jaunpur","Jagarnath Patti, Pargana Haveli",Jaunpur,9.19167E+11,misty.below.spurted,Uttar-Pradesh
"Tata Motors Cars Showroom - Puneet Auto Sales Pvt Ltd, Chandavak","Ground Floor, Ramdevpur",Jaunpur,9.18879E+11,moves.grannies.provoked,Uttar-Pradesh
Tata Motors Cars Showroom - Puneet Autosales Pvt Ltd,"SH 5, SH 5, Rampur",Jaunpur,9.19168E+11,wardrobes.directory.resampling,Uttar-Pradesh
"Tata Motors Cars Showroom - Puneet Auto Sales Pvt Ltd, Jagdishpur","Ground Floor, Azamgarh Faizabad Road, Atrauliya",Azamgarh,9.19077E+11,scratchy.rank.orderliness,Uttar-Pradesh
"Tata Motors Cars Showroom - Shree Dev Wheels, Sahadatganj","No 252, Abu Sarai, Lucknow Bypass",Ayodha,9.17045E+11,unfocused.stalemate.barbarian,Uttar-Pradesh
"Tata Motors Cars Showroom - Ananya Motors, Patel Nagar",Tanda Road,Ambedkar Nagar,9.18291E+11,ulterior.mops.hydrant,Uttar-Pradesh
"Tata Motors Cars Showroom - Puneet Auto, Nawabganj",Hanumannt Nagar,Barabanki,9.1962E+11,awaiting.outbursts.unable,Uttar-Pradesh
"Tata Motors Cars Showroom - Puneet Auto Sales, Haidergarh",Ground Floor,Barabanki,9.18291E+11,fairways.unkindness.intruded,Uttar-Pradesh
"Tata Motors Cars Showroom - Puneet Auto Sales, Ram Sanehi Ghat","Ground Floor, NH 27",Barabanki,9.18879E+11,colossal.unburied.smile,Uttar-Pradesh
"Tata Motors Cars Showroom - Puneet Auto, Gomti Nagar","CP/2, SRS Mall, Vipul Khand 4",Lucknow,9.19619E+11,offshore.positives.home,Uttar-Pradesh
"Tata Motors Cars Showroom - Puneet Auto, Lucknow","Plot No 26, Upper Ground Floor",Lucknow,9.18291E+11,sideburns.dialect.sprawls,Uttar-Pradesh
"Tata Motors Cars Showroom - Goldrush, Ashok Marg",No 19,Lucknow,9.17045E+11,suave.cake.disbelief,Uttar-Pradesh
"Tata Motors Cars Showroom - SRM Motors, Charbagh","No 31, Station Road",Lucknow,9.19167E+11,classed.wing.beep,Uttar-Pradesh
"Tata Motors Cars Showroom - SRM Motors, Hind Nagar","Plot No 588, Kanpur Road",Lucknow,9.17045E+11,twitchy.lace.motive,Uttar-Pradesh
"Tata Motors Cars Showroom - Goldrush, Faizabad Road",Gopal Plaza,Lucknow,9.17045E+11,prominent.president.emblem,Uttar-Pradesh
"Tata Motors Cars Showroom - Seven Autocorp, Sitapur Road","Ground Floor, Sitapur Road, Madiyanva",Lucknow,9.19168E+11,crinkled.scoring.deranged,Uttar-Pradesh
"Tata Motors Cars Showroom - SRM Motors, Sitapur Road","No 11 CP/2, Ring Road",Lucknow,9.17045E+11,dishing.redeemed.chats,Uttar-Pradesh
"Tata Motors Cars Showroom - Puneet Auto Sales, Tiwariganj","No 403 and 407, Faizabad Road",Lucknow,9.18879E+11,fatter.represent.expansion,Uttar-Pradesh
"Tata Motors Cars Showroom - Goldrush, Malihabad",Malhibad Chauraha,Lucknow,9.18291E+11,careful.grapevine.tailors,Uttar-Pradesh
"Tata Motors Cars Showroom - TMB Motors, Banthara",Sarojini Nagar,Banthara,9.18879E+11,measuring.inherit.stiffly,Uttar-Pradesh
"Tata Motors Cars Showroom - Puneet Auto Sales Pvt Ltd, Gosainganj",Ground Floor,Lucknow,9.19168E+11,snuck.unfilled.tastings,Uttar-Pradesh
"Tata Motors Cars Showroom - SRM Motors, Main Raebareli Road",Ground Floor,Mohanlalganj,9.18291E+11,agreeable.tweed.relatives,Uttar-Pradesh
"Tata Motors Cars Showroom - Puneet Auto, Jagdishpur",Ilmaasganj,Jagdishpur,9.1962E+11,uncontrolled.offroad.encapsulate,Uttar-Pradesh
"Tata Motors Cars Showroom - Ananya Motors, Amkol","No 546, Faizabad Road",Sultanpur,9.17045E+11,migrants.persuade.cheapening,Uttar-Pradesh
"Tata Motors Cars Showroom - SRM Motors, Bargad Chauraha",Ground Floor,Raebareli,9.18291E+11,panels.slid.pheasants,Uttar-Pradesh
"Tata Motors Cars Showroom - G P Motors, Bhupiya Mau Chowraha",Ground Floor,Pratapgarh,9.18291E+11,misstating.library.cabaret,Uttar-Pradesh
"Tata Motors Cars Showroom - OK Motors, Bharauna","Ground Floor, Chunnar Road",Mirzapur,9.17045E+11,waltzed.stormed.pace,Uttar-Pradesh
"Tata Motors Cars Showroom - Trident Vehicles Private Limited, Sonebhadra","Ground Floor, Varanasi Shaktinagar Highway",Robertsganj,9.19619E+11,jive.antelopes.hampering,Uttar-Pradesh
"Tata Motors Cars Showroom - Trident Vehicles, Varanasi Shaktinagar Highway",Ground Floor,Renukoot,9.18292E+11,destiny.investigator.downplay,Uttar-Pradesh
"Tata Motors Cars Showroom - Brijlax Motors, Sanjay Nagar","Ward No 11, GT Road",Chandauli,9.18291E+11,barn.contagious.clearer,Uttar-Pradesh
"Tata Motors Cars Showroom - Brijlax Motors, Cantt",Ground Floor,Ghazipur,9.18291E+11,subjecting.stallion.garments,Uttar-Pradesh
"Tata Motors Cars Showroom - KD Motocorp, Nanakganj","Ground Floor, Lucknow Road",Hardoi,9.17045E+11,translator.littered.snappers,Uttar-Pradesh
"Tata Motors Cars Showroom - KD Motocorp, Sandila",Lucknow Road,Hardoi,9.18879E+11,rift.riches.condensed,Uttar-Pradesh
"Tata Motors Cars Showroom - KD Motocorp, Hardoi",Kanpur Road,Hardoi,9.1888E+11,pegged.inherits.boxing,Uttar-Pradesh
"Tata Motors Cars Showroom - KD Motocorp, Gulam Khera","Ground Floor, Pargana Jamour, NH 24",Shahjahanpur,9.17045E+11,unsecured.roughest.eclipses,Uttar-Pradesh
"Tata Motors Cars Showroom - KD Motocorp, Jalalabad","Ground Floor, Katra Jalalabadpur Marg",Shahjahanpur,9.18291E+11,screamed.become.formation,Uttar-Pradesh
"Tata Motors Cars Showroom - KD Motocorp, Powayan",Khutar Road,Shahjahanpur,9.18291E+11,exonerate.paradise.alone,Uttar-Pradesh
"Tata Motors Cars Showroom - Grover Motors, Bypass Road",Ground Floor,Baheri,9.18291E+11,presumes.cuddling.rectangular,Uttar-Pradesh
"Tata Motors Cars Showroom - Grover Motors, CB Ganj","4th KM, Rampur Road",Bareilly,9.17045E+11,reissued.uncle.guardian,Uttar-Pradesh
"Tata Motors Cars Showroom - Grover Motors, Meerganj","Ground Floor, Rampur Rd Main Highway",Bareilly,9.18292E+11,cloudy.disappoints.prowl,Uttar-Pradesh
"Tata Motors Cars Showroom - Grover Motors, Bareilly Road",Ground Floor,Budaun,9.18291E+11,appointed.victor.examples,Uttar-Pradesh
"Tata Motors Cars Showroom - Grover Motors, Dataganj","Ground Floor, Budaun Road",Badaun,9.18292E+11,widgets.reflected.lentil,Uttar-Pradesh
"Tata Motors Cars Showroom - Shree Balaji Autowheels, Delhi Road",Ground Floor,Moradabad,9.17045E+11,dice.sobs.hurtles,Uttar-Pradesh
"Tata Motors Cars Showroom - Shree Balaji Autowheels, Naugawa Road",Ground Floor,Amroha,9.19167E+11,deposits.smoke.beak,Uttar-Pradesh
"Tata Motors Cars Showroom - Shree Balaji Autowheels, Delhi Road",NH 24,Gajraula,9.18291E+11,supposes.nightcap.alien,Uttar-Pradesh
"Tata Motors Cars Showroom - Shree Balaji Autowheels Pvt Ltd, Moradabad Road",Ground Floor,Sambhal,9.18292E+11,coined.interfacing.pearly,Uttar-Pradesh
"Tata Motors Cars Showroom - Grover Motors, Chandausi",Ground Floor,Moradabad,9.1962E+11,cone.perfected.motivator,Uttar-Pradesh
"Tata Motors Cars Showroom - Shree Balaji, Kanth",Haridwar Kanth Road,Jyotiba Phule Nagar,9.18879E+11,thumb.debate.cities,Uttar-Pradesh
"Tata Motors Cars Showroom - Shree Balaji Autowheels, Moradabad Kashipur Road",Ramuwala Ganesh,Moradabad,9.19167E+11,clutter.wrong.burglars,Uttar-Pradesh
"Tata Motors Cars Showroom - Shree Balaji Autowheels, Haldwani Road",Ground Floor,Rampur,9.18291E+11,converge.vocational.tidy,Uttar-Pradesh
"Tata Motors Cars Showroom - Shree Balaji, Bilaspur","Kua Khera, Rampur Rudrapur road",Bilaspur,9.19619E+11,maps.ultramodern.assess,Uttar-Pradesh
"Tata Motors Cars Showroom - Shree Balaji Autowheels, Bazpur Road",Ground Floor,Rampur,9.18879E+11,mopped.increases.mentioned,Uttar-Pradesh
"Tata Motors Cars Showroom - SAB Motors, Bhojpur",H NO 90,Bhojpur,9.18292E+11,perusing.rotations.exist,Uttar-Pradesh
"Tata Motors Cars Showroom - SAB Motors, Hapur",Ground Floor,Hapur,9.18291E+11,notices.return.remainder,Uttar-Pradesh
"Tata Motors Cars Showroom - Mangalam Autoworld, Najibabad Road",Ground Floor,Bijnor,9.1888E+11,sapping.natively.plant,Uttar-Pradesh
"Tata Motors Cars Showroom - Mangalam Autoworld, Dhampur",Ground Floor,Bijnor,9.19619E+11,competent.tributes.compacts,Uttar-Pradesh
"Tata Motors Cars Showroom - Mangalam Autoworld Private Limited, Kotdwar Road",Ground Floor,Bijnor,9.18291E+11,sharpens.breathed.voted,Uttar-Pradesh
"Tata Motors Cars Showroom - Midas Motors, Chander Nagar","No 21 B, Ambala Road",Saharanpur,9.17045E+11,snuggled.private.quilting,Uttar-Pradesh
"Tata Motors Cars Showroom - Midas Motors, Deoband","Agarwal Market, GT Road",Saharanpur,9.18879E+11,bonnet.enhanced.clays,Uttar-Pradesh
"Tata Motors Cars Showroom - Midas Motors, Ganga Vihar",Karnal Meerut Road,Shamli,9.18291E+11,grew.published.lessening,Uttar-Pradesh
"Tata Motors Cars Showroom - Anjney Automobiles Pvt Ltd, Janta Nagar","No 45, Garh Road",Meerut,9.18879E+11,deposits.consoled.violin,Uttar-Pradesh
"Tata Motors Cars Showroom - Shree Vasu, Delhi Road","No C1, Delhi Road",Meerut,9.17045E+11,boarding.round.vaulting,Uttar-Pradesh
"Tata Motors Cars Showroom - Shree Vasu, Sardhana",Sardana Daurala Road,Meerut,9.19619E+11,prayers.quilt.avoiding,Uttar-Pradesh
"Tata Motors Cars Showroom - Shree Vasu, Mawana",Near Jharkhandi Mandir,Mawana,9.19619E+11,flotation.valued.tone,Uttar-Pradesh
"Tata Motors Cars Showroom - Shree Vasu, Bagpat",Delhi Sahranpur Road,Baraut,9.18291E+11,printer.puts.twinkling,Uttar-Pradesh
"Tata Motors Cars Showroom - Midas Motors, Bilaspur","Plot No 77/1, NH 58",Muzaffarnagar,9.17045E+11,neat.deduct.important,Uttar-Pradesh
"Tata Motors Cars Showroom - Midas, Khatauli",Nagar Colony,Khatauli,9.18292E+11,neutron.skidding.chess,Uttar-Pradesh
"Tata Motors Cars Showroom - Goldrush, NH 30",Ground Floor,Sitapur,9.19619E+11,cooked.giant.apparatuses,Uttar-Pradesh
"Tata Motors Cars Showroom - Goldrush, Mahmudabad",Ground Floor,Sitapur,9.19619E+11,agree.overdone.devours,Uttar-Pradesh
"Tata Motors Cars Showroom - Goldrush, Misrikh",Ground Floor,Misrikh,9.18879E+11,horizon.woodpeckers.stitched,Uttar-Pradesh
"Tata Motors Cars Showroom - Grover Motors, Naugawa Chauraha",Ground Floor,Pilibhit,9.18291E+11,fortified.branched.delight,Uttar-Pradesh
"Tata Motors Cars Showroom - Grover Motors, Banda Road",Ground Floor,Puranpur,9.18291E+11,clubbing.trades.medium,Uttar-Pradesh
"Tata Motors Cars Showroom - Rana Motors, Lohari Nagar",Ground Floor,Lakhimpur Kheri,9.17045E+11,flinches.interview.decimal,Uttar-Pradesh
"Tata Motors Cars Showroom - Rana Motors, Palia",Ground Floor,Lakhimpur Kheri,9.19619E+11,plankton.tabs.pasta,Uttar-Pradesh
"Tata Motors Cars Showroom - Shree Dev Wheels, Gonda Lucknow Road",Police Line,Gonda,9.17045E+11,harmonies.trembled.ingested,Uttar-Pradesh
"Tata Motors Cars Showroom - Shree Dev Wheels, Anand Bagh",Ground Floor,Balrampur,9.18291E+11,mobile.quail.plant,Uttar-Pradesh
"Tata Motors Cars Showroom - Shree Dev Wheels, Gonda Road",Kedia Bhawan,Bahraich,9.19619E+11,entourages.zigzagged.recursive,Uttar-Pradesh
"Tata Motors Cars Showroom - Seven Autocorp Private Limited, Industrial Area","A1, Plastic Complex",Basti,9.1962E+11,daylight.seep.gyrate,Uttar-Pradesh
"Tata Motors Cars Showroom - Seven Autocorp Private Limited, Saraiya Bypass",Ground Floor,Sant Kabir Nagar,9.19167E+11,rant.pensions.starbursts,Uttar-Pradesh
"Tata Motors Cars Showroom - Seven Autocorp Private Limited, Uska Road",Pakdi Chauraha,Siddharthnagar,9.18291E+11,passage.glimpses.regrets,Uttar-Pradesh
"Tata Motors Cars Showroom - RKL Motors, Gorakhpur","Gulharia, Medical College Road",Gorakhpur,9.19167E+11,vibrate.bunny.dignitary,Uttar-Pradesh
"Tata Motors Cars Showroom - RKL Motors, Sonauli Bypass Road",Ground Floor,Pharenda,9.18291E+11,dryness.mumps.offends,Uttar-Pradesh
"Tata Motors Cars Showroom - RKL Motors, Nautanwa",Murila,Nautanwa,9.18879E+11,alphabetical.starstruck.lobs,Uttar-Pradesh
"Tata Motors Cars Showroom - RKL Motors, GIDA, Sector 9","AL 4A, Ground Floor",Gorakhpur,9.17045E+11,discount.playoffs.widely,Uttar-Pradesh
"Tata Motors Cars Showroom - RKL Motors, Hata Road",Purva Circle,Deoria,9.18291E+11,ranges.bookings.inherits,Uttar-Pradesh
"Tata Motors Cars Showroom - RKL Motors, Kasya",Ground Floor,Kushinagar,9.18291E+11,remaining.ridiculed.deeply,Uttar-Pradesh
"Tata Motors Cars Showroom - Puneet Auto Sales Private Limited, Maunath Bhanjan","SH 34, Baragawan, Mau Azamgarh Road",Mau,9.18879E+11,nags.bravery.etches,Uttar-Pradesh
"Tata Motors Cars Showroom - Puneet Auto Sales Pvt Ltd, Dohrighat","Ground Floor, Ibrahimabad",Mau,9.19168E+11,deeds.stirs.destroyer,Uttar-Pradesh
"Tata Motors Cars Showroom - Puneet Auto Sales Private Limited, Saidwara",Hamidpur,Azamgarh,9.18292E+11,winces.timeline.response,Uttar-Pradesh
"Tata Motors Cars Showroom - Puneet Auto, Ballia",Rajdhani Road,Ballia,9.19167E+11,sweeten.umpires.contracting,Uttar-Pradesh
"Tata Motors Cars Showroom - Puneet Auto Sales Pvt Ltd, Devraj Brahm Mod","Ground Floor, Devraj Brahm Mod",Ballia,9.17704E+11,mousetraps.electronic.sanction,Uttar-Pradesh
"Tata Motors Cars Showroom - Nawal Motors, Industrial Area","No C 11, Site A",Mathura,9.17045E+11,secondly.grabs.executive,Uttar-Pradesh
"Tata Motors Cars Showroom - Nawal Motors, Raya","Ground Floor, Mant Road",Raya,9.18291E+11,slimming.nearing.warping,Uttar-Pradesh
"Tata Motors Cars Showroom - Nawal Motors, Kosi Kalan","Ground Floor, Bathan Gate",Mathura,9.18291E+11,identifying.numbered.hacker,Uttar-Pradesh
"Tata Motors Cars Showroom - Ashok Auto, Sanjay Place","No 119/120/8, Ashok Cosmos Mall",Agra,9.17045E+11,online.exams.outboard,Uttar-Pradesh
"Tata Motors Cars Showroom - Magan Motors, Lawyers Colony",No B/3,Agra,9.18291E+11,speedily.durations.tributes,Uttar-Pradesh
Tata Motors Cars Showroom - Artauni,"Ground Floor, Agra Mathura Road, Artoni Mile Stone, Nh 2",Agra,9.18879E+11,warp.poetry.shops,Uttar-Pradesh
"Tata Motors Cars Showroom - Ashok Auto Sales, Kiraoli",Ground Floor,Agra,9.18879E+11,lives.famous.promising,Uttar-Pradesh
"Tata Motors Cars Showroom - JMK Motors, Civil Lines","Ground Floor, Janki Puram",Jhansi,9.17045E+11,koala.ballpoint.beast,Uttar-Pradesh
"Tata Motors Cars Showroom - JMK Motors, Jhansi Road",Ground Floor,Lalitpur,9.18291E+11,bangle.groups.unsettled,Uttar-Pradesh
"Tata Motors Cars Showroom - JMK Motors, Jila Parishad Road",Ground Floor,Orai,9.18291E+11,assemble.picturing.swim,Uttar-Pradesh
"Tata Motors Cars Showroom - Amit Autocars Private Limited, Khatima","Tanakpur Road, Ammau",Kashipur,9.18291E+11,away.moderation.memorial,Uttarakhand
"Tata Motors Cars Showroom - Gola Ganapati Motors, Nanda Lane",Ground Floor,Nainital,9.19167E+11,loped.laden.ventilate,Uttarakhand
"Tata Motors Cars Showroom - Oberai Motors, Shibu Nagar","Tariyal Chowk, Pauri Garhwal",Kotdwar,9.18291E+11,inspects.spoil.silence,Uttarakhand
"Tata Motors Cars Showroom - Oberai Motors, Maletha",Badrinath Marg,Srinagar,9.18291E+11,nosh.developments.instigating,Uttarakhand
"Tata Motors Cars Showroom - Oberai Motors, Chamoli","Hotel Dev Darshan, New Bus Stand",Karanprayag,9.18291E+11,likens.nurturing.struggled,Uttarakhand
"Tata Motors Cars Showroom - Midas Motors, 6th KM Stone","Ground Floor, Roorkee Dehradun Highway",Roorkee,9.17045E+11,dips.eminent.joystick,Uttarakhand
"Tata Motors Cars Showroom - Midas Motors, Delhi Road","Mohanpur, Mohammad",Roorkee,9.18879E+11,horses.gravitate.bill,Uttarakhand
"Tata Motors Cars Showroom - Doon Tata, Chakrata Road",Plot No 50,Dehradun,9.17045E+11,blip.remain.reefs,Uttarakhand
"Tata Motors Cars Showroom - Oberai Motors, Dehradun","No 146, Pallav Colony, Delhi Road, Chaudhary Colony",Dehradun,9.17045E+11,packages.snowmen.streamers,Uttarakhand
"Tata Motors Cars Showroom - Doon Wheel, Jhajra","Opp Balaji Dham, Chakrata Road",Jhajra,9.19619E+11,dove.riverboat.event,Uttarakhand
"Tata Motors Cars Showroom - Doon Tata, Haridwar Road","Khasra No 244, Pargana Parwa Doon, Kuanwala",Dehradun,9.18291E+11,beige.congealed.brochure,Uttarakhand
"Tata Motors Cars Showroom - Oberai Motors, Babu Ganj",Ground Floor,Vikasnagar,9.18291E+11,exceed.airlifted.sulk,Uttarakhand
"Tata Motors Cars Showroom - Oberai Motors, Bourari Chowk",Ground Floor,New Tehri,9.18291E+11,downsized.institution.spool,Uttarakhand
"Tata Motors Cars Showroom - Doon Wheel, Uttarkashi","Dhunda Devi Dhar, Gangorti Highway",Uttarkashi,9.18291E+11,disparages.redesign.assess,Uttarakhand
"Tata Motors Cars Showroom - Doon Tata, Laxman Jhoola Road",No 581,Rishikesh,9.18291E+11,condiment.decide.tango,Uttarakhand
"Tata Motors Cars Showroom - Midas Motors, Old Industrial Area",No E17,Haridwar,9.18291E+11,ramming.maps.circus,Uttarakhand
"Tata Motors Cars Showroom - Amit Autocars Private Limited, Rampura","5th KM Road, Ramnagar Road",Khatima,9.19619E+11,refinery.jubilation.vocab,Uttarakhand
"Tata Motors Cars Showroom - Gola Ganapati Motors, Lalkuan","Ward No 5, Sahni Building",Nainital,9.18291E+11,tousle.cinema.natively,Uttarakhand
"Tata Motors Cars Showroom - Gola Ganapati, Siltham",Rai Dharchula Road,Pithoragarh,9.1962E+11,dedication.terrain.airway,Uttarakhand
"Tata Motors Cars Showroom - Amit Auto, Champawat",Madli Lohaghat Road,Champawat,9.18879E+11,grumbled.plush.explanations,Uttarakhand
"Tata Motors Cars Showroom - Gola Ganapati Motors, Barielly Road","6th Km Stone, Gora Parao, NH 87",Haldwani,9.17045E+11,pumpkin.picnic.urge,Uttarakhand
"Tata Motors Cars Showroom - Amit Auto, Udham Singh Nagar","Industrial Area, Kichha Bypass Road",Rudrapur,9.19168E+11,brashly.showcase.taxied,Uttarakhand
"Tata Motors Cars Showroom - Amit Auto, Bazpur",Near Riverdale School,Bazpur,9.19167E+11,shatters.misreads.consumptive,Uttarakhand
"Tata Motors Cars Showroom - Gola Ganapati Motors, Karnatak Khola",Lower Mall Road,Almora,9.18291E+11,remembers.wordplay.evolves,Uttarakhand
"Tata Motors Cars Showroom - Dulichand Motors Pvt Ltd, Maniktala","No 242/1A, Himadri Building, Acharya Prafulla Chandra Road",Kolkata,9.19167E+11,twirls.outs.similar,West-Bengal
"Tata Motors Cars Showroom - KB Motors, Ballygunge",No 63C,Kolkata,9.17045E+11,unionists.expensive.pizzas,West-Bengal
"Tata Motors Cars Showroom - Rangeet, Southern Avenue","135/A, Srijan Heritage Heights, SP Mukherjee Road",Kolkata,9.18291E+11,lighters.outlast.motoring,West-Bengal
"Tata Motors Cars Showroom - KB Motors, Alipur","No 2/3, Judges Court Road",Kolkata,9.19619E+11,grower.lame.shrubbery,West-Bengal
"Tata Motors Cars Showroom - Lexus Motors, BT Road",No 149,Kolkata,9.17045E+11,popping.ankle.presides,West-Bengal
"Tata Motors Cars Showroom - Dulichand Motors, EM Bypass","No 686, Shrachi Tower",Kolkata,9.17045E+11,intruding.showrooms.protester,West-Bengal
"Tata Motors Cars Showroom - Lexus Motors, Barasat",Moynagudi,Barasat,9.18291E+11,unfair.darkest.summaries,West-Bengal
"Tata Motors Cars Showroom - Maheshtala, Rangeet","C2/110A/ & C2/110/, Ward No 11, Budge Budge Trunk Road",Kolkata,9.18291E+11,advancing.rivals.faces,West-Bengal
"Tata Motors Cars Showroom - Dulichand Motors, Baruipur",Khasmallik,Baruipur,9.18291E+11,pile.mailers.cabs,West-Bengal
"Tata Motors Cars Showroom - Lexus Motors, Rajarhat","Plot No 2D/13, Action Area 2, New Town, D Major Arterial Rd",Kolkata,9.17045E+11,easy.hothouse.facelift,West-Bengal
"Tata Motors Cars Showroom - TC Motors, Rajarhat","Plot No 204, New Town Road",Kolkata,9.17045E+11,loaning.sweetener.mere,West-Bengal
"Tata Motors Cars Showroom - Lexus Motors, Howrah","No 109/1, Foreshore Road",Howrah,9.18291E+11,dorm.perfect.fuse,West-Bengal
"Tata Motors Cars Showroom - TC Motors, Howrah","Banitabla, Mouza",Howrah,9.19168E+11,elevates.contents.dunes,West-Bengal
"Tata Motors Cars Showroom - TC Motors, Salap","Ground Floor, NH 6, Salap More",Howrah,9.17045E+11,ditching.doses.merely,West-Bengal
"Tata Motors Cars Showroom - Lexus Motors, Singur","No 234/2, Mahesh",Serampore,9.18291E+11,watchdogs.nudge.excavated,West-Bengal
"Tata Motors Cars Showroom - Rangeview Auto, Uttarpara","Block No 15, 9K G T Road, Regent Star Mall",Uttarpara,9.18879E+11,translate.snuggled.cautious,West-Bengal
"Tata Motors Cars Showroom - Lexus Motors, Ghanshyampur More","Durgapur Highway, Singur CCP",Singur,9.18291E+11,partly.harsh.mediate,West-Bengal
"Tata Motors Cars Showroom - Banerjee Automobiles, Bardhman","Ferighat Parking, Purba Burdwan, NH 2, Fagupur",Bardhaman,9.17045E+11,smothered.capers.tigers,West-Bengal
"Tata Motors Cars Showroom - Chandrani, Durgapur","Holding No 1/N, Mritunjoy Housing Colony",Durgapur,9.17045E+11,apricot.recliner.objecting,West-Bengal
"Tata Motors Cars Showroom - Chandrani, Asansol","N 536, NH 2",Asansol,9.17045E+11,speaking.pencils.retraced,West-Bengal
"Tata Motors Cars Showroom - Chandrani, Rupnarayanpur",West Rangamatia,Rupnarayanpur,9.18291E+11,doers.finalist.scoundrel,West-Bengal
"Tata Motors Cars Showroom - Banerjee Automobiles, Kalna",Uttargowara,Bardhaman,9.19168E+11,biopsy.verging.abets,West-Bengal
"Tata Motors Cars Showroom - Krishnaacar World Pvt Ltd, Meceda","Ground Floor, Kolaghat, Kakdihi",East Midnapur,9.18291E+11,standoff.blunter.cactus,West-Bengal
"Tata Motors Cars Showroom - Krishnaa Car, Chandrakona","Bila, Satbankura",West Midnapore,9.18291E+11,rosebuds.keycard.insincerity,West-Bengal
"Tata Motors Cars Showroom - Krishnaa Car, Kharagpur","Arman Building, Inda OT Road",Kharagpur,9.17045E+11,awoke.inflates.caller,West-Bengal
"Tata Motors Cars Showroom - Krishnaa Car, Contai","Kanthi Baliari, Sasania",Contai,9.18879E+11,outnumber.object.rivals,West-Bengal
"Tata Motors Cars Showroom - Krishnaacar World Pvt Ltd, Jhargram","Ward No 13, Main Road, Puratan",Jhargram,9.19168E+11,grounding.sleepless.dive,West-Bengal
"Tata Motors Cars Showroom - Krishnaa Car, Haldia",Brajalal Chowk,Haldia,9.18291E+11,cure.regulates.bolsters,West-Bengal
"Tata Motors Cars Showroom - Krishnaa Car, Tamluk","Ward No 19, Chaudkhaya",East Midnapore,9.18879E+11,evenly.analytical.roadways,West-Bengal
"Tata Motors Cars Showroom - Banerjee Automobiles Pvt Ltd, Bankura","Kuraria, Bikna, Bankura Durgapur Bypass Road",Bankura,9.18291E+11,plays.mills.blesses,West-Bengal
"Tata Motors Cars Showroom - Banerjee Automobiles, Purulia","Tata Road, Dulmi Nadiha",Purulia,9.18291E+11,timidly.wishes.clotting,West-Bengal
Tata Motors Cars Showroom - Banerjee Automobiles,No SH 5,Puruliya,9.17478E+11,docked.prevailing.trendiness,West-Bengal
"Tata Motors Cars Showroom - Banerjee Automobiles, Suri",Ground Floor,Suri,9.18291E+11,indoors.rails.cuddled,West-Bengal
"Tata Motors Cars Showroom - Banerjee Automobiles, Rampurhat",Ground Floor,Rampurhat,9.18536E+11,shutdown.begins.circle,West-Bengal
"Tata Motors Cars Showroom - Banerjee Automobiles, Bolpur",Bypass More,Bolpur,9.18291E+11,trips.funded.domain,West-Bengal
"Tata Motors Cars Showroom - Lexican Motors, Malda","Ground Floor, NH 34, Mangalbari",Malda,9.17045E+11,hugs.chef.piled,West-Bengal
"Tata Motors Cars Showroom - Lexican Motors, Beltala Park","Mangalpur More, Dinajpur Dakshin",Balurghat,9.19168E+11,noun.modest.hours,West-Bengal
"Tata Motors Cars Showroom - Rangeet Auto, Raiganj",NH 34,Raiganj,9.18291E+11,songbird.create.sandwich,West-Bengal
"Tata Motors Cars Showroom - Rangeet Auto, Islampur","NH 34, College More",Islampur,9.18291E+11,expensive.galaxy.haggis,West-Bengal
"Tata Motors Cars Showroom - Rangeet Auto, Sevoke Road","Shop No 1 and 2, Orchid Building",Siliguri,9.17045E+11,valuables.repelled.hogs,West-Bengal
"Tata Motors Cars Showroom - Rangeet Noukaghat, Saktigarh","Durga Travels Building, Noukaghat More, Barbhaman Road",Siliguri,9.19619E+11,evaporate.lousy.brothers,West-Bengal
"Tata Motors Cars Showroom - Lexican Motors, Kusumnagar","Ground Floor, Matigara, NH 31",Siliguri,9.17045E+11,overcomes.beauty.fanfare,West-Bengal
"Tata Motors Cars Showroom - Rangeet Auto, Dali Gumpha",Hill Cart Road,Darjeeling,9.19168E+11,asserts.homelands.welfare,West-Bengal
"Tata Motors Cars Showroom - Rangeet Auto, Jalpaiguri",Ground Floor,Jalpaiguri,9.18291E+11,mopped.lined.windmill,West-Bengal
"Tata Motors Cars Showroom - Rangeet Auto, Caltax More","Malbazar, Jurujan More",Malbazar,9.19619E+11,whistling.intersect.powering,West-Bengal
"Tata Motors Cars Showroom - Rangeet Auto, Coochbehar",No 31,Cooch Behar,9.17045E+11,mingling.refills.decoys,West-Bengal
"Tata Motors Cars Showroom - Rangeet Auto, Near ITI More",Birpara,Cooch Behar,9.1888E+11,racketeers.rudest.loss,West-Bengal
"Tata Motors Cars Showroom - Nibir Motors, Krishnanagar","Madhuban, NH 34",Krishnanagar,9.18291E+11,bins.pausing.formally,West-Bengal
Tata Motors Cars Showroom - Nibir Motors Pvt Ltd,"Ground Floor, Kaliganj, Nafia",Nadia,9.19619E+11,tollbooths.jams.pick,West-Bengal
"Tata Motors Cars Showroom - Nibir Motors, Chakdaha",Singher Bagan More,Chakdaha,9.18879E+11,prickly.octagonal.taster,West-Bengal
"Tata Motors Cars Showroom - Nibir Motors, Kalyani","B14/3, Block B",Kalyani,9.18291E+11,hinted.fills.conducted,West-Bengal
"Tata Motors Cars Showroom - Nibir Motors, Berhampore","Ground Floor, Boyaliadanga, Jalangi Road",Berhampore,9.17045E+11,danger.etchings.yours,West-Bengal
"Tata Motors Cars Showroom - Nibir Motors, Raghunathganj","Ghorsala, NH 34",Umarpur,9.18291E+11,persisting.blossom.beeped,West-Bengal
